id,trial_id,facility_name,country,city,address,latitude,longitude,link,last_modified
65c9d31fcd713395fbb52afa,NCT01833793,,Algeria,Many Locations,,,,https://clinicaltrials.gov/api/v2/studies,2024-02-12T10:13:03.049Z
65c9d31fcd713395fbb52afc,NCT01459809,Investigational Site Number 01206,Algeria,Algeries,,,,https://clinicaltrials.gov/api/v2/studies,2024-02-12T10:13:18.964Z
65c9d31fcd713395fbb52afe,NCT01459809,Investigational Site Number 01203,Algeria,Oran,31000,35.69906,-0.63588,https://clinicaltrials.gov/api/v2/studies,2024-02-12T10:13:18.964Z
65c9d31fcd713395fbb52b00,NCT01459809,Investigational Site Number 01205,Algeria,Setif,19000,36.19112,5.41373,https://clinicaltrials.gov/api/v2/studies,2024-02-12T10:13:18.964Z
65c9d31fcd713395fbb52b02,NCT01459809,Investigational Site Number 81801,Egypt,Cairo,,30.06263,31.24967,https://clinicaltrials.gov/api/v2/studies,2024-02-12T10:13:18.964Z
65c9d31fcd713395fbb52b04,NCT01459809,Investigational Site Number 81802,Egypt,Cairo,,30.06263,31.24967,https://clinicaltrials.gov/api/v2/studies,2024-02-12T10:13:18.964Z
65c9d31fcd713395fbb52b06,NCT01459809,Investigational Site Number 81803,Egypt,Cairo,,30.06263,31.24967,https://clinicaltrials.gov/api/v2/studies,2024-02-12T10:13:18.964Z
65c9d31fcd713395fbb52b08,NCT01459809,Investigational Site Number 710-002,South Africa,Durban,4091,-29.8579,31.0292,https://clinicaltrials.gov/api/v2/studies,2024-02-12T10:13:18.964Z
65c9d31fcd713395fbb52b0a,NCT01459809,Investigational Site Number 710-001,South Africa,Durban,4092,-29.8579,31.0292,https://clinicaltrials.gov/api/v2/studies,2024-02-12T10:13:18.964Z
65c9d31fcd713395fbb52b0c,NCT01459809,Investigational Site Number 78803,Tunisia,La Marsa,2070,36.87818,10.32466,https://clinicaltrials.gov/api/v2/studies,2024-02-12T10:13:18.964Z
65c9d31fcd713395fbb52b0e,NCT01459809,Investigational Site Number 78804,Tunisia,La Marsa,2070,36.87818,10.32466,https://clinicaltrials.gov/api/v2/studies,2024-02-12T10:13:18.964Z
65c9d31fcd713395fbb52b10,NCT01459809,Investigational Site Number 78805,Tunisia,Sfax,,34.74056,10.76028,https://clinicaltrials.gov/api/v2/studies,2024-02-12T10:13:18.964Z
65c9d31fcd713395fbb52b12,NCT01459809,Investigational Site Number 78801,Tunisia,Tunis,,36.81897,10.16579,https://clinicaltrials.gov/api/v2/studies,2024-02-12T10:13:18.964Z
65c9d31fcd713395fbb52b14,NCT01459809,Investigational Site Number 78802,Tunisia,Tunis,,36.81897,10.16579,https://clinicaltrials.gov/api/v2/studies,2024-02-12T10:13:18.964Z
65c9d31fcd713395fbb52b16,NCT01459809,Investigational Site Number 78806,Tunisia,Tunis,,36.81897,10.16579,https://clinicaltrials.gov/api/v2/studies,2024-02-12T10:13:18.964Z
65c9d31fcd713395fbb52b18,NCT01459809,Investigational Site Number 78807,Tunisia,Tunis,,36.81897,10.16579,https://clinicaltrials.gov/api/v2/studies,2024-02-12T10:13:18.964Z
65c9d31fcd713395fbb52b1a,NCT03039049,Ibnrochd Clinic,Algeria,Constantine,25000,36.365,6.61472,https://clinicaltrials.gov/api/v2/studies,2024-02-12T10:13:03.049Z
65c9d31fcd713395fbb52b1c,NCT03039049,Ibnrochd IVF center,Algeria,Constantine,25000,36.365,6.61472,https://clinicaltrials.gov/api/v2/studies,2024-02-12T10:13:03.049Z
65c9d31fcd713395fbb52b1e,NCT01204593,Investigational Site Number 01201,Algeria,Algeries,,,,https://clinicaltrials.gov/api/v2/studies,2024-02-12T10:13:18.964Z
65c9d31fcd713395fbb52b20,NCT01204593,Investigational Site Number 01202,Algeria,Algiers,,36.73225,3.08746,https://clinicaltrials.gov/api/v2/studies,2024-02-12T10:13:18.964Z
65c9d31fcd713395fbb52b22,NCT01204593,Investigational Site Number 01203,Algeria,Algiers,,36.73225,3.08746,https://clinicaltrials.gov/api/v2/studies,2024-02-12T10:13:18.964Z
65c9d31fcd713395fbb52b24,NCT01204593,Investigational Site Number 01204,Algeria,Algiers,,36.73225,3.08746,https://clinicaltrials.gov/api/v2/studies,2024-02-12T10:13:18.964Z
65c9d31fcd713395fbb52b26,NCT01204593,Investigational Site Number 12468,South Africa,Benoni,,-26.18848,28.32078,https://clinicaltrials.gov/api/v2/studies,2024-02-12T10:13:18.964Z
65c9d31fcd713395fbb52b28,NCT01204593,Investigational Site Number 710004,South Africa,Benoni,,-26.18848,28.32078,https://clinicaltrials.gov/api/v2/studies,2024-02-12T10:13:18.964Z
65c9d31fcd713395fbb52b2a,NCT01204593,Investigational Site Number 12466,South Africa,Bloemfontein,9301,-29.12107,26.214,https://clinicaltrials.gov/api/v2/studies,2024-02-12T10:13:18.964Z
65c9d31fcd713395fbb52b2c,NCT01204593,Investigational Site Number 710006,South Africa,Bloemfontein,9301,-29.12107,26.214,https://clinicaltrials.gov/api/v2/studies,2024-02-12T10:13:18.964Z
65c9d31fcd713395fbb52b2e,NCT01204593,Investigational Site Number 12464,South Africa,Durban,4091,-29.8579,31.0292,https://clinicaltrials.gov/api/v2/studies,2024-02-12T10:13:18.964Z
65c9d31fcd713395fbb52b30,NCT01204593,Investigational Site Number 12465,South Africa,Durban,4091,-29.8579,31.0292,https://clinicaltrials.gov/api/v2/studies,2024-02-12T10:13:18.964Z
65c9d31fcd713395fbb52b32,NCT01204593,Investigational Site Number 710001,South Africa,Durban,4091,-29.8579,31.0292,https://clinicaltrials.gov/api/v2/studies,2024-02-12T10:13:18.964Z
65c9d31fcd713395fbb52b34,NCT01204593,Investigational Site Number 710002,South Africa,Durban,4091,-29.8579,31.0292,https://clinicaltrials.gov/api/v2/studies,2024-02-12T10:13:18.964Z
65c9d31fcd713395fbb52b36,NCT01204593,Investigational Site Number 12484,South Africa,Port Elizabeth,6000,-33.91799,25.57007,https://clinicaltrials.gov/api/v2/studies,2024-02-12T10:13:18.964Z
65c9d31fcd713395fbb52b38,NCT01204593,Investigational Site Number 710003,South Africa,Port Elizabeth,6000,-33.91799,25.57007,https://clinicaltrials.gov/api/v2/studies,2024-02-12T10:13:18.964Z
65c9d31fcd713395fbb52b3a,NCT01204593,Investigational Site Number 12467,South Africa,Pretoria,,-25.74486,28.18783,https://clinicaltrials.gov/api/v2/studies,2024-02-12T10:13:18.964Z
65c9d31fcd713395fbb52b3c,NCT01204593,Investigational Site Number 710005,South Africa,Pretoria,,-25.74486,28.18783,https://clinicaltrials.gov/api/v2/studies,2024-02-12T10:13:18.964Z
65c9d31fcd713395fbb52b3e,NCT01204593,Investigational Site Number 78801,Tunisia,Sfax,,34.74056,10.76028,https://clinicaltrials.gov/api/v2/studies,2024-02-12T10:13:18.964Z
65c9d31fcd713395fbb52b40,NCT01204593,Investigational Site Number 78805,Tunisia,Sfax,,34.74056,10.76028,https://clinicaltrials.gov/api/v2/studies,2024-02-12T10:13:18.964Z
65c9d31fcd713395fbb52b42,NCT01204593,Investigational Site Number 78803,Tunisia,Tunis,1006,36.81897,10.16579,https://clinicaltrials.gov/api/v2/studies,2024-02-12T10:13:18.964Z
65c9d31fcd713395fbb52b44,NCT01204593,Investigational Site Number 78802,Tunisia,Tunis,,36.81897,10.16579,https://clinicaltrials.gov/api/v2/studies,2024-02-12T10:13:18.964Z
65c9d31fcd713395fbb52b46,NCT01204593,Investigational Site Number 78804,Tunisia,Tunis,,36.81897,10.16579,https://clinicaltrials.gov/api/v2/studies,2024-02-12T10:13:18.964Z
65c9d31fcd713395fbb52b48,NCT01234545,,Morocco,Casablanca,20000,33.58831,-7.61138,https://clinicaltrials.gov/api/v2/studies,2024-02-12T10:13:07.920Z
65c9d31fcd713395fbb52b4b,NCT02648217,Novo Nordisk Investigational Site,South Africa,Cape Town,Western Cape 7925,-33.92584,18.42322,https://clinicaltrials.gov/api/v2/studies,2024-02-12T10:13:17.779Z
65c9d31fcd713395fbb52b59,NCT01068652,Novo Nordisk Investigational Site,Tunisia,Tunisia,1053,,,https://clinicaltrials.gov/api/v2/studies,2024-02-12T10:13:18.965Z
65c9d31fcd713395fbb52b6e,NCT03413579,Centre Pierre et Marie Curie (CPMC),Algeria,Algiers,,36.73225,3.08746,https://clinicaltrials.gov/api/v2/studies,2024-02-12T10:13:03.049Z
65c9d31fcd713395fbb52b70,NCT03413579,CAC Annaba,Algeria,Annaba,,36.9,7.76667,https://clinicaltrials.gov/api/v2/studies,2024-02-12T10:13:03.049Z
65c9d31fcd713395fbb52b72,NCT03413579,CAC Batna,Algeria,Batna,,35.55597,6.17414,https://clinicaltrials.gov/api/v2/studies,2024-02-12T10:13:03.049Z
65c9d31fcd713395fbb52b74,NCT03413579,CHU Frantz Fanon,Algeria,Blida,,36.47004,2.8277,https://clinicaltrials.gov/api/v2/studies,2024-02-12T10:13:03.049Z
65c9d31fcd713395fbb52b76,NCT03413579,CHU Sidi Belloua,Algeria,Tizi Ouzou,,36.71182,4.04591,https://clinicaltrials.gov/api/v2/studies,2024-02-12T10:13:03.049Z
65c9d31fcd713395fbb52b78,NCT02002091,Internal Medicine department - Ain-Taya's Hospital,Algeria,Ain - Taya,Algiers 16019,36.79333,3.28694,https://clinicaltrials.gov/api/v2/studies,2024-02-12T10:13:03.049Z
65c9d31fcd713395fbb52b7a,NCT02704091,"Cabinet privé, Coopératives El MOSTAKBAL, BIRKHADEM",Algeria,Algiers,16000,36.73225,3.08746,https://clinicaltrials.gov/api/v2/studies,2024-02-12T10:13:18.965Z
65c9d31fcd713395fbb52b7c,NCT02704091,CHU Beni Messous,Algeria,Algiers,16000,36.73225,3.08746,https://clinicaltrials.gov/api/v2/studies,2024-02-12T10:13:18.965Z
65c9d31fcd713395fbb52b7e,NCT02704091,CHU Mustapha,Algeria,Algiers,16000,36.73225,3.08746,https://clinicaltrials.gov/api/v2/studies,2024-02-12T10:13:18.965Z
65c9d31fcd713395fbb52b80,NCT02704091,Polyclinique d'el Achour,Algeria,Algiers,16000,36.73225,3.08746,https://clinicaltrials.gov/api/v2/studies,2024-02-12T10:13:18.965Z
65c9d31fcd713395fbb52b82,NCT02704091,Polyclinique de Baba Hassen,Algeria,Algiers,16000,36.73225,3.08746,https://clinicaltrials.gov/api/v2/studies,2024-02-12T10:13:18.965Z
65c9d31fcd713395fbb52b84,NCT02704091,"Cabinet privé, 29 avenue amara Youcef",Algeria,Blida,9000,36.47004,2.8277,https://clinicaltrials.gov/api/v2/studies,2024-02-12T10:13:18.965Z
65c9d31fcd713395fbb52b86,NCT02704091,EPH Blida,Algeria,Blida,9000,36.47004,2.8277,https://clinicaltrials.gov/api/v2/studies,2024-02-12T10:13:18.965Z
65c9d31fcd713395fbb52b88,NCT02704091,EPH EL Afroun,Algeria,Blida,9000,36.47004,2.8277,https://clinicaltrials.gov/api/v2/studies,2024-02-12T10:13:18.965Z
65c9d31fcd713395fbb52b8a,NCT02704091,EPH Bologhine,Algeria,Bologhine,16000,36.80673,3.04016,https://clinicaltrials.gov/api/v2/studies,2024-02-12T10:13:18.965Z
65c9d31fcd713395fbb52b8c,NCT02704091,"Cabinet privé, cité des 408 lgmts Bt3",Algeria,Boumerdas,35000,36.76639,3.47717,https://clinicaltrials.gov/api/v2/studies,2024-02-12T10:13:18.965Z
65c9d31fcd713395fbb52b8e,NCT02704091,CHU BEN BADIS Constantine,Algeria,Constantine,25000,36.365,6.61472,https://clinicaltrials.gov/api/v2/studies,2024-02-12T10:13:18.965Z
65c9d31fcd713395fbb52b90,NCT02704091,Polyclinique de Dély Brahim,Algeria,Deli Ibrahim,16000,36.75101,2.98339,https://clinicaltrials.gov/api/v2/studies,2024-02-12T10:13:18.965Z
65c9d31fcd713395fbb52b92,NCT02704091,Polyclinique DRARIA,Algeria,Draria,16000,36.71225,2.99739,https://clinicaltrials.gov/api/v2/studies,2024-02-12T10:13:18.965Z
65c9d31fcd713395fbb52b94,NCT02704091,CHU Oran,Algeria,Oran,31000,35.69906,-0.63588,https://clinicaltrials.gov/api/v2/studies,2024-02-12T10:13:18.965Z
65c9d31fcd713395fbb52b96,NCT02704091,Clinical Research Center,Egypt,Alexandria,,31.21564,29.95527,https://clinicaltrials.gov/api/v2/studies,2024-02-12T10:13:18.965Z
65c9d31fcd713395fbb52b98,NCT02704091,Ain Shams University Hospitals,Egypt,Cairo,,30.06263,31.24967,https://clinicaltrials.gov/api/v2/studies,2024-02-12T10:13:18.965Z
65c9d31fcd713395fbb52b9a,NCT02704091,Air Force Specialized Hospital,Egypt,Cairo,,30.06263,31.24967,https://clinicaltrials.gov/api/v2/studies,2024-02-12T10:13:18.965Z
65c9d31fcd713395fbb52b9c,NCT02704091,Al Hussein University Hospital,Egypt,Cairo,,30.06263,31.24967,https://clinicaltrials.gov/api/v2/studies,2024-02-12T10:13:18.965Z
65c9d31fcd713395fbb52b9e,NCT02704091,Badr University Hospital,Egypt,Cairo,,30.06263,31.24967,https://clinicaltrials.gov/api/v2/studies,2024-02-12T10:13:18.965Z
65c9d31fcd713395fbb52ba0,NCT02704091,Cairo University,Egypt,Cairo,,30.06263,31.24967,https://clinicaltrials.gov/api/v2/studies,2024-02-12T10:13:18.965Z
65c9d31fcd713395fbb52ba2,NCT02704091,Tanta University,Egypt,Tanta,,30.78847,31.00192,https://clinicaltrials.gov/api/v2/studies,2024-02-12T10:13:18.965Z
65c9d31fcd713395fbb52ba4,NCT02704091,CSB Zouhour,Tunisia,Sousse,4031,35.82539,10.63699,https://clinicaltrials.gov/api/v2/studies,2024-02-12T10:13:18.965Z
65c9d31fcd713395fbb52ba6,NCT02704091,Hôpital Régional de Ben Arous,Tunisia,Ben Arous,,36.75306,10.21889,https://clinicaltrials.gov/api/v2/studies,2024-02-12T10:13:18.965Z
65c9d31fcd713395fbb52ba8,NCT02704091,Centre intermédiaire de Santé de Base,Tunisia,La Marsa,2078,36.87818,10.32466,https://clinicaltrials.gov/api/v2/studies,2024-02-12T10:13:18.965Z
65c9d31fcd713395fbb52baa,NCT02704091,Hôpital des Forces de Sécurité Intérieure,Tunisia,La Marsa,2078,36.87818,10.32466,https://clinicaltrials.gov/api/v2/studies,2024-02-12T10:13:18.965Z
65c9d31fcd713395fbb52bac,NCT02704091,CSB Hedi Chaker,Tunisia,Sousse,4000,35.82539,10.63699,https://clinicaltrials.gov/api/v2/studies,2024-02-12T10:13:18.965Z
65c9d31fcd713395fbb52bae,NCT02704091,Hôpital Universitaire Salhoul,Tunisia,Sousse,4011,35.82539,10.63699,https://clinicaltrials.gov/api/v2/studies,2024-02-12T10:13:18.965Z
65c9d31fcd713395fbb52bb0,NCT02704091,CSB Akouda,Tunisia,Sousse,4022,35.82539,10.63699,https://clinicaltrials.gov/api/v2/studies,2024-02-12T10:13:18.965Z
65c9d31fcd713395fbb52bb2,NCT02704091,CSB Sidi Bou Ali,Tunisia,Sousse,4022,35.82539,10.63699,https://clinicaltrials.gov/api/v2/studies,2024-02-12T10:13:18.965Z
65c9d31fcd713395fbb52bb5,NCT02704091,CSB Nager,Tunisia,Sousse,4041,35.82539,10.63699,https://clinicaltrials.gov/api/v2/studies,2024-02-12T10:13:18.965Z
65c9d31fcd713395fbb52bb7,NCT02704091,CSB Riadh,Tunisia,Sousse,4041,35.82539,10.63699,https://clinicaltrials.gov/api/v2/studies,2024-02-12T10:13:18.965Z
65c9d31fcd713395fbb52bb9,NCT02704091,CSB Oued Blibène,Tunisia,Sousse,4051,35.82539,10.63699,https://clinicaltrials.gov/api/v2/studies,2024-02-12T10:13:18.965Z
65c9d31fcd713395fbb52bbb,NCT02704091,CSB Kalaa Kébira,Tunisia,Sousse,4060,35.82539,10.63699,https://clinicaltrials.gov/api/v2/studies,2024-02-12T10:13:18.965Z
65c9d31fcd713395fbb52bbd,NCT02704091,CSB Zaouia,Tunisia,Sousse,4081,35.82539,10.63699,https://clinicaltrials.gov/api/v2/studies,2024-02-12T10:13:18.965Z
65c9d31fcd713395fbb52bbf,NCT02704091,Centre de santé de base Bab Laasal,Tunisia,Tunis,1006,36.81897,10.16579,https://clinicaltrials.gov/api/v2/studies,2024-02-12T10:13:18.965Z
65c9d31fcd713395fbb52bc1,NCT02704091,Hopital Militaire Principal d'instructions de Tunis,Tunisia,Tunis,1008,36.81897,10.16579,https://clinicaltrials.gov/api/v2/studies,2024-02-12T10:13:18.965Z
65c9d31fcd713395fbb52bc3,NCT02704091,Centre de santé de base Ras Tabia,Tunisia,Tunis,2000,36.81897,10.16579,https://clinicaltrials.gov/api/v2/studies,2024-02-12T10:13:18.965Z
65c9d31fcd713395fbb52bc5,NCT02704091,Centre de santé de base Ksar Said,Tunisia,Tunis,2009,36.81897,10.16579,https://clinicaltrials.gov/api/v2/studies,2024-02-12T10:13:18.965Z
65c9d31fcd713395fbb52bc7,NCT02704091,Centre de santé de base Ibn Khaldoun,Tunisia,Tunis,2062,36.81897,10.16579,https://clinicaltrials.gov/api/v2/studies,2024-02-12T10:13:18.965Z
65c9d31fcd713395fbb52bc9,NCT00869908,Novo Nordisk Investigational Site,Tunisia,Tunisia,1053,,,https://clinicaltrials.gov/api/v2/studies,2024-02-12T10:13:18.965Z
65c9d31fcd713395fbb52bce,NCT01964391,Centre hospitalo-univerisitaire de Rouiba;Service d'oncologie médicale,Algeria,Algiers,16016,36.73225,3.08746,https://clinicaltrials.gov/api/v2/studies,2024-02-12T10:13:18.965Z
65c9d31fcd713395fbb52bd0,NCT01964391,Centre Anti Cancer Beau-fraisier;Service d'oncologie médicale,Algeria,Algiers,16340,36.73225,3.08746,https://clinicaltrials.gov/api/v2/studies,2024-02-12T10:13:18.965Z
65c9d31fcd713395fbb52bd2,NCT01964391,CHU Annaba; Service d'Oncologie Médicale,Algeria,Annaba,23000,36.9,7.76667,https://clinicaltrials.gov/api/v2/studies,2024-02-12T10:13:18.965Z
65c9d31fcd713395fbb52bd4,NCT01964391,EHS Oncologie Emir Abdelkader Oran; Service d'Oncologie Médicale,Algeria,Oran,31000,35.69906,-0.63588,https://clinicaltrials.gov/api/v2/studies,2024-02-12T10:13:18.965Z
65c9d31fcd713395fbb52bd6,NCT01964391,Clinique Littoral,Morocco,Casablanca,20052,33.58831,-7.61138,https://clinicaltrials.gov/api/v2/studies,2024-02-12T10:13:18.965Z
65c9d31fcd713395fbb52bd8,NCT01964391,Centre Hospitalier Universitaire Mohamed VI; Oncologie-Hématologie,Morocco,Marrakech,40000,31.63416,-7.99994,https://clinicaltrials.gov/api/v2/studies,2024-02-12T10:13:18.965Z
65c9d31fcd713395fbb52bda,NCT01964391,Institut National D'oncologie Sidi Med Benabdellah,Morocco,Rabat,6213,34.01325,-6.83255,https://clinicaltrials.gov/api/v2/studies,2024-02-12T10:13:18.965Z
65c9d31fcd713395fbb52bdc,NCT01964391,Abderrahmen Mami Hospital; Medical Oncology department,Tunisia,Ariana,2080,36.86012,10.19337,https://clinicaltrials.gov/api/v2/studies,2024-02-12T10:13:18.965Z
65c9d31fcd713395fbb52bde,NCT01964391,Habib Bourguiba Hospital; Oncology department,Tunisia,Sfax,3029,34.74056,10.76028,https://clinicaltrials.gov/api/v2/studies,2024-02-12T10:13:18.965Z
65c9d31fcd713395fbb52be0,NCT01964391,Farhat Hached Hospital; Oncology department,Tunisia,Sousse,4031,35.82539,10.63699,https://clinicaltrials.gov/api/v2/studies,2024-02-12T10:13:18.965Z
65c9d31fcd713395fbb52be2,NCT01964391,Institut Salah Azaïz; Service de Médecine Carcinologique,Tunisia,Tunis,1029,36.81897,10.16579,https://clinicaltrials.gov/api/v2/studies,2024-02-12T10:13:18.965Z
65c9d31fcd713395fbb52be4,NCT01853839,Boehringer Ingelheim Investigational Site 106,Algeria,Algiers,,36.73225,3.08746,https://clinicaltrials.gov/api/v2/studies,2024-02-12T10:13:06.111Z
65c9d31fcd713395fbb52be6,NCT01853839,Boehringer Ingelheim Investigational Site 107,Algeria,Algiers,,36.73225,3.08746,https://clinicaltrials.gov/api/v2/studies,2024-02-12T10:13:06.111Z
65c9d31fcd713395fbb52be8,NCT01853839,Boehringer Ingelheim Investigational Site 108,Algeria,Algiers,,36.73225,3.08746,https://clinicaltrials.gov/api/v2/studies,2024-02-12T10:13:06.111Z
65c9d31fcd713395fbb52bea,NCT01853839,Boehringer Ingelheim Investigational Site 109,Algeria,Algiers,,36.73225,3.08746,https://clinicaltrials.gov/api/v2/studies,2024-02-12T10:13:06.111Z
65c9d31fcd713395fbb52bec,NCT01853839,Boehringer Ingelheim Investigational Site 110,Algeria,Algiers,,36.73225,3.08746,https://clinicaltrials.gov/api/v2/studies,2024-02-12T10:13:06.111Z
65c9d31fcd713395fbb52bee,NCT01853839,Boehringer Ingelheim Investigational Site 111,Algeria,Algiers,,36.73225,3.08746,https://clinicaltrials.gov/api/v2/studies,2024-02-12T10:13:06.111Z
65c9d31fcd713395fbb52bf0,NCT01853839,Boehringer Ingelheim Investigational Site 112,Algeria,Algiers,,36.73225,3.08746,https://clinicaltrials.gov/api/v2/studies,2024-02-12T10:13:06.111Z
65c9d31fcd713395fbb52bf2,NCT01853839,Boehringer Ingelheim Investigational Site 113,Algeria,Algiers,,36.73225,3.08746,https://clinicaltrials.gov/api/v2/studies,2024-02-12T10:13:06.111Z
65c9d31fcd713395fbb52bf4,NCT01853839,Boehringer Ingelheim Investigational Site 114,Algeria,Algiers,,36.73225,3.08746,https://clinicaltrials.gov/api/v2/studies,2024-02-12T10:13:06.111Z
65c9d31fcd713395fbb52bf6,NCT01853839,Boehringer Ingelheim Investigational Site 115,Algeria,Algiers,,36.73225,3.08746,https://clinicaltrials.gov/api/v2/studies,2024-02-12T10:13:06.111Z
65c9d31fcd713395fbb52bf8,NCT01853839,Boehringer Ingelheim Investigational Site 116,Algeria,Algiers,,36.73225,3.08746,https://clinicaltrials.gov/api/v2/studies,2024-02-12T10:13:06.111Z
65c9d31fcd713395fbb52bfa,NCT01853839,Boehringer Ingelheim Investigational Site 117,Algeria,Algiers,,36.73225,3.08746,https://clinicaltrials.gov/api/v2/studies,2024-02-12T10:13:06.111Z
65c9d31fcd713395fbb52bfc,NCT01853839,Boehringer Ingelheim Investigational Site 118,Algeria,Algiers,,36.73225,3.08746,https://clinicaltrials.gov/api/v2/studies,2024-02-12T10:13:06.111Z
65c9d31fcd713395fbb52bfe,NCT01853839,Boehringer Ingelheim Investigational Site 119,Algeria,Algiers,,36.73225,3.08746,https://clinicaltrials.gov/api/v2/studies,2024-02-12T10:13:06.111Z
65c9d31fcd713395fbb52c00,NCT01853839,Boehringer Ingelheim Investigational Site 120,Algeria,Algiers,,36.73225,3.08746,https://clinicaltrials.gov/api/v2/studies,2024-02-12T10:13:06.111Z
65c9d31fcd713395fbb52c02,NCT01853839,Boehringer Ingelheim Investigational Site 121,Algeria,Algiers,,36.73225,3.08746,https://clinicaltrials.gov/api/v2/studies,2024-02-12T10:13:06.111Z
65c9d31fcd713395fbb52c04,NCT01853839,Boehringer Ingelheim Investigational Site 122,Algeria,Algiers,,36.73225,3.08746,https://clinicaltrials.gov/api/v2/studies,2024-02-12T10:13:06.111Z
65c9d31fcd713395fbb52c06,NCT01853839,Boehringer Ingelheim Investigational Site 123,Algeria,Algiers,,36.73225,3.08746,https://clinicaltrials.gov/api/v2/studies,2024-02-12T10:13:06.111Z
65c9d31fcd713395fbb52c08,NCT01853839,Boehringer Ingelheim Investigational Site 124,Algeria,Algiers,,36.73225,3.08746,https://clinicaltrials.gov/api/v2/studies,2024-02-12T10:13:06.111Z
65c9d31fcd713395fbb52c0a,NCT01853839,Boehringer Ingelheim Investigational Site 125,Algeria,Algiers,,36.73225,3.08746,https://clinicaltrials.gov/api/v2/studies,2024-02-12T10:13:06.111Z
65c9d31fcd713395fbb52c0c,NCT01853839,Boehringer Ingelheim Investigational Site 126,Algeria,Algiers,,36.73225,3.08746,https://clinicaltrials.gov/api/v2/studies,2024-02-12T10:13:06.111Z
65c9d31fcd713395fbb52c0e,NCT01853839,Boehringer Ingelheim Investigational Site 127,Algeria,Algiers,,36.73225,3.08746,https://clinicaltrials.gov/api/v2/studies,2024-02-12T10:13:06.111Z
65c9d31fcd713395fbb52c10,NCT01853839,Boehringer Ingelheim Investigational Site 128,Algeria,Algiers,,36.73225,3.08746,https://clinicaltrials.gov/api/v2/studies,2024-02-12T10:13:06.111Z
65c9d31fcd713395fbb52c12,NCT01853839,Boehringer Ingelheim Investigational Site 129,Algeria,Algiers,,36.73225,3.08746,https://clinicaltrials.gov/api/v2/studies,2024-02-12T10:13:06.111Z
65c9d31fcd713395fbb52c14,NCT01853839,Boehringer Ingelheim Investigational Site 130,Algeria,Algiers,,36.73225,3.08746,https://clinicaltrials.gov/api/v2/studies,2024-02-12T10:13:06.111Z
65c9d31fcd713395fbb52c16,NCT01853839,Boehringer Ingelheim Investigational Site 131,Algeria,Algiers,,36.73225,3.08746,https://clinicaltrials.gov/api/v2/studies,2024-02-12T10:13:06.111Z
65c9d31fcd713395fbb52c18,NCT01853839,Boehringer Ingelheim Investigational Site 15,Egypt,Alexandria,,31.21564,29.95527,https://clinicaltrials.gov/api/v2/studies,2024-02-12T10:13:06.111Z
65c9d31fcd713395fbb52c1a,NCT01853839,Boehringer Ingelheim Investigational Site 19,Egypt,Alexandria,,31.21564,29.95527,https://clinicaltrials.gov/api/v2/studies,2024-02-12T10:13:06.111Z
65c9d31fcd713395fbb52c1c,NCT01853839,Boehringer Ingelheim Investigational Site 21,Egypt,Alexandria,,31.21564,29.95527,https://clinicaltrials.gov/api/v2/studies,2024-02-12T10:13:06.111Z
65c9d31fcd713395fbb52c1e,NCT01853839,Boehringer Ingelheim Investigational Site 22,Egypt,Alexandria,,31.21564,29.95527,https://clinicaltrials.gov/api/v2/studies,2024-02-12T10:13:06.111Z
65c9d31fcd713395fbb52c20,NCT01853839,Boehringer Ingelheim Investigational Site 23,Egypt,Alexandria,,31.21564,29.95527,https://clinicaltrials.gov/api/v2/studies,2024-02-12T10:13:06.111Z
65c9d31fcd713395fbb52c22,NCT01853839,Boehringer Ingelheim Investigational Site 3,Egypt,Alexandria,,31.21564,29.95527,https://clinicaltrials.gov/api/v2/studies,2024-02-12T10:13:06.111Z
65c9d31fcd713395fbb52c24,NCT01853839,Boehringer Ingelheim Investigational Site 6,Egypt,Alexandria,,31.21564,29.95527,https://clinicaltrials.gov/api/v2/studies,2024-02-12T10:13:06.111Z
65c9d31fcd713395fbb52c26,NCT01853839,Boehringer Ingelheim Investigational Site 18,Egypt,Assuit,,27.18096,31.18368,https://clinicaltrials.gov/api/v2/studies,2024-02-12T10:13:06.111Z
65c9d31fcd713395fbb52c28,NCT01853839,Boehringer Ingelheim Investigational Site 27,Egypt,Assuit,,27.18096,31.18368,https://clinicaltrials.gov/api/v2/studies,2024-02-12T10:13:06.111Z
65c9d31fcd713395fbb52c2a,NCT01853839,Boehringer Ingelheim Investigational Site 11,Egypt,Banisuif,,,,https://clinicaltrials.gov/api/v2/studies,2024-02-12T10:13:06.111Z
65c9d31fcd713395fbb52c2c,NCT01853839,Boehringer Ingelheim Investigational Site 10,Egypt,Cairo,,30.06263,31.24967,https://clinicaltrials.gov/api/v2/studies,2024-02-12T10:13:06.111Z
65c9d31fcd713395fbb52c2e,NCT01853839,Boehringer Ingelheim Investigational Site 12,Egypt,Cairo,,30.06263,31.24967,https://clinicaltrials.gov/api/v2/studies,2024-02-12T10:13:06.111Z
65c9d31fcd713395fbb52c30,NCT01853839,Boehringer Ingelheim Investigational Site 13,Egypt,Cairo,,30.06263,31.24967,https://clinicaltrials.gov/api/v2/studies,2024-02-12T10:13:06.111Z
65c9d31fcd713395fbb52c32,NCT01853839,Boehringer Ingelheim Investigational Site 14,Egypt,Cairo,,30.06263,31.24967,https://clinicaltrials.gov/api/v2/studies,2024-02-12T10:13:06.111Z
65c9d31fcd713395fbb52c34,NCT01853839,Boehringer Ingelheim Investigational Site 17,Egypt,Cairo,,30.06263,31.24967,https://clinicaltrials.gov/api/v2/studies,2024-02-12T10:13:06.111Z
65c9d31fcd713395fbb52c36,NCT01853839,Boehringer Ingelheim Investigational Site 1,Egypt,Cairo,,30.06263,31.24967,https://clinicaltrials.gov/api/v2/studies,2024-02-12T10:13:06.111Z
65c9d31fcd713395fbb52c38,NCT01853839,Boehringer Ingelheim Investigational Site 20,Egypt,Cairo,,30.06263,31.24967,https://clinicaltrials.gov/api/v2/studies,2024-02-12T10:13:06.111Z
65c9d31fcd713395fbb52c3a,NCT01853839,Boehringer Ingelheim Investigational Site 24,Egypt,Cairo,,30.06263,31.24967,https://clinicaltrials.gov/api/v2/studies,2024-02-12T10:13:06.111Z
65c9d31fcd713395fbb52c3c,NCT01853839,Boehringer Ingelheim Investigational Site 25,Egypt,Cairo,,30.06263,31.24967,https://clinicaltrials.gov/api/v2/studies,2024-02-12T10:13:06.111Z
65c9d31fcd713395fbb52c3e,NCT01853839,Boehringer Ingelheim Investigational Site 26,Egypt,Cairo,,30.06263,31.24967,https://clinicaltrials.gov/api/v2/studies,2024-02-12T10:13:06.111Z
65c9d31fcd713395fbb52c40,NCT01853839,Boehringer Ingelheim Investigational Site 28,Egypt,Cairo,,30.06263,31.24967,https://clinicaltrials.gov/api/v2/studies,2024-02-12T10:13:06.111Z
65c9d31fcd713395fbb52c42,NCT01853839,Boehringer Ingelheim Investigational Site 2,Egypt,Cairo,,30.06263,31.24967,https://clinicaltrials.gov/api/v2/studies,2024-02-12T10:13:06.111Z
65c9d31fcd713395fbb52c44,NCT01853839,Boehringer Ingelheim Investigational Site 4,Egypt,Cairo,,30.06263,31.24967,https://clinicaltrials.gov/api/v2/studies,2024-02-12T10:13:06.111Z
65c9d31fcd713395fbb52c46,NCT01853839,Boehringer Ingelheim Investigational Site 5,Egypt,Cairo,,30.06263,31.24967,https://clinicaltrials.gov/api/v2/studies,2024-02-12T10:13:06.111Z
65c9d31fcd713395fbb52c48,NCT01853839,Boehringer Ingelheim Investigational Site 7,Egypt,Cairo,,30.06263,31.24967,https://clinicaltrials.gov/api/v2/studies,2024-02-12T10:13:06.111Z
65c9d31fcd713395fbb52c4a,NCT01853839,Boehringer Ingelheim Investigational Site 8,Egypt,Cairo,,30.06263,31.24967,https://clinicaltrials.gov/api/v2/studies,2024-02-12T10:13:06.111Z
65c9d31fcd713395fbb52c4c,NCT01853839,Boehringer Ingelheim Investigational Site 9,Egypt,Cairo,,30.06263,31.24967,https://clinicaltrials.gov/api/v2/studies,2024-02-12T10:13:06.111Z
65c9d31fcd713395fbb52c4e,NCT01853839,Boehringer Ingelheim Investigational Site 30,Egypt,Domiat,,,,https://clinicaltrials.gov/api/v2/studies,2024-02-12T10:13:06.111Z
65c9d31fcd713395fbb52c50,NCT01853839,Boehringer Ingelheim Investigational Site 29,Egypt,Fayoum,,29.30995,30.8418,https://clinicaltrials.gov/api/v2/studies,2024-02-12T10:13:06.111Z
65c9d31fcd713395fbb52c52,NCT01853839,Boehringer Ingelheim Investigational Site 16,Egypt,Menia,,,,https://clinicaltrials.gov/api/v2/studies,2024-02-12T10:13:06.111Z
65c9d31fcd713395fbb52c54,NCT01853839,Boehringer Ingelheim Investigational Site 31,Egypt,Tanta,,30.78847,31.00192,https://clinicaltrials.gov/api/v2/studies,2024-02-12T10:13:06.111Z
65c9d31fcd713395fbb52c56,NCT02053779,Ibn Rochd Infertility Centre,Algeria,Constantine,25000,36.365,6.61472,https://clinicaltrials.gov/api/v2/studies,2024-02-12T10:13:03.049Z
65c9d31fcd713395fbb52c58,NCT02906917,Novo Nordisk Investigational Site,Algeria,Sidi Bel Abbes,22000,35.18994,-0.63085,https://clinicaltrials.gov/api/v2/studies,2024-02-12T10:13:03.051Z
65c9d31fcd713395fbb52c5c,NCT03914326,Internal medicine department,Algeria,Algiers,16000,36.73225,3.08746,https://clinicaltrials.gov/api/v2/studies,2024-02-12T10:13:17.796Z
65c9d31fcd713395fbb52c5e,NCT03914326,"endocrino-diabetology department, Hospital IBN BADIS.",Algeria,Constantine,25000,36.365,6.61472,https://clinicaltrials.gov/api/v2/studies,2024-02-12T10:13:17.796Z
65c9d31fcd713395fbb52c60,NCT03914326,Internal Medecine department CHU Ibn Badis,Algeria,Constantine,25000,36.365,6.61472,https://clinicaltrials.gov/api/v2/studies,2024-02-12T10:13:17.796Z
65c9d31fcd713395fbb52c62,NCT03914326,EHU 1st November 1954,Algeria,Oran,31000,35.69906,-0.63588,https://clinicaltrials.gov/api/v2/studies,2024-02-12T10:13:17.796Z
65c9d31fcd713395fbb52c64,NCT03914326,Internal Medicine departement CHU Oran,Algeria,Oran,31000,35.69906,-0.63588,https://clinicaltrials.gov/api/v2/studies,2024-02-12T10:13:17.796Z
65c9d31fcd713395fbb52c66,NCT03914326,"Department of internal of medicine, CHU Setif",Algeria,Setif,19000,36.19112,5.41373,https://clinicaltrials.gov/api/v2/studies,2024-02-12T10:13:17.796Z
65c9d31fcd713395fbb52c68,NCT03914326,Diabetes Care Centre & CDE Centre,South Africa,Benoni,Gauteng 1501,-26.18848,28.32078,https://clinicaltrials.gov/api/v2/studies,2024-02-12T10:13:17.796Z
65c9d31fcd713395fbb52c6a,NCT03914326,Peermed Clinical Trial Centre,South Africa,Johannesburg,Gauteng 1619,-26.20227,28.04363,https://clinicaltrials.gov/api/v2/studies,2024-02-12T10:13:17.796Z
65c9d31fcd713395fbb52c6c,NCT03914326,Soweto Clinical Trial Centre,South Africa,Johannesburg,Gauteng 1818,-26.20227,28.04363,https://clinicaltrials.gov/api/v2/studies,2024-02-12T10:13:17.796Z
65c9d31fcd713395fbb52c6e,NCT03914326,Deepak Lakha,South Africa,Johannesburg,Gauteng 1829,-26.20227,28.04363,https://clinicaltrials.gov/api/v2/studies,2024-02-12T10:13:17.796Z
65c9d31fcd713395fbb52c70,NCT03914326,Hemant Makan,South Africa,Johannesburg,Gauteng 1827,-26.20227,28.04363,https://clinicaltrials.gov/api/v2/studies,2024-02-12T10:13:17.796Z
65c9d31fcd713395fbb52c73,NCT03914326,Centre for Diabetes,South Africa,Johannesburg,Gauteng 2198,-26.20227,28.04363,https://clinicaltrials.gov/api/v2/studies,2024-02-12T10:13:17.796Z
65c9d31fcd713395fbb52c75,NCT03914326,Dr Seeber,South Africa,Pretoria,Gauteng 0083,-25.74486,28.18783,https://clinicaltrials.gov/api/v2/studies,2024-02-12T10:13:17.796Z
65c9d31fcd713395fbb52c77,NCT03914326,Prof P. Joshi,South Africa,Pretoria,Gauteng 0181,-25.74486,28.18783,https://clinicaltrials.gov/api/v2/studies,2024-02-12T10:13:17.796Z
65c9d31fcd713395fbb52c79,NCT03914326,Dr H Bacus,South Africa,Berea,KwaZulu-Natal 4091,-29.85185,30.99337,https://clinicaltrials.gov/api/v2/studies,2024-02-12T10:13:17.796Z
65c9d31fcd713395fbb52c7b,NCT03914326,Dr A Amod,South Africa,Durban,KwaZulu-Natal 4092,-29.8579,31.0292,https://clinicaltrials.gov/api/v2/studies,2024-02-12T10:13:17.796Z
65c9d31fcd713395fbb52c7d,NCT03914326,Dr T Padayachee,South Africa,Durban,KwaZulu-Natal 4170,-29.8579,31.0292,https://clinicaltrials.gov/api/v2/studies,2024-02-12T10:13:17.796Z
65c9d31fcd713395fbb52c7f,NCT03914326,Dr Pillay's Rooms,South Africa,Durban,KwaZulu-Natal 4450,-29.8579,31.0292,https://clinicaltrials.gov/api/v2/studies,2024-02-12T10:13:17.796Z
65c9d31fcd713395fbb52c81,NCT03914326,Diabetes Clinical Trials Unit,South Africa,Cape Town,Western Cape 7925,-33.92584,18.42322,https://clinicaltrials.gov/api/v2/studies,2024-02-12T10:13:17.796Z
65c9d31fcd713395fbb52c83,NCT03914326,UCT Clinical Research Centre,South Africa,Cape Town,Western Cape 7925,-33.92584,18.42322,https://clinicaltrials.gov/api/v2/studies,2024-02-12T10:13:17.796Z
65c9d31fcd713395fbb52c85,NCT06184204,Boumaaza Private healthcare,Algeria,Algiers,,36.73225,3.08746,https://clinicaltrials.gov/api/v2/studies,2024-02-12T10:13:03.051Z
65c9d31fcd713395fbb52c87,NCT06184204,CHU Mustapha,Algeria,Algiers,,36.73225,3.08746,https://clinicaltrials.gov/api/v2/studies,2024-02-12T10:13:03.051Z
65c9d31fcd713395fbb52c89,NCT06184204,BEDAI private healthcare,Algeria,Annaba,,36.9,7.76667,https://clinicaltrials.gov/api/v2/studies,2024-02-12T10:13:03.051Z
65c9d31fcd713395fbb52c8b,NCT06184204,Berboucha,Algeria,Annaba,,36.9,7.76667,https://clinicaltrials.gov/api/v2/studies,2024-02-12T10:13:03.051Z
65c9d31fcd713395fbb52c8d,NCT06184204,Boudjelal private healthcare,Algeria,Batna,,35.55597,6.17414,https://clinicaltrials.gov/api/v2/studies,2024-02-12T10:13:03.051Z
65c9d31fcd713395fbb52c8f,NCT06184204,OKBI Private healthcare,Algeria,Biskra,,34.85038,5.72805,https://clinicaltrials.gov/api/v2/studies,2024-02-12T10:13:03.051Z
65c9d31fcd713395fbb52c91,NCT06184204,KHAITER Private healthcare,Algeria,Blida,,36.47004,2.8277,https://clinicaltrials.gov/api/v2/studies,2024-02-12T10:13:03.051Z
65c9d31fcd713395fbb52c93,NCT06184204,AOUICHE private healthcare,Algeria,Constantine,,36.365,6.61472,https://clinicaltrials.gov/api/v2/studies,2024-02-12T10:13:03.051Z
65c9d31fcd713395fbb52c95,NCT06184204,HAMDI private healthcare,Algeria,Constantine,,36.365,6.61472,https://clinicaltrials.gov/api/v2/studies,2024-02-12T10:13:03.051Z
65c9d31fcd713395fbb52c97,NCT06184204,Mouffok private healthcare,Algeria,M'Sila,,35.70583,4.54194,https://clinicaltrials.gov/api/v2/studies,2024-02-12T10:13:03.051Z
65c9d31fcd713395fbb52c99,NCT06184204,Ali Lahmar private healthcare,Algeria,Oran,,35.69906,-0.63588,https://clinicaltrials.gov/api/v2/studies,2024-02-12T10:13:03.051Z
65c9d31fcd713395fbb52c9b,NCT06184204,CHU Oran,Algeria,Oran,,35.69906,-0.63588,https://clinicaltrials.gov/api/v2/studies,2024-02-12T10:13:03.051Z
65c9d31fcd713395fbb52c9d,NCT06184204,EID private healthcare,Algeria,Oran,,35.69906,-0.63588,https://clinicaltrials.gov/api/v2/studies,2024-02-12T10:13:03.051Z
65c9d31fcd713395fbb52c9f,NCT06184204,Sebbagh Private Healthcare,Algeria,Sidi Bel Abbès,,35.18994,-0.63085,https://clinicaltrials.gov/api/v2/studies,2024-02-12T10:13:03.051Z
65c9d31fcd713395fbb52ca1,NCT06184204,EPH Tipaza,Algeria,Tipaza,,36.58972,2.4475,https://clinicaltrials.gov/api/v2/studies,2024-02-12T10:13:03.051Z
65c9d31fcd713395fbb52ca3,NCT06184204,Fernane private healthcare,Algeria,Tizi Ouzou,,36.71182,4.04591,https://clinicaltrials.gov/api/v2/studies,2024-02-12T10:13:03.051Z
65c9d31fcd713395fbb52ca5,NCT06184204,NASSOUR private healthcare,Algeria,Tlemcen,,34.87833,-1.315,https://clinicaltrials.gov/api/v2/studies,2024-02-12T10:13:03.051Z
65c9d31fcd713395fbb52ca7,NCT04286763,Tidjane Anisse,Algeria,Oran,31000,35.69906,-0.63588,https://clinicaltrials.gov/api/v2/studies,2024-02-12T10:13:03.051Z
65c9d31fcd713395fbb52ca9,NCT02692716,Novo Nordisk Investigational Site,South Africa,Cape Town,Western Cape 7925,-33.92584,18.42322,https://clinicaltrials.gov/api/v2/studies,2024-02-12T10:13:17.801Z
65c9d31fcd713395fbb52cb7,NCT01507116,Novo Nordisk Investigational Site,Algeria,Algiers,16035,36.73225,3.08746,https://clinicaltrials.gov/api/v2/studies,2024-02-12T10:13:03.051Z
65c9d31fcd713395fbb52cb9,NCT01753349,Bab El Oued Hospital,Algeria,Alger,16009,36.73225,3.08746,https://clinicaltrials.gov/api/v2/studies,2024-02-12T10:13:03.051Z
65c9d31fcd713395fbb52cbb,NCT01753349,Sidi Bel Abbes Hospital,Algeria,Alger,22000,36.73225,3.08746,https://clinicaltrials.gov/api/v2/studies,2024-02-12T10:13:03.051Z
65c9d31fcd713395fbb52cbd,NCT01753349,Ben Badis Hospital,Algeria,Constantine,25000,36.365,6.61472,https://clinicaltrials.gov/api/v2/studies,2024-02-12T10:13:03.051Z
65c9d31fcd713395fbb52cbf,NCT04665427,"Departmenet of hepatobiliary surgery, EHU-1st November 1954, Oran.",Algeria,Oran,31000,35.69906,-0.63588,https://clinicaltrials.gov/api/v2/studies,2024-02-12T10:13:03.051Z
65c9d31fcd713395fbb52cc1,NCT01493414,Novartis Investigative Site,Tunisia,Tunis,,36.81897,10.16579,https://clinicaltrials.gov/api/v2/studies,2024-02-12T10:13:18.967Z
65c9d320cd713395fbb52ccd,NCT02210819,,Morocco,Multiple Locations,,,,https://clinicaltrials.gov/api/v2/studies,2024-02-12T10:13:07.921Z
65c9d320cd713395fbb52cd2,NCT01172548,Novartis Investigative Site,Tunisia,Tunis,1006,36.81897,10.16579,https://clinicaltrials.gov/api/v2/studies,2024-02-12T10:13:18.967Z
65c9d320cd713395fbb52cd8,NCT00909051,,Algeria,Multiple Locations,,,,https://clinicaltrials.gov/api/v2/studies,2024-02-12T10:13:03.051Z
65c9d320cd713395fbb52cda,NCT01491100,,Tunisia,Multiple Locations,,,,https://clinicaltrials.gov/api/v2/studies,2024-02-12T10:13:18.967Z
65c9d320cd713395fbb52cde,NCT02595814,Novartis Investigative Site,Tunisia,Tunis,1008,36.81897,10.16579,https://clinicaltrials.gov/api/v2/studies,2024-02-12T10:13:18.968Z
65c9d320cd713395fbb52cf5,NCT00565448,Investigational Site Number 012001,Algeria,Alger,16005,36.73225,3.08746,https://clinicaltrials.gov/api/v2/studies,2024-02-12T10:13:18.968Z
65c9d320cd713395fbb52cf7,NCT00565448,Investigational Site Number 504001,Morocco,Casablanca,20000,33.58831,-7.61138,https://clinicaltrials.gov/api/v2/studies,2024-02-12T10:13:18.968Z
65c9d320cd713395fbb52cf9,NCT00565448,Investigational Site Number 504002,Morocco,Rabat,10000,34.01325,-6.83255,https://clinicaltrials.gov/api/v2/studies,2024-02-12T10:13:18.968Z
65c9d320cd713395fbb52cfb,NCT00565448,Investigational Site Number 504003,Morocco,Rabat,,34.01325,-6.83255,https://clinicaltrials.gov/api/v2/studies,2024-02-12T10:13:18.968Z
65c9d320cd713395fbb52cfd,NCT00565448,Investigational Site Number 788002,Tunisia,Sousse,4000,35.82539,10.63699,https://clinicaltrials.gov/api/v2/studies,2024-02-12T10:13:18.968Z
65c9d320cd713395fbb52cff,NCT00565448,Investigational Site Number 788003,Tunisia,Tunis,1006,36.81897,10.16579,https://clinicaltrials.gov/api/v2/studies,2024-02-12T10:13:18.968Z
65c9d320cd713395fbb52d01,NCT01513590,Novo Nordisk Investigational Site,Algeria,Setif,19000,36.19112,5.41373,https://clinicaltrials.gov/api/v2/studies,2024-02-12T10:13:03.052Z
65c9d320cd713395fbb52d05,NCT03574597,Cardiology department CHU Mustapha Pacha. Algiers,Algeria,Algiers,16000,36.73225,3.08746,https://clinicaltrials.gov/api/v2/studies,2024-02-12T10:13:17.833Z
65c9d320cd713395fbb52d07,NCT03574597,Centre National De la Médecine du Sport,Algeria,Algiers,16000,36.73225,3.08746,https://clinicaltrials.gov/api/v2/studies,2024-02-12T10:13:17.833Z
65c9d320cd713395fbb52d09,NCT03574597,"CHU Issad Hassani, Beni Messous, Cardiology department",Algeria,Algiers,16000,36.73225,3.08746,https://clinicaltrials.gov/api/v2/studies,2024-02-12T10:13:17.833Z
65c9d320cd713395fbb52d0b,NCT03574597,CHU - Hussein dey Cardiology department Nafissa Hamoud,Algeria,Algiers,16040,36.73225,3.08746,https://clinicaltrials.gov/api/v2/studies,2024-02-12T10:13:17.833Z
65c9d320cd713395fbb52d0d,NCT03574597,"Cardiology department, Benaouda Benzerdjeb CHU Oran",Algeria,Oran,31000,35.69906,-0.63588,https://clinicaltrials.gov/api/v2/studies,2024-02-12T10:13:17.833Z
65c9d320cd713395fbb52d0f,NCT03574597,Phoenix Pharma,South Africa,Port Elizabeth,Eastern Cape 6001,-33.91799,25.57007,https://clinicaltrials.gov/api/v2/studies,2024-02-12T10:13:17.833Z
65c9d320cd713395fbb52d11,NCT03574597,Cardiology Research_Bloemfontein,South Africa,Bloemfontein,Free State 9301,-29.12107,26.214,https://clinicaltrials.gov/api/v2/studies,2024-02-12T10:13:17.833Z
65c9d320cd713395fbb52d13,NCT03574597,IATROS International,South Africa,Bloemfontein,Free State 9301,-29.12107,26.214,https://clinicaltrials.gov/api/v2/studies,2024-02-12T10:13:17.833Z
65c9d320cd713395fbb52d15,NCT03574597,Josha Research,South Africa,Bloemfontein,Free State 9301,-29.12107,26.214,https://clinicaltrials.gov/api/v2/studies,2024-02-12T10:13:17.833Z
65c9d320cd713395fbb52d17,NCT03574597,Cardiology Clinical Research,South Africa,Alberton,Gauteng 1450,-26.26786,28.12225,https://clinicaltrials.gov/api/v2/studies,2024-02-12T10:13:17.833Z
65c9d320cd713395fbb52d19,NCT03574597,Dr Iftikhar Osman Ebrahim,South Africa,Centurion,Gauteng 0157,-25.85891,28.18577,https://clinicaltrials.gov/api/v2/studies,2024-02-12T10:13:17.833Z
65c9d320cd713395fbb52d1b,NCT03574597,CRISMO,South Africa,Germiston,Gauteng 1401,-26.23481,28.17665,https://clinicaltrials.gov/api/v2/studies,2024-02-12T10:13:17.833Z
65c9d320cd713395fbb52d1d,NCT03574597,Wits Bara Clinical Trial Site,South Africa,Johannesburg,Gauteng 2013,-26.20227,28.04363,https://clinicaltrials.gov/api/v2/studies,2024-02-12T10:13:17.833Z
65c9d320cd713395fbb52d1f,NCT03574597,Tickerdoc Research (Pty) LTD,South Africa,Johannesburg,Gauteng 2157,-26.20227,28.04363,https://clinicaltrials.gov/api/v2/studies,2024-02-12T10:13:17.833Z
65c9d320cd713395fbb52d21,NCT03574597,WITS Clinical Research,South Africa,Johannesburg,Gauteng 2193,-26.20227,28.04363,https://clinicaltrials.gov/api/v2/studies,2024-02-12T10:13:17.833Z
65c9d320cd713395fbb52d23,NCT03574597,Dr Moosa's Rooms,South Africa,Lenasia,Gauteng 1827,-26.32052,27.83564,https://clinicaltrials.gov/api/v2/studies,2024-02-12T10:13:17.833Z
65c9d320cd713395fbb52d25,NCT03574597,Lenasia Clinical Trial Centre,South Africa,Lenasia,Gauteng 1827,-26.32052,27.83564,https://clinicaltrials.gov/api/v2/studies,2024-02-12T10:13:17.833Z
65c9d320cd713395fbb52d27,NCT03574597,Jongaie Research,South Africa,Pretoria,Gauteng 0183,-25.74486,28.18783,https://clinicaltrials.gov/api/v2/studies,2024-02-12T10:13:17.833Z
65c9d320cd713395fbb52d29,NCT03574597,Synexus Watermeyer Clinical Research Centre,South Africa,Pretoria,Gauteng 0184,-25.74486,28.18783,https://clinicaltrials.gov/api/v2/studies,2024-02-12T10:13:17.833Z
65c9d320cd713395fbb52d2b,NCT03574597,Clinical Trial Systems (CTC),South Africa,Pretoria,Gauteng 0186,-25.74486,28.18783,https://clinicaltrials.gov/api/v2/studies,2024-02-12T10:13:17.833Z
65c9d320cd713395fbb52d2d,NCT03574597,Roodepoort Medicross Clinical Research Centre,South Africa,Roodepoort,Gauteng 1724,-26.1625,27.8725,https://clinicaltrials.gov/api/v2/studies,2024-02-12T10:13:17.833Z
65c9d320cd713395fbb52d2f,NCT03574597,Dr Jugnundan's Rooms,South Africa,Durban,KwaZulu-Natal 4091,-29.8579,31.0292,https://clinicaltrials.gov/api/v2/studies,2024-02-12T10:13:17.833Z
65c9d320cd713395fbb52d31,NCT03574597,Synexus Helderberg Clinical Research Centre,South Africa,Cape Town,Western Cape 7130,-33.92584,18.42322,https://clinicaltrials.gov/api/v2/studies,2024-02-12T10:13:17.833Z
65c9d320cd713395fbb52d33,NCT03574597,Dr S Dawood,South Africa,Cape Town,Western Cape 7405,-33.92584,18.42322,https://clinicaltrials.gov/api/v2/studies,2024-02-12T10:13:17.833Z
65c9d320cd713395fbb52d35,NCT03574597,Dr Corbett,South Africa,Cape Town,Western Cape 7500,-33.92584,18.42322,https://clinicaltrials.gov/api/v2/studies,2024-02-12T10:13:17.833Z
65c9d320cd713395fbb52d37,NCT03574597,Tread Research (Pty)Ltd,South Africa,Cape Town,Western Cape 7500,-33.92584,18.42322,https://clinicaltrials.gov/api/v2/studies,2024-02-12T10:13:17.833Z
65c9d320cd713395fbb52d39,NCT03574597,UCT Lung institute,South Africa,Cape Town,Western Cape 7700,-33.92584,18.42322,https://clinicaltrials.gov/api/v2/studies,2024-02-12T10:13:17.833Z
65c9d320cd713395fbb52d3b,NCT03574597,Cape Town Medical Research Centre,South Africa,Kuilsriver,Western Cape 7580,,,https://clinicaltrials.gov/api/v2/studies,2024-02-12T10:13:17.833Z
65c9d320cd713395fbb52d3d,NCT03574597,Paarl Research Centre,South Africa,Paarl,Western Cape 7646,-33.73378,18.97523,https://clinicaltrials.gov/api/v2/studies,2024-02-12T10:13:17.833Z
65c9d320cd713395fbb52d3f,NCT03574597,Clinical Projects Research,South Africa,Worcester,Western Cape 6850,-33.64651,19.44852,https://clinicaltrials.gov/api/v2/studies,2024-02-12T10:13:17.833Z
65c9d320cd713395fbb52d41,NCT00916097,Sanofi-Aventis Administrative Office,Tunisia,Megrine,,36.76917,10.23639,https://clinicaltrials.gov/api/v2/studies,2024-02-12T10:13:18.969Z
65c9d320cd713395fbb52d45,NCT01917656,Novo Nordisk Investigational Site,South Africa,Durban,KwaZulu-Natal 4450,-29.8579,31.0292,https://clinicaltrials.gov/api/v2/studies,2024-02-12T10:13:17.836Z
65c9d320cd713395fbb52d53,NCT00216333,Service de Pneumo-phtisiologie de Matiben,Algeria,Algiers,,36.73225,3.08746,https://clinicaltrials.gov/api/v2/studies,2024-02-12T10:13:18.643Z
65c9d320cd713395fbb52d55,NCT00216333,CHU Ignace Deen,Guinea,Conakry,,9.53795,-13.67729,https://clinicaltrials.gov/api/v2/studies,2024-02-12T10:13:18.643Z
65c9d320cd713395fbb52d57,NCT00216333,Health Resesarch Center of Manhica,Mozambique,Manhica,,,,https://clinicaltrials.gov/api/v2/studies,2024-02-12T10:13:18.643Z
65c9d320cd713395fbb52d59,NCT00216333,National Institute for Medical Research,Tanzania,Mwanza,,-2.51667,32.9,https://clinicaltrials.gov/api/v2/studies,2024-02-12T10:13:18.643Z
65c9d320cd713395fbb52d5b,NCT02788214,Université Ferhat Abbas,Algeria,Sétif,,36.19112,5.41373,https://clinicaltrials.gov/api/v2/studies,2024-02-12T10:13:18.371Z
65c9d320cd713395fbb52d5d,NCT02788214,University of Dschang,Cameroon,Dschang,,5.44397,10.05332,https://clinicaltrials.gov/api/v2/studies,2024-02-12T10:13:18.371Z
65c9d320cd713395fbb52d5f,NCT02788214,University of Cape Coast,Ghana,Cape Coast,,5.10535,-1.2466,https://clinicaltrials.gov/api/v2/studies,2024-02-12T10:13:18.371Z
65c9d320cd713395fbb52d61,NCT02788214,Tenwek Hospital,Kenya,Bomet,,-0.78129,35.34156,https://clinicaltrials.gov/api/v2/studies,2024-02-12T10:13:18.371Z
65c9d320cd713395fbb52d63,NCT02788214,University of Calabar Teaching Hospital,Nigeria,Calabar,,4.95893,8.32695,https://clinicaltrials.gov/api/v2/studies,2024-02-12T10:13:18.371Z
65c9d320cd713395fbb52d65,NCT02788214,University of Nigeria Teaching Hospital,Nigeria,Enugu,,6.44132,7.49883,https://clinicaltrials.gov/api/v2/studies,2024-02-12T10:13:18.371Z
65c9d320cd713395fbb52d67,NCT02788214,Babcock Universtiy Teaching Hospital,Nigeria,Ilishan-Remo,,,,https://clinicaltrials.gov/api/v2/studies,2024-02-12T10:13:18.371Z
65c9d320cd713395fbb52d69,NCT02788214,University of Jos / University Teaching Hospital,Nigeria,Jos,,9.92849,8.89212,https://clinicaltrials.gov/api/v2/studies,2024-02-12T10:13:18.371Z
65c9d320cd713395fbb52d6b,NCT02788214,Federal Medical Center,Nigeria,Lagos,,6.45407,3.39467,https://clinicaltrials.gov/api/v2/studies,2024-02-12T10:13:18.371Z
65c9d320cd713395fbb52d6d,NCT02788214,Chris Hani Baragwanath Academic Hospital,South Africa,Soweto,,-26.26781,27.85849,https://clinicaltrials.gov/api/v2/studies,2024-02-12T10:13:18.371Z
65c9d320cd713395fbb52d6f,NCT02788214,Sudan University of Science and Technology,Sudan,Khartoum,,15.55177,32.53241,https://clinicaltrials.gov/api/v2/studies,2024-02-12T10:13:18.371Z
65c9d320cd713395fbb52d71,NCT02137850,Novo Nordisk Investigational Site,Algeria,Setif,19000,36.19112,5.41373,https://clinicaltrials.gov/api/v2/studies,2024-02-12T10:13:03.052Z
65c9d320cd713395fbb52d74,NCT02219490,CHU Bab El Oued /ID# 145420,Algeria,Algiers,16000,36.73225,3.08746,https://clinicaltrials.gov/api/v2/studies,2024-02-12T10:13:03.052Z
65c9d320cd713395fbb52d76,NCT02219490,CHU Bologhine Hospital /ID# 145421,Algeria,Algiers,16000,36.73225,3.08746,https://clinicaltrials.gov/api/v2/studies,2024-02-12T10:13:03.052Z
65c9d320cd713395fbb52d78,NCT02219490,CHU Mustapha Bacha /ID# 132130,Algeria,Algiers,16000,36.73225,3.08746,https://clinicaltrials.gov/api/v2/studies,2024-02-12T10:13:03.052Z
65c9d320cd713395fbb52d7a,NCT01649856,EHS CAC Hospital FRANTZ FANON ZABANA BLIDA; Hematology ward,Algeria,Blida,9000,36.47004,2.8277,https://clinicaltrials.gov/api/v2/studies,2024-02-12T10:13:17.843Z
65c9d320cd713395fbb52d7c,NCT01649856,Centre hospitalo-univerisitaire de Tizi Ouzou - Nedir Mohamed;Service d'hématologie,Algeria,Tizi Ouzou,15000,36.71182,4.04591,https://clinicaltrials.gov/api/v2/studies,2024-02-12T10:13:17.843Z
65c9d320cd713395fbb52d7e,NCT01649856,National Hospital; Oncotherapy Dept,South Africa,Bloemfontein,9301,-29.12107,26.214,https://clinicaltrials.gov/api/v2/studies,2024-02-12T10:13:17.843Z
65c9d320cd713395fbb52d80,NCT01649856,Tygerberg Hospital; Haematology Department,South Africa,Cape Town,7505,-33.92584,18.42322,https://clinicaltrials.gov/api/v2/studies,2024-02-12T10:13:17.843Z
65c9d320cd713395fbb52d82,NCT01649856,Steve Biko Academic Hospital; Oncology,South Africa,Pretoria,2,-25.74486,28.18783,https://clinicaltrials.gov/api/v2/studies,2024-02-12T10:13:17.843Z
65c9d320cd713395fbb52d84,NCT05200715,Université M'Hamed Bougara de Boumerdas,Algeria,Boumerdas,,36.76639,3.47717,https://clinicaltrials.gov/api/v2/studies,2024-02-12T10:13:07.921Z
65c9d320cd713395fbb52d86,NCT05200715,Cairo University,Egypt,Cairo,,30.06263,31.24967,https://clinicaltrials.gov/api/v2/studies,2024-02-12T10:13:07.921Z
65c9d320cd713395fbb52d88,NCT05200715,Korle Bu Teaching Hospital,Ghana,Accra,,5.55602,-0.1969,https://clinicaltrials.gov/api/v2/studies,2024-02-12T10:13:07.921Z
65c9d320cd713395fbb52d8a,NCT05200715,Mohammed V University,Morocco,Rabat,,34.01325,-6.83255,https://clinicaltrials.gov/api/v2/studies,2024-02-12T10:13:07.921Z
65c9d320cd713395fbb52d8c,NCT03862690,Novo Nordisk Investigational Site,Algeria,Constantine,25000,36.365,6.61472,https://clinicaltrials.gov/api/v2/studies,2024-02-12T10:13:03.052Z
65c9d320cd713395fbb52d8f,NCT05601180,CHU Beni Messous/Pneumologie A,Algeria,Algiers,,36.73225,3.08746,https://clinicaltrials.gov/api/v2/studies,2024-02-12T10:13:03.052Z
65c9d320cd713395fbb52d91,NCT05601180,CHU Beni Messous/Pneumologie B,Algeria,Algiers,,36.73225,3.08746,https://clinicaltrials.gov/api/v2/studies,2024-02-12T10:13:03.052Z
65c9d320cd713395fbb52d93,NCT05601180,CHU Annaba/Pneumo-phtisiologie,Algeria,Annaba,,36.9,7.76667,https://clinicaltrials.gov/api/v2/studies,2024-02-12T10:13:03.052Z
65c9d320cd713395fbb52d95,NCT05601180,EPH Batna/Pneumo-phtisiologie,Algeria,Batna,,35.55597,6.17414,https://clinicaltrials.gov/api/v2/studies,2024-02-12T10:13:03.052Z
65c9d320cd713395fbb52d97,NCT05601180,CHU Constantine/Pneumo-phtisiologie,Algeria,Constantine,,36.365,6.61472,https://clinicaltrials.gov/api/v2/studies,2024-02-12T10:13:03.052Z
65c9d320cd713395fbb52d99,NCT05601180,EPH Laghouat/Pneumo-phtisiologie,Algeria,Laghouat,,33.8,2.86514,https://clinicaltrials.gov/api/v2/studies,2024-02-12T10:13:03.052Z
65c9d320cd713395fbb52d9b,NCT05601180,CHU Oran/Pneumo-phtisiologie B,Algeria,Oran,,35.69906,-0.63588,https://clinicaltrials.gov/api/v2/studies,2024-02-12T10:13:03.052Z
65c9d320cd713395fbb52d9d,NCT05601180,CHU Sidi Bel Abbes/Pneumo-phtisiologie,Algeria,Sidi Bel Abbès,,35.18994,-0.63085,https://clinicaltrials.gov/api/v2/studies,2024-02-12T10:13:03.052Z
65c9d320cd713395fbb52d9f,NCT02733601,Research Site,Algeria,Ouest Of Algeria/ Oran Region,31 000,,,https://clinicaltrials.gov/api/v2/studies,2024-02-12T10:13:03.052Z
65c9d320cd713395fbb52da3,NCT03505801,Hôpital Central de l'Armée,Algeria,Algier,,36.73225,3.08746,https://clinicaltrials.gov/api/v2/studies,2024-02-12T10:13:17.856Z
65c9d320cd713395fbb52da5,NCT03505801,Sunninghill Hospital,South Africa,Johannesburg,Sandton 2196,-26.20227,28.04363,https://clinicaltrials.gov/api/v2/studies,2024-02-12T10:13:17.856Z
65c9d320cd713395fbb52da7,NCT03505801,MedClinic Panorama,South Africa,Cape Town,W Cape 7500,-33.92584,18.42322,https://clinicaltrials.gov/api/v2/studies,2024-02-12T10:13:17.856Z
65c9d320cd713395fbb52da9,NCT03505801,Groote Schuur Hospital,South Africa,Cape Town,W Cape 7935,-33.92584,18.42322,https://clinicaltrials.gov/api/v2/studies,2024-02-12T10:13:17.856Z
65c9d320cd713395fbb52dab,NCT03505801,Unitas Hospital,South Africa,Centurion,,-25.85891,28.18577,https://clinicaltrials.gov/api/v2/studies,2024-02-12T10:13:17.856Z
65c9d320cd713395fbb52dad,NCT03505801,Busamed Hillcrest Private Hospital,South Africa,Hillcrest,,,,https://clinicaltrials.gov/api/v2/studies,2024-02-12T10:13:17.856Z
65c9d320cd713395fbb52daf,NCT03505801,Busamed Gateway Private Hospital,South Africa,Umhlanga,,-29.72528,31.08583,https://clinicaltrials.gov/api/v2/studies,2024-02-12T10:13:17.856Z
65c9d320cd713395fbb52db1,NCT01347580,Research Site,Algeria,Blida,,36.47004,2.8277,https://clinicaltrials.gov/api/v2/studies,2024-02-12T10:13:03.052Z
65c9d320cd713395fbb52db4,NCT01241396,,South Africa,Johannesburg,,-26.20227,28.04363,https://clinicaltrials.gov/api/v2/studies,2024-02-12T10:13:17.858Z
65c9d320cd713395fbb52dbe,NCT01991340,,Morocco,Rabat,,34.01325,-6.83255,https://clinicaltrials.gov/api/v2/studies,2024-02-12T10:13:07.922Z
65c9d320cd713395fbb52dd2,NCT00708344,Sanofi-Aventis Administrative Office,Tunisia,Megrine,,36.76917,10.23639,https://clinicaltrials.gov/api/v2/studies,2024-02-12T10:13:18.970Z
65c9d320cd713395fbb52dd7,NCT02921035,Research site,Morocco,Marrakech,,31.63416,-7.99994,https://clinicaltrials.gov/api/v2/studies,2024-02-12T10:13:07.922Z
65c9d320cd713395fbb52ddf,NCT02921035,Research site 1,Morocco,Rabat,,34.01325,-6.83255,https://clinicaltrials.gov/api/v2/studies,2024-02-12T10:13:07.922Z
65c9d320cd713395fbb52de1,NCT02921035,Research site 2,Morocco,Rabat,,34.01325,-6.83255,https://clinicaltrials.gov/api/v2/studies,2024-02-12T10:13:07.922Z
65c9d320cd713395fbb52de9,NCT02921035,Research site 3,Morocco,Rabat,,34.01325,-6.83255,https://clinicaltrials.gov/api/v2/studies,2024-02-12T10:13:07.922Z
65c9d320cd713395fbb52deb,NCT03484065,Béni Messous,Algeria,Algier,,36.73225,3.08746,https://clinicaltrials.gov/api/v2/studies,2024-02-12T10:13:18.970Z
65c9d320cd713395fbb52ded,NCT03484065,Cairo University Pediatric Hospital,Egypt,Cairo,,30.06263,31.24967,https://clinicaltrials.gov/api/v2/studies,2024-02-12T10:13:18.970Z
65c9d320cd713395fbb52def,NCT03484065,Hopital d'Enfants de Rabat,Morocco,Rabat,,34.01325,-6.83255,https://clinicaltrials.gov/api/v2/studies,2024-02-12T10:13:18.970Z
65c9d320cd713395fbb52df1,NCT03484065,Hopital d'Enfants Bechir Hamza,Tunisia,Tunis,,36.81897,10.16579,https://clinicaltrials.gov/api/v2/studies,2024-02-12T10:13:18.970Z
65c9d320cd713395fbb52df3,NCT00610272,"Centre Pierre et Marie Curie, Centre hospitalier universitaire Mustapha (CHU)",Algeria,Alger,16016,36.73225,3.08746,https://clinicaltrials.gov/api/v2/studies,2024-02-12T10:13:18.971Z
65c9d320cd713395fbb52df5,NCT00610272,Misr Oncology Center (MOC),Egypt,Cairo,,30.06263,31.24967,https://clinicaltrials.gov/api/v2/studies,2024-02-12T10:13:18.971Z
65c9d320cd713395fbb52df7,NCT00610272,Institut national de cancer Salah Azaiz,Tunisia,Tunis,Bab Saadoun 1006,36.81897,10.16579,https://clinicaltrials.gov/api/v2/studies,2024-02-12T10:13:18.971Z
65c9d320cd713395fbb52df9,NCT01572038,CPMC; Service d'Oncologie Médicale,Algeria,Algiers,16000,36.73225,3.08746,https://clinicaltrials.gov/api/v2/studies,2024-02-12T10:13:07.922Z
65c9d320cd713395fbb52dfb,NCT01572038,Manial Specialized Hospital; Oncology,Egypt,Cairo,11555,30.06263,31.24967,https://clinicaltrials.gov/api/v2/studies,2024-02-12T10:13:07.922Z
65c9d320cd713395fbb52dfd,NCT01572038,El Mokatam HIO Hospital,Egypt,Cairo,11654,30.06263,31.24967,https://clinicaltrials.gov/api/v2/studies,2024-02-12T10:13:07.922Z
65c9d320cd713395fbb52dff,NCT01572038,Nci; Oncology Dept,Egypt,Cairo,11796,30.06263,31.24967,https://clinicaltrials.gov/api/v2/studies,2024-02-12T10:13:07.922Z
65c9d320cd713395fbb52e01,NCT01572038,Institut National D'oncologie Sidi Mohammed Ben Abdellah; Anatomopathologie,Morocco,Rabat,10000,34.01325,-6.83255,https://clinicaltrials.gov/api/v2/studies,2024-02-12T10:13:07.922Z
65c9d320cd713395fbb52e03,NCT02490488,Centre hospitalo-universitaire de Beni Messous,Algeria,Algiers,16340,36.73225,3.08746,https://clinicaltrials.gov/api/v2/studies,2024-02-12T10:13:03.053Z
65c9d320cd713395fbb52e05,NCT02582242,Novo Nordisk Investigational Site,Algeria,Oran,31000,35.69906,-0.63588,https://clinicaltrials.gov/api/v2/studies,2024-02-12T10:13:03.053Z
65c9d320cd713395fbb52e09,NCT01243138,Pfizer Investigational Site,Tunisia,Zaghouan,1100,36.40291,10.14292,https://clinicaltrials.gov/api/v2/studies,2024-02-12T10:13:18.971Z
65c9d320cd713395fbb52e3c,NCT03811288,Novo Nordisk Investigational Site,Algeria,Tizi Ouzou,16015,36.71182,4.04591,https://clinicaltrials.gov/api/v2/studies,2024-02-12T10:13:03.053Z
65c9d320cd713395fbb52e42,NCT01254188,Novartis Investigative Site,Tunisia,Tunis,1008,36.81897,10.16579,https://clinicaltrials.gov/api/v2/studies,2024-02-12T10:13:18.971Z
65c9d320cd713395fbb52e50,NCT04586010,CHU Ibn Sina; Neurolgy,Algeria,Annaba,23000,36.9,7.76667,https://clinicaltrials.gov/api/v2/studies,2024-02-12T10:13:18.971Z
65c9d320cd713395fbb52e52,NCT04586010,Hospital of Belloua; Neurology Service,Algeria,Tizi Ouzou,15006,36.71182,4.04591,https://clinicaltrials.gov/api/v2/studies,2024-02-12T10:13:18.971Z
65c9d320cd713395fbb52e54,NCT04586010,Aga Khan University Hospital,Kenya,Nairobi,100,-1.28333,36.81667,https://clinicaltrials.gov/api/v2/studies,2024-02-12T10:13:18.971Z
65c9d320cd713395fbb52e56,NCT04586010,Centre Hospitalier Universitaire Hassan II,Morocco,FES,30000,34.03313,-5.00028,https://clinicaltrials.gov/api/v2/studies,2024-02-12T10:13:18.971Z
65c9d320cd713395fbb52e58,NCT04586010,CHU Mohammed VI,Morocco,Marrakech,40080,31.63416,-7.99994,https://clinicaltrials.gov/api/v2/studies,2024-02-12T10:13:18.971Z
65c9d320cd713395fbb52e5a,NCT04586010,Centre Hospitalo-universitaire Mohammed VI d?Oujda; Neurology,Morocco,Oujda,,34.68139,-1.90858,https://clinicaltrials.gov/api/v2/studies,2024-02-12T10:13:18.971Z
65c9d320cd713395fbb52e5c,NCT04586010,Centre Hospitalier Ibn Sina CHIS - Hopital des Specialites,Morocco,Rabat,10100,34.01325,-6.83255,https://clinicaltrials.gov/api/v2/studies,2024-02-12T10:13:18.971Z
65c9d320cd713395fbb52e5e,NCT04586010,Hopital Militaire d'Instruction Mohamed V,Morocco,Rabat,10100,34.01325,-6.83255,https://clinicaltrials.gov/api/v2/studies,2024-02-12T10:13:18.971Z
65c9d320cd713395fbb52e60,NCT04586010,Hopital Razi; Neurology Department,Tunisia,Mannouba,2010,,,https://clinicaltrials.gov/api/v2/studies,2024-02-12T10:13:18.971Z
65c9d320cd713395fbb52e62,NCT04586010,Fattouma Bourguiba Hospital,Tunisia,Monastir,5000,35.77799,10.82617,https://clinicaltrials.gov/api/v2/studies,2024-02-12T10:13:18.971Z
65c9d320cd713395fbb52e64,NCT04586010,Hospital Habib Bourguiba,Tunisia,Sfax,3029,34.74056,10.76028,https://clinicaltrials.gov/api/v2/studies,2024-02-12T10:13:18.971Z
65c9d320cd713395fbb52e66,NCT02322762,Research Site,Tunisia,Tunis,,36.81897,10.16579,https://clinicaltrials.gov/api/v2/studies,2024-02-12T10:13:18.972Z
65c9d320cd713395fbb52e8d,NCT00140829,CHU Mustapha,Algeria,Algiers,16000,36.73225,3.08746,https://clinicaltrials.gov/api/v2/studies,2024-02-12T10:13:18.972Z
65c9d320cd713395fbb52e8f,NCT00140829,CHU de Rabat,Morocco,Rabat,,34.01325,-6.83255,https://clinicaltrials.gov/api/v2/studies,2024-02-12T10:13:18.972Z
65c9d320cd713395fbb52e91,NCT00140829,Hôpital Habib Bourguiba,Tunisia,Sfax,,34.74056,10.76028,https://clinicaltrials.gov/api/v2/studies,2024-02-12T10:13:18.972Z
65c9d320cd713395fbb52e93,NCT01868477,Novartis Investigative Site,Algeria,Sidi Bel abbes,22000,35.18994,-0.63085,https://clinicaltrials.gov/api/v2/studies,2024-02-12T10:13:03.054Z
65c9d320cd713395fbb52e96,NCT01435642,Novo Nordisk Investigational Site,Algeria,Blida,16009,36.47004,2.8277,https://clinicaltrials.gov/api/v2/studies,2024-02-12T10:13:03.054Z
65c9d320cd713395fbb52e98,NCT04972721,Master Centre for Algeria,Algeria,Algiers,16035,36.73225,3.08746,https://clinicaltrials.gov/api/v2/studies,2024-02-12T10:13:17.880Z
65c9d320cd713395fbb52e9a,NCT04972721,Master Centre for South Africa,South Africa,Sandton,Gauteng 2146,-26.05524,28.05943,https://clinicaltrials.gov/api/v2/studies,2024-02-12T10:13:17.880Z
65c9d320cd713395fbb52e9c,NCT04082429,Novo Nordisk Investigational Site,South Africa,Polokwane,Limpopo 0699,-23.90449,29.46885,https://clinicaltrials.gov/api/v2/studies,2024-02-12T10:13:17.883Z
65c9d320cd713395fbb52ea1,NCT01814137,Novo Nordisk Investigational Site,Algeria,Tizi Ouzou,16015,36.71182,4.04591,https://clinicaltrials.gov/api/v2/studies,2024-02-12T10:13:03.054Z
65c9d320cd713395fbb52ea5,NCT04468165,CHU Frantz FANON,Algeria,Blida,,36.47004,2.8277,https://clinicaltrials.gov/api/v2/studies,2024-02-12T10:13:06.136Z
65c9d320cd713395fbb52ea7,NCT04468165,Nedir Mohamed Hospital,Algeria,Tizi Ouzou,,36.71182,4.04591,https://clinicaltrials.gov/api/v2/studies,2024-02-12T10:13:06.136Z
65c9d320cd713395fbb52ea9,NCT04468165,New University Hospital,Egypt,Alexandria,,31.21564,29.95527,https://clinicaltrials.gov/api/v2/studies,2024-02-12T10:13:06.136Z
65c9d320cd713395fbb52eab,NCT04468165,Demerdash hospital (Ain Shams University),Egypt,Cairo,,30.06263,31.24967,https://clinicaltrials.gov/api/v2/studies,2024-02-12T10:13:06.136Z
65c9d320cd713395fbb52ead,NCT04468165,Private Clinic,Egypt,Cairo,,30.06263,31.24967,https://clinicaltrials.gov/api/v2/studies,2024-02-12T10:13:06.136Z
65c9d320cd713395fbb52eaf,NCT01344889,,Morocco,Rabat,62000,34.01325,-6.83255,https://clinicaltrials.gov/api/v2/studies,2024-02-12T10:13:07.923Z
65c9d320cd713395fbb52eb8,NCT01566721,CPMC; Service d'Oncologie Médicale,Algeria,Algiers,16000,36.73225,3.08746,https://clinicaltrials.gov/api/v2/studies,2024-02-12T10:13:17.889Z
65c9d320cd713395fbb52eba,NCT01566721,Alexandria Uni ; Medical Oncology,Egypt,Alexandria,11737,31.21564,29.95527,https://clinicaltrials.gov/api/v2/studies,2024-02-12T10:13:17.889Z
65c9d320cd713395fbb52ebc,NCT01566721,Manial Specialized Hospital; Oncology,Egypt,Cairo,11555,30.06263,31.24967,https://clinicaltrials.gov/api/v2/studies,2024-02-12T10:13:17.889Z
65c9d320cd713395fbb52ebe,NCT01566721,Nci; Oncology Dept,Egypt,Cairo,11796,30.06263,31.24967,https://clinicaltrials.gov/api/v2/studies,2024-02-12T10:13:17.889Z
65c9d320cd713395fbb52ec0,NCT01566721,Institut National D'oncologie Sidi Med Benabdellah,Morocco,Rabat,6213,34.01325,-6.83255,https://clinicaltrials.gov/api/v2/studies,2024-02-12T10:13:17.889Z
65c9d320cd713395fbb52ec2,NCT01566721,Westridge Medical Center,South Africa,Durban,4058,-29.8579,31.0292,https://clinicaltrials.gov/api/v2/studies,2024-02-12T10:13:17.889Z
65c9d320cd713395fbb52ec4,NCT01566721,Donald Gordon Medical Centre,South Africa,Johannesburg,2193,-26.20227,28.04363,https://clinicaltrials.gov/api/v2/studies,2024-02-12T10:13:17.889Z
65c9d320cd713395fbb52ec6,NCT01566721,Steve Biko Academic Hospital; Oncology,South Africa,Pretoria,2,-25.74486,28.18783,https://clinicaltrials.gov/api/v2/studies,2024-02-12T10:13:17.889Z
65c9d320cd713395fbb52ec8,NCT03601689,Batna anticancer center,Algeria,Alger,,36.73225,3.08746,https://clinicaltrials.gov/api/v2/studies,2024-02-12T10:13:07.924Z
65c9d320cd713395fbb52eca,NCT03601689,"Mohammed V University Medical School, Surgery Department, Military Hospital",Morocco,Rabat,Please Enter The State Or Province 10001,34.01325,-6.83255,https://clinicaltrials.gov/api/v2/studies,2024-02-12T10:13:07.924Z
65c9d320cd713395fbb52ecc,NCT03601689,"Mohammed V University Medical School, Surgical Department ""A"", Ibn Sina Hospital",Morocco,Rabat,Please Enter The State Or Province 10001,34.01325,-6.83255,https://clinicaltrials.gov/api/v2/studies,2024-02-12T10:13:07.924Z
65c9d320cd713395fbb52ece,NCT03601689,"Mohammed V University Medical School, Surgical Department ""C"", Ibn Sina Hospital,",Morocco,Rabat,Please Enter The State Or Province 10001,34.01325,-6.83255,https://clinicaltrials.gov/api/v2/studies,2024-02-12T10:13:07.924Z
65c9d320cd713395fbb52ed0,NCT03601689,"National Institut of Oncology, Surgical oncology department",Morocco,Rabat,Please Enter The State Or Province 10001,34.01325,-6.83255,https://clinicaltrials.gov/api/v2/studies,2024-02-12T10:13:07.924Z
65c9d320cd713395fbb52ed2,NCT03601689,"Sidi Mohammed Ben Abdellah University Medical School, Surgery Department,",Morocco,Fès,,34.03313,-5.00028,https://clinicaltrials.gov/api/v2/studies,2024-02-12T10:13:07.924Z
65c9d320cd713395fbb52ed4,NCT03601689,"Mohammed Ist University Medical School, Surgical Oncology, Hospital el Farabi",Morocco,Oujda,,34.68139,-1.90858,https://clinicaltrials.gov/api/v2/studies,2024-02-12T10:13:07.924Z
65c9d320cd713395fbb52ed6,NCT03601689,Private surgical oncology center,Morocco,Salé,,34.0531,-6.79846,https://clinicaltrials.gov/api/v2/studies,2024-02-12T10:13:07.924Z
65c9d320cd713395fbb52ed8,NCT03607812,Service de cardiologie EHS Maouche ( ex CNMS de Benaknoun),Algeria,Alger,,36.73225,3.08746,https://clinicaltrials.gov/api/v2/studies,2024-02-12T10:13:03.054Z
65c9d320cd713395fbb52eda,NCT02406092,"Hôpital Dorban CHU Annaba, Service d'Hématologie",Algeria,Annaba,23000,36.9,7.76667,https://clinicaltrials.gov/api/v2/studies,2024-02-12T10:13:18.973Z
65c9d320cd713395fbb52edc,NCT02406092,EHS CAC Hospital FRANTZ FANON ZABANA BLIDA; Hematology ward,Algeria,Blida,9000,36.47004,2.8277,https://clinicaltrials.gov/api/v2/studies,2024-02-12T10:13:18.973Z
65c9d320cd713395fbb52ede,NCT02406092,"EHU Oran, Service d'Hématologie et de Thérapie Cellulaire",Algeria,Oran,31000,35.69906,-0.63588,https://clinicaltrials.gov/api/v2/studies,2024-02-12T10:13:18.973Z
65c9d320cd713395fbb52ee0,NCT02406092,Centre hospitalo-univerisitaire de Tizi Ouzou - Nedir Mohamed;Service d'hématologie,Algeria,Tizi Ouzou,15000,36.71182,4.04591,https://clinicaltrials.gov/api/v2/studies,2024-02-12T10:13:18.973Z
65c9d320cd713395fbb52ee2,NCT02406092,CHU 20 Aout Service D'Onco-Hematologie Pediatrique,Morocco,Casablanca,20100,33.58831,-7.61138,https://clinicaltrials.gov/api/v2/studies,2024-02-12T10:13:18.973Z
65c9d320cd713395fbb52ee4,NCT02406092,Clinique AlMadina; Service hematologie,Morocco,Casablanca,20340,33.58831,-7.61138,https://clinicaltrials.gov/api/v2/studies,2024-02-12T10:13:18.973Z
65c9d320cd713395fbb52ee6,NCT02406092,Centre Hospitalier Uni Ire de Marrakech; Oncologie-Hématologie,Morocco,Marrakech,40000,31.63416,-7.99994,https://clinicaltrials.gov/api/v2/studies,2024-02-12T10:13:18.973Z
65c9d320cd713395fbb52ee8,NCT02406092,CHU Ibn Sina Rabat Service de medecine interne,Morocco,Rabat,10090,34.01325,-6.83255,https://clinicaltrials.gov/api/v2/studies,2024-02-12T10:13:18.973Z
65c9d320cd713395fbb52eea,NCT02406092,"CHU Fattouma Bourguiba, Monastir; Service d'hématologie",Tunisia,Monastir,5000,35.77799,10.82617,https://clinicaltrials.gov/api/v2/studies,2024-02-12T10:13:18.973Z
65c9d320cd713395fbb52eec,NCT02406092,CHU Hédi Chacker; Service d'hématologie,Tunisia,Sfax,3025,34.74056,10.76028,https://clinicaltrials.gov/api/v2/studies,2024-02-12T10:13:18.973Z
65c9d320cd713395fbb52eee,NCT02406092,CHU Farhat Hached; Service d'hématologie,Tunisia,Sousse,4000,35.82539,10.63699,https://clinicaltrials.gov/api/v2/studies,2024-02-12T10:13:18.973Z
65c9d320cd713395fbb52ef0,NCT02406092,Aziza Othmana Hospital; Clinical Haematology,Tunisia,Tunis,1008,36.81897,10.16579,https://clinicaltrials.gov/api/v2/studies,2024-02-12T10:13:18.973Z
65c9d320cd713395fbb52ef2,NCT02406092,Hopital Militaire d'instruction de Tunis; Service d'hématologie,Tunisia,Tunis,1008,36.81897,10.16579,https://clinicaltrials.gov/api/v2/studies,2024-02-12T10:13:18.973Z
65c9d320cd713395fbb52ef4,NCT02725892,Research Site,Algeria,Oran,31000,35.69906,-0.63588,https://clinicaltrials.gov/api/v2/studies,2024-02-12T10:13:03.054Z
65c9d320cd713395fbb52ef8,NCT04109547,Novo Nordisk Investigational Site,Algeria,Algiers,16049,36.73225,3.08746,https://clinicaltrials.gov/api/v2/studies,2024-02-12T10:13:03.054Z
65c9d320cd713395fbb52efb,NCT02906930,Novo Nordisk Investigational Site,Algeria,Algiers,,36.73225,3.08746,https://clinicaltrials.gov/api/v2/studies,2024-02-12T10:13:03.054Z
65c9d320cd713395fbb52f00,NCT00700830,,Algeria,Algiers,16035,36.73225,3.08746,https://clinicaltrials.gov/api/v2/studies,2024-02-12T10:13:03.055Z
65c9d320cd713395fbb52f02,NCT01713530,Novo Nordisk Investigational Site,Algeria,Oran,31000,35.69906,-0.63588,https://clinicaltrials.gov/api/v2/studies,2024-02-12T10:13:03.055Z
65c9d320cd713395fbb52f07,NCT03741881,Novo Nordisk Investigational Site,South Africa,Polokwane,Limpopo 0699,-23.90449,29.46885,https://clinicaltrials.gov/api/v2/studies,2024-02-12T10:13:17.903Z
65c9d320cd713395fbb52f0d,NCT03006198,,Egypt,Cairo,,30.06263,31.24967,https://clinicaltrials.gov/api/v2/studies,2024-02-12T10:13:06.139Z
65c9d320cd713395fbb52f11,NCT02303444,,Egypt,Multiple Locations,,,,https://clinicaltrials.gov/api/v2/studies,2024-02-12T10:13:06.139Z
65c9d320cd713395fbb52f14,NCT03044899,National Coordination Office,Zimbabwe,Harare,Harare Province,-17.82772,31.05337,https://clinicaltrials.gov/api/v2/studies,2024-02-12T10:13:19.839Z
65c9d320cd713395fbb52f26,NCT03044899,University of Kwazulu-Natal,South Africa,Congella,Kwazulu-Natal 4013,-29.87189,30.99508,https://clinicaltrials.gov/api/v2/studies,2024-02-12T10:13:19.839Z
65c9d320cd713395fbb52f2d,NCT02153411,Research Site,Tunisia,Tunis,Nis-rme-xxx-2014/1,36.81897,10.16579,https://clinicaltrials.gov/api/v2/studies,2024-02-12T10:13:18.974Z
65c9d320cd713395fbb52f61,NCT03811535,CHU Bab El Oued Pediatrics Dept,Algeria,Algiers,16000,36.73225,3.08746,https://clinicaltrials.gov/api/v2/studies,2024-02-12T10:13:03.055Z
65c9d320cd713395fbb52f63,NCT03811535,Endo and Diab Dept El Oued,Algeria,Algiers,16000,36.73225,3.08746,https://clinicaltrials.gov/api/v2/studies,2024-02-12T10:13:03.055Z
65c9d320cd713395fbb52f65,NCT03811535,"endocrino-diabetology department, Hospital IBN BADIS.",Algeria,Constantine,25000,36.365,6.61472,https://clinicaltrials.gov/api/v2/studies,2024-02-12T10:13:03.055Z
65c9d320cd713395fbb52f67,NCT02141074,Novo Nordisk Investigational Site,Algeria,Setif,19000,36.19112,5.41373,https://clinicaltrials.gov/api/v2/studies,2024-02-12T10:13:03.055Z
65c9d320cd713395fbb52f6a,NCT03140176,Pierre Et Marie Curie Center,Algeria,Algers,16005,,,https://clinicaltrials.gov/api/v2/studies,2024-02-12T10:13:07.924Z
65c9d320cd713395fbb52f6c,NCT03140176,CAC Annaba,Algeria,Annaba,,36.9,7.76667,https://clinicaltrials.gov/api/v2/studies,2024-02-12T10:13:07.924Z
65c9d320cd713395fbb52f6e,NCT03140176,Hanene Djedi,Algeria,Annaba,,36.9,7.76667,https://clinicaltrials.gov/api/v2/studies,2024-02-12T10:13:07.924Z
65c9d320cd713395fbb52f70,NCT03140176,Kasr Al Aini,Egypt,Cairo,11562,30.06263,31.24967,https://clinicaltrials.gov/api/v2/studies,2024-02-12T10:13:07.924Z
65c9d320cd713395fbb52f72,NCT03140176,National Cancer Institute,Egypt,Cairo,11796,30.06263,31.24967,https://clinicaltrials.gov/api/v2/studies,2024-02-12T10:13:07.924Z
65c9d320cd713395fbb52f74,NCT03140176,Demerdash Hospital,Egypt,Cairo,,30.06263,31.24967,https://clinicaltrials.gov/api/v2/studies,2024-02-12T10:13:07.924Z
65c9d320cd713395fbb52f76,NCT03140176,Institut National D'Oncologie,Morocco,Rabat,,34.01325,-6.83255,https://clinicaltrials.gov/api/v2/studies,2024-02-12T10:13:07.924Z
65c9d320cd713395fbb52f78,NCT05190094,"EHS LCC Blida, Medical Oncology Center",Algeria,Blida,,36.47004,2.8277,https://clinicaltrials.gov/api/v2/studies,2024-02-12T10:13:03.055Z
65c9d320cd713395fbb52f7a,NCT05190094,"University Hospital Sétif,",Algeria,Sétif,,36.19112,5.41373,https://clinicaltrials.gov/api/v2/studies,2024-02-12T10:13:03.055Z
65c9d320cd713395fbb52f7c,NCT04017832,Novo Nordisk Investigational Site,South Africa,Alberton,1449,-26.26786,28.12225,https://clinicaltrials.gov/api/v2/studies,2024-02-12T10:13:17.913Z
65c9d320cd713395fbb52f89,NCT01959529,Novo Nordisk Investigational Site,South Africa,Cape Town,Western Cape 7700,-33.92584,18.42322,https://clinicaltrials.gov/api/v2/studies,2024-02-12T10:13:17.922Z
65c9d320cd713395fbb52f9d,NCT03878446,CHU Bab El Oued Pediatrics Dept,Algeria,Algiers,16000,36.73225,3.08746,https://clinicaltrials.gov/api/v2/studies,2024-02-12T10:13:03.055Z
65c9d320cd713395fbb52f9f,NCT03878446,Endo and Diab Dept El Oued,Algeria,Algiers,16000,36.73225,3.08746,https://clinicaltrials.gov/api/v2/studies,2024-02-12T10:13:03.055Z
65c9d320cd713395fbb52fa1,NCT03878446,"endocrino-diabetology department, Hospital IBN BADIS.",Algeria,Constantine,25000,36.365,6.61472,https://clinicaltrials.gov/api/v2/studies,2024-02-12T10:13:03.055Z
65c9d320cd713395fbb52fa3,NCT04412746,"Department of Internal Medicine, Acedemic Hospital of Tlemcen",Algeria,Tlemcen,130000,34.87833,-1.315,https://clinicaltrials.gov/api/v2/studies,2024-02-12T10:13:03.055Z
65c9d320cd713395fbb52fa5,NCT01720446,Novo Nordisk Investigational Site,Algeria,Tizi Ouzou,15000,36.71182,4.04591,https://clinicaltrials.gov/api/v2/studies,2024-02-12T10:13:03.055Z
65c9d320cd713395fbb52faa,NCT01493778,Novo Nordisk Investigational Site,Algeria,Annaba,23000,36.9,7.76667,https://clinicaltrials.gov/api/v2/studies,2024-02-12T10:13:03.055Z
65c9d320cd713395fbb52fad,NCT02066961,Site,Egypt,Cairo,12411,30.06263,31.24967,https://clinicaltrials.gov/api/v2/studies,2024-02-12T10:13:06.144Z
65c9d320cd713395fbb52fb4,NCT01206764,Novartis Investigative Site,Tunisia,Sousse,4000,35.82539,10.63699,https://clinicaltrials.gov/api/v2/studies,2024-02-12T10:13:18.975Z
65c9d320cd713395fbb52fc1,NCT00283036,Sanofi-Aventis,Algeria,Alger,,36.73225,3.08746,https://clinicaltrials.gov/api/v2/studies,2024-02-12T10:13:03.056Z
65c9d320cd713395fbb52fc3,NCT05138523,Boufarik Public Hospital,Algeria,Boufarik,Blida 9001,36.57413,2.91214,https://clinicaltrials.gov/api/v2/studies,2024-02-12T10:13:03.056Z
65c9d320cd713395fbb52fc5,NCT05138523,Mustapha Pacha Teaching Hospital,Algeria,Algiers,16000,36.73225,3.08746,https://clinicaltrials.gov/api/v2/studies,2024-02-12T10:13:03.056Z
65c9d320cd713395fbb52fc7,NCT05138523,Khenchla Public Hospital,Algeria,Khenchla,40000,,,https://clinicaltrials.gov/api/v2/studies,2024-02-12T10:13:03.056Z
65c9d320cd713395fbb52fc9,NCT05138523,Oran Teaching Hospital,Algeria,Oran,31000,35.69906,-0.63588,https://clinicaltrials.gov/api/v2/studies,2024-02-12T10:13:03.056Z
65c9d320cd713395fbb52fcb,NCT01459328,"Centre Anti-Cancer, Hopital Franz Fanon",Algeria,Blida,9000,36.47004,2.8277,https://clinicaltrials.gov/api/v2/studies,2024-02-12T10:13:17.937Z
65c9d320cd713395fbb52fcd,NCT01459328,University of Cape Town,South Africa,Cape Town,7701,-33.92584,18.42322,https://clinicaltrials.gov/api/v2/studies,2024-02-12T10:13:17.937Z
65c9d320cd713395fbb52fcf,NCT01680341,Novo Nordisk Investigational Site,Algeria,Tizi Ouzou,16015,36.71182,4.04591,https://clinicaltrials.gov/api/v2/studies,2024-02-12T10:13:03.056Z
65c9d320cd713395fbb52fd3,NCT03447132,Center Pierre et Marie Curie,Algeria,Algiers,,36.73225,3.08746,https://clinicaltrials.gov/api/v2/studies,2024-02-12T10:13:18.976Z
65c9d320cd713395fbb52fd5,NCT03447132,Cancer Center - Blida,Algeria,Blida,,36.47004,2.8277,https://clinicaltrials.gov/api/v2/studies,2024-02-12T10:13:18.976Z
65c9d320cd713395fbb52fd7,NCT03447132,CHU - Oran,Algeria,Oran,,35.69906,-0.63588,https://clinicaltrials.gov/api/v2/studies,2024-02-12T10:13:18.976Z
65c9d320cd713395fbb52fd9,NCT03447132,University of Alexandria,Egypt,Alexandria,,31.21564,29.95527,https://clinicaltrials.gov/api/v2/studies,2024-02-12T10:13:18.976Z
65c9d320cd713395fbb52fdb,NCT03447132,National Cancer Institut (NCI),Egypt,Cairo,,30.06263,31.24967,https://clinicaltrials.gov/api/v2/studies,2024-02-12T10:13:18.976Z
65c9d320cd713395fbb52fdd,NCT03447132,Hopital Cheikh Khalifa Ibn Zaid,Morocco,Casablanca,,33.58831,-7.61138,https://clinicaltrials.gov/api/v2/studies,2024-02-12T10:13:18.976Z
65c9d320cd713395fbb52fdf,NCT03447132,Department of Oncology - Institut National d'Oncologie,Morocco,Rabat,,34.01325,-6.83255,https://clinicaltrials.gov/api/v2/studies,2024-02-12T10:13:18.976Z
65c9d320cd713395fbb52fe1,NCT03447132,Oncologie Medicale de l'Ariana (SOMA),Tunisia,Tunis,,36.81897,10.16579,https://clinicaltrials.gov/api/v2/studies,2024-02-12T10:13:18.976Z
65c9d320cd713395fbb52fe3,NCT05563818,Mustapha University Hospital,Algeria,Algiers,,36.73225,3.08746,https://clinicaltrials.gov/api/v2/studies,2024-02-12T10:13:06.149Z
65c9d320cd713395fbb52fe5,NCT05563818,Ain Shams Hospital,Egypt,Cairo,,30.06263,31.24967,https://clinicaltrials.gov/api/v2/studies,2024-02-12T10:13:06.149Z
65c9d320cd713395fbb52fe7,NCT01476423,,Algeria,Algiers,16035,36.73225,3.08746,https://clinicaltrials.gov/api/v2/studies,2024-02-12T10:13:03.056Z
65c9d320cd713395fbb52fe9,NCT02220270,CHU Frantz-Fanon,Algeria,Blida,,36.47004,2.8277,https://clinicaltrials.gov/api/v2/studies,2024-02-12T10:13:03.056Z
65c9d320cd713395fbb52feb,NCT02220270,Radjah Clinic,Algeria,Setif,,36.19112,5.41373,https://clinicaltrials.gov/api/v2/studies,2024-02-12T10:13:03.056Z
65c9d320cd713395fbb52fed,NCT02220270,Centre Médico-chirurgical infantile Bou Ismail,Algeria,Tipaza,,36.58972,2.4475,https://clinicaltrials.gov/api/v2/studies,2024-02-12T10:13:03.056Z
65c9d320cd713395fbb52fef,NCT04083781,Novo Nordisk Investigational Site,South Africa,Polokwane,Limpopo 0699,-23.90449,29.46885,https://clinicaltrials.gov/api/v2/studies,2024-02-12T10:13:17.952Z
65c9d320cd713395fbb52ff5,NCT00703911,Novo Nordisk Investigational Site,South Africa,Sandton,2146,-26.05524,28.05943,https://clinicaltrials.gov/api/v2/studies,2024-02-12T10:13:17.955Z
65c9d320cd713395fbb52ff8,NCT03234335,Centre Pierre et Marie Curie,Algeria,Alger,,36.73225,3.08746,https://clinicaltrials.gov/api/v2/studies,2024-02-12T10:13:03.056Z
65c9d320cd713395fbb52ffa,NCT03234335,EHU Oran,Algeria,Oran,,35.69906,-0.63588,https://clinicaltrials.gov/api/v2/studies,2024-02-12T10:13:03.056Z
65c9d320cd713395fbb52ffc,NCT01203111,Administrative office,Morocco,Casablanca,,33.58831,-7.61138,https://clinicaltrials.gov/api/v2/studies,2024-02-12T10:13:07.925Z
65c9d320cd713395fbb52fff,NCT05285917,Hospital Geral dos Cajueiros,Angola,Luanda,,-8.83682,13.23432,https://clinicaltrials.gov/api/v2/studies,2024-02-12T10:13:03.069Z
65c9d320cd713395fbb53001,NCT06171217,Hospital Pediátrico David Bernardino,Angola,Luanda,,-8.83682,13.23432,https://clinicaltrials.gov/api/v2/studies,2024-02-12T10:13:19.396Z
65c9d320cd713395fbb53003,NCT06171217,KEMRI/Wellcome Trust Research,Kenya,Kilifi,,-3.63045,39.84992,https://clinicaltrials.gov/api/v2/studies,2024-02-12T10:13:19.396Z
65c9d320cd713395fbb53005,NCT06171217,Mbale Regional Hospital,Uganda,Mbale,,1.08209,34.17503,https://clinicaltrials.gov/api/v2/studies,2024-02-12T10:13:19.396Z
65c9d320cd713395fbb53007,NCT05571280,Cunene,Angola,Otchinjau; Mupa,Cunene,,,https://clinicaltrials.gov/api/v2/studies,2024-02-12T10:13:03.070Z
65c9d320cd713395fbb53009,NCT05571280,Huíla province,Angola,Libongue; Jamba Sede,,,,https://clinicaltrials.gov/api/v2/studies,2024-02-12T10:13:03.070Z
65c9d320cd713395fbb5300b,NCT01540838,Hospital Pediatrico David Bernardino,Angola,Luanda,,-8.83682,13.23432,https://clinicaltrials.gov/api/v2/studies,2024-02-12T10:13:03.070Z
65c9d320cd713395fbb5300d,NCT01966731,Hospital Pediátrico David Bernardino,Angola,Luanda,,-8.83682,13.23432,https://clinicaltrials.gov/api/v2/studies,2024-02-12T10:13:19.399Z
65c9d320cd713395fbb5300f,NCT01966731,KEMRI/Wellcome Trust Research,Kenya,Kilifi,,-3.63045,39.84992,https://clinicaltrials.gov/api/v2/studies,2024-02-12T10:13:19.399Z
65c9d320cd713395fbb53011,NCT01966731,Ministry of Health Mbale Regional Hospital,Uganda,Mbale,,1.08209,34.17503,https://clinicaltrials.gov/api/v2/studies,2024-02-12T10:13:19.399Z
65c9d320cd713395fbb53013,NCT00802594,"Laboratory of Reference and Investigation, Viana, ICCT",Angola,Bairro Ingombota,Luanda CP 2657-C,,,https://clinicaltrials.gov/api/v2/studies,2024-02-12T10:13:03.659Z
65c9d320cd713395fbb53015,NCT00802594,Programme National de Lutte contre la Trypanosomiase,Congo,Kinshasa,Gombe,,,https://clinicaltrials.gov/api/v2/studies,2024-02-12T10:13:03.659Z
65c9d320cd713395fbb53017,NCT05136274,Maria Dolores Reguera Saborido,Angola,Benguela,999,-12.57626,13.40547,https://clinicaltrials.gov/api/v2/studies,2024-02-12T10:13:03.070Z
65c9d320cd713395fbb53019,NCT06170320,Institut de Recherche Clinique du Bénin,Benin,Abomey Calavi,Atlantique 04BP1114,6.44852,2.35566,https://clinicaltrials.gov/api/v2/studies,2024-02-12T10:13:03.094Z
65c9d320cd713395fbb5301b,NCT03231449,Centre national hospitalier et universitaire Koutoukou Maga,Benin,Cotonou,,6.36536,2.41833,https://clinicaltrials.gov/api/v2/studies,2024-02-12T10:13:18.370Z
65c9d320cd713395fbb5301d,NCT03231449,Centre médical Paul IV,Burkina Faso,Ouagadougou,,12.36566,-1.53388,https://clinicaltrials.gov/api/v2/studies,2024-02-12T10:13:18.370Z
65c9d320cd713395fbb5301f,NCT03231449,Hopital militaire de Kamenge et polyclinique maison médicale,Burundi,Bujumbura,,-3.3822,29.3644,https://clinicaltrials.gov/api/v2/studies,2024-02-12T10:13:18.370Z
65c9d320cd713395fbb53021,NCT03231449,Hôpital Régional,Cameroon,Bafoussam,,5.47775,10.41759,https://clinicaltrials.gov/api/v2/studies,2024-02-12T10:13:18.370Z
65c9d320cd713395fbb53023,NCT03231449,Douala General Hospital,Cameroon,Douala,,4.04827,9.70428,https://clinicaltrials.gov/api/v2/studies,2024-02-12T10:13:18.370Z
65c9d320cd713395fbb53025,NCT03231449,Central Hospital,Cameroon,Yaounde,,3.86667,11.51667,https://clinicaltrials.gov/api/v2/studies,2024-02-12T10:13:18.370Z
65c9d320cd713395fbb53027,NCT03231449,Hôpital Général de Yaoundé,Cameroon,Yaounde,,3.86667,11.51667,https://clinicaltrials.gov/api/v2/studies,2024-02-12T10:13:18.370Z
65c9d320cd713395fbb53029,NCT03231449,CHU,Congo,Brazzaville,,-4.26613,15.28318,https://clinicaltrials.gov/api/v2/studies,2024-02-12T10:13:18.370Z
65c9d320cd713395fbb5302b,NCT03231449,Centre Hospitalier Universitaire (CHUL),Gabon,Libreville,,0.39241,9.45356,https://clinicaltrials.gov/api/v2/studies,2024-02-12T10:13:18.370Z
65c9d320cd713395fbb5302d,NCT03231449,CHU Ignace Deen,Guinea,Conakry,,9.53795,-13.67729,https://clinicaltrials.gov/api/v2/studies,2024-02-12T10:13:18.370Z
65c9d320cd713395fbb5302f,NCT03231449,Institut du coeur,Mozambique,Maputo,,-25.96553,32.58322,https://clinicaltrials.gov/api/v2/studies,2024-02-12T10:13:18.370Z
65c9d320cd713395fbb53031,NCT03231449,Hôpital National Lamorde,Niger,Niamey,,13.51366,2.1098,https://clinicaltrials.gov/api/v2/studies,2024-02-12T10:13:18.370Z
65c9d320cd713395fbb53033,NCT03231449,Hôpital de Fann,Senegal,Dakar,,14.6937,-17.44406,https://clinicaltrials.gov/api/v2/studies,2024-02-12T10:13:18.370Z
65c9d320cd713395fbb53035,NCT03231449,Hôpital général de Grand Yoff,Senegal,Dakar,,14.6937,-17.44406,https://clinicaltrials.gov/api/v2/studies,2024-02-12T10:13:18.370Z
65c9d320cd713395fbb53037,NCT03231449,El Hadj-Ibrahima Niass,Senegal,Kaolac,,,,https://clinicaltrials.gov/api/v2/studies,2024-02-12T10:13:18.370Z
65c9d320cd713395fbb53039,NCT03231449,National Cardiothoracic center / Shab Teaching Hospital,Sudan,Khartoum,,15.55177,32.53241,https://clinicaltrials.gov/api/v2/studies,2024-02-12T10:13:18.370Z
65c9d320cd713395fbb5303b,NCT01017068,Eye Clinic University of Benin Teaching Hospital,Nigeria,Benin City,Edo,6.33815,5.62575,https://clinicaltrials.gov/api/v2/studies,2024-02-12T10:13:08.151Z
65c9d320cd713395fbb5303d,NCT03660839,Investigational Site Number 2040001,Benin,Cotonou,,6.36536,2.41833,https://clinicaltrials.gov/api/v2/studies,2024-02-12T10:13:19.396Z
65c9d320cd713395fbb5303f,NCT03660839,Investigational Site Number 8540002,Burkina Faso,Banfora,,10.63333,-4.76667,https://clinicaltrials.gov/api/v2/studies,2024-02-12T10:13:19.396Z
65c9d320cd713395fbb53041,NCT03660839,Investigational Site Number 8540001,Burkina Faso,Ouagadougou,01 BP218,12.36566,-1.53388,https://clinicaltrials.gov/api/v2/studies,2024-02-12T10:13:19.396Z
65c9d320cd713395fbb53043,NCT03660839,Investigational Site Number 2660002,Gabon,Lambarene,,-0.7001,10.24055,https://clinicaltrials.gov/api/v2/studies,2024-02-12T10:13:19.396Z
65c9d320cd713395fbb53045,NCT03660839,Investigational Site Number 2660001,Gabon,Libreville,B.P. 4009,0.39241,9.45356,https://clinicaltrials.gov/api/v2/studies,2024-02-12T10:13:19.396Z
65c9d320cd713395fbb53047,NCT03660839,Investigational Site Number 4040002,Kenya,Siaya,,0.06116,34.28823,https://clinicaltrials.gov/api/v2/studies,2024-02-12T10:13:19.396Z
65c9d320cd713395fbb53049,NCT03660839,Investigational Site Number 8000001,Uganda,Tororo,,0.69299,34.18085,https://clinicaltrials.gov/api/v2/studies,2024-02-12T10:13:19.396Z
65c9d320cd713395fbb5304b,NCT00739206,Sanofi-Aventis Administrative Office,Tanzania,Dodoma,,-6.17221,35.73947,https://clinicaltrials.gov/api/v2/studies,2024-02-12T10:13:18.642Z
65c9d320cd713395fbb53050,NCT00970879,Hôpital d'Instruction des Armées Camp Guézo,Benin,Cotonou,,6.36536,2.41833,https://clinicaltrials.gov/api/v2/studies,2024-02-12T10:13:03.094Z
65c9d320cd713395fbb53052,NCT00970879,Hôpital de la Mère et de l'Enfant Lagune,Benin,Cotonou,,6.36536,2.41833,https://clinicaltrials.gov/api/v2/studies,2024-02-12T10:13:03.094Z
65c9d320cd713395fbb53054,NCT00970879,Hôpital de zone de Suru Lere,Benin,Cotonou,,6.36536,2.41833,https://clinicaltrials.gov/api/v2/studies,2024-02-12T10:13:03.094Z
65c9d320cd713395fbb53056,NCT00970879,Unviversity Hospital Hubert Koutoukou Maga,Benin,Cotonou,,6.36536,2.41833,https://clinicaltrials.gov/api/v2/studies,2024-02-12T10:13:03.094Z
65c9d320cd713395fbb53058,NCT00970879,Clinique Louis Pasteur,Benin,Porto-Novo,,6.49646,2.60359,https://clinicaltrials.gov/api/v2/studies,2024-02-12T10:13:03.094Z
65c9d320cd713395fbb5305a,NCT02016508,Al-Azhar university medical school (Benin-cairo) ophthalmology department,Egypt,Cairo,Nasr city,30.06263,31.24967,https://clinicaltrials.gov/api/v2/studies,2024-02-12T10:13:06.111Z
65c9d320cd713395fbb5305c,NCT01108939,Hopital de zone de Natitingou,Benin,Natitingou,7,10.30416,1.37962,https://clinicaltrials.gov/api/v2/studies,2024-02-12T10:13:03.094Z
65c9d320cd713395fbb5305e,NCT06225739,Fondation pour la Recherche Scientifique (FORS),Benin,Cotonou,,6.36536,2.41833,https://clinicaltrials.gov/api/v2/studies,2024-02-12T10:13:07.521Z
65c9d320cd713395fbb53060,NCT06225739,Groupe de Recherche Action en Santé (GRAS),Burkina Faso,Ouagadougou,,12.36566,-1.53388,https://clinicaltrials.gov/api/v2/studies,2024-02-12T10:13:07.521Z
65c9d320cd713395fbb53062,NCT06225739,Kintampo Health Research Centre (KHRC),Ghana,Kintampo,,8.05627,-1.73058,https://clinicaltrials.gov/api/v2/studies,2024-02-12T10:13:07.521Z
65c9d320cd713395fbb53064,NCT06225739,Malawi University of Science and Technology (MUST),Malawi,Mikolongwe,,-15.88756,35.19758,https://clinicaltrials.gov/api/v2/studies,2024-02-12T10:13:07.521Z
65c9d320cd713395fbb53066,NCT00510679,All eligible health facilities,Benin,Entire department of Oueme and Plateau,Oueme and Plateau,,,https://clinicaltrials.gov/api/v2/studies,2024-02-12T10:13:03.094Z
65c9d320cd713395fbb53068,NCT03303963,Centre National Hospitalier Universitaire de Pneumo-Phtisiologie de Cotonou,Benin,Cotonou,Atlantique/Littoral 01BP321,6.36536,2.41833,https://clinicaltrials.gov/api/v2/studies,2024-02-12T10:13:08.305Z
65c9d320cd713395fbb5306a,NCT03303963,The Tuberculosis Reference Laboratory Bamenda,Cameroon,Bamenda,,5.9597,10.14597,https://clinicaltrials.gov/api/v2/studies,2024-02-12T10:13:08.305Z
65c9d320cd713395fbb5306c,NCT03303963,Jimma University,Ethiopia,Jīma,,,,https://clinicaltrials.gov/api/v2/studies,2024-02-12T10:13:08.305Z
65c9d320cd713395fbb5306e,NCT03303963,"Service de Pneumophtisiologie, Hôpital Ignace Deen, Conakry",Guinea,Conakry,,9.53795,-13.67729,https://clinicaltrials.gov/api/v2/studies,2024-02-12T10:13:08.305Z
65c9d320cd713395fbb53070,NCT03303963,"Université des Sciences, des Techniques et des Technologies de Bamako, SEREFO",Mali,Bamako,,12.65,-8,https://clinicaltrials.gov/api/v2/studies,2024-02-12T10:13:08.305Z
65c9d320cd713395fbb53072,NCT03303963,Damien Fundation,Nigeria,Ibadan,,7.37756,3.90591,https://clinicaltrials.gov/api/v2/studies,2024-02-12T10:13:08.305Z
65c9d320cd713395fbb53074,NCT03303963,Rwanda Biomedical Center (RBC),Rwanda,Kigali,,-1.94995,30.05885,https://clinicaltrials.gov/api/v2/studies,2024-02-12T10:13:08.305Z
65c9d320cd713395fbb53076,NCT03303963,Université Cheick Anta Diop (UCAD),Senegal,Dakar,,14.6937,-17.44406,https://clinicaltrials.gov/api/v2/studies,2024-02-12T10:13:08.305Z
65c9d320cd713395fbb53078,NCT01103063,Centre de Santé d'AHOUANSORI-AGUE,Benin,Cotonou,,6.36536,2.41833,https://clinicaltrials.gov/api/v2/studies,2024-02-12T10:13:19.396Z
65c9d320cd713395fbb5307a,NCT01103063,Hôpital Bethesda,Benin,Cotonou,,6.36536,2.41833,https://clinicaltrials.gov/api/v2/studies,2024-02-12T10:13:19.396Z
65c9d320cd713395fbb5307c,NCT01103063,Siaya District Hospital,Kenya,Siaya,,0.06116,34.28823,https://clinicaltrials.gov/api/v2/studies,2024-02-12T10:13:19.396Z
65c9d320cd713395fbb5307e,NCT01103063,Zomba Central Hospital,Malawi,Zomba,,-15.38596,35.3188,https://clinicaltrials.gov/api/v2/studies,2024-02-12T10:13:19.396Z
65c9d320cd713395fbb53080,NCT01103063,Teule Hospital,Tanzania,Muheza,Tanga,-5.16667,38.78333,https://clinicaltrials.gov/api/v2/studies,2024-02-12T10:13:19.396Z
65c9d320cd713395fbb53082,NCT01103063,Bugando Medical Centre,Tanzania,Mwanza,1903,-2.51667,32.9,https://clinicaltrials.gov/api/v2/studies,2024-02-12T10:13:19.396Z
65c9d320cd713395fbb53084,NCT01103063,"Nyamagana District Hospital, c/o National Institute for Medical Research, Mwanza Centre",Tanzania,Mwanza,,-2.51667,32.9,https://clinicaltrials.gov/api/v2/studies,2024-02-12T10:13:19.396Z
65c9d320cd713395fbb53086,NCT01103063,Nyamagana District Hospital,Tanzania,Mwanza,,-2.51667,32.9,https://clinicaltrials.gov/api/v2/studies,2024-02-12T10:13:19.396Z
65c9d320cd713395fbb53088,NCT01103063,Mulago Hospital Complex,Uganda,Kampala,,0.31628,32.58219,https://clinicaltrials.gov/api/v2/studies,2024-02-12T10:13:19.396Z
65c9d320cd713395fbb5308a,NCT02237027,Dispensaire IST (DIST),Benin,Cotonou,,6.36536,2.41833,https://clinicaltrials.gov/api/v2/studies,2024-02-12T10:13:03.094Z
65c9d320cd713395fbb5308c,NCT00170209,Centre de Pneumophthysiologie,Benin,Cotonou,,6.36536,2.41833,https://clinicaltrials.gov/api/v2/studies,2024-02-12T10:13:17.809Z
65c9d320cd713395fbb5308e,NCT00170209,"Research and Development Unit, Komfo Anokye Teaching Hospital",Ghana,Kumasi,,6.68848,-1.62443,https://clinicaltrials.gov/api/v2/studies,2024-02-12T10:13:17.809Z
65c9d320cd713395fbb53090,NCT00170209,"Service de Pneumo-Phtisiologie, Hopital National Ignace Deen",Guinea,Conakry,Africa,9.53795,-13.67729,https://clinicaltrials.gov/api/v2/studies,2024-02-12T10:13:17.809Z
65c9d320cd713395fbb53092,NCT04303507,Centre Hospitalier et Universitaire de Zone Abomey-Calavi,Benin,Abomey-Calavi,,6.44852,2.35566,https://clinicaltrials.gov/api/v2/studies,2024-02-12T10:13:19.602Z
65c9d320cd713395fbb53094,NCT04303507,Hospital De Zone Allada,Benin,Allada,,6.66547,2.15138,https://clinicaltrials.gov/api/v2/studies,2024-02-12T10:13:19.602Z
65c9d320cd713395fbb53096,NCT04303507,Fountain Healthcare Hospital,Kenya,Eldoret,,0.52036,35.26993,https://clinicaltrials.gov/api/v2/studies,2024-02-12T10:13:19.602Z
65c9d320cd713395fbb53098,NCT04303507,Mbagathi County Hospital,Kenya,Nairobi,,-1.28333,36.81667,https://clinicaltrials.gov/api/v2/studies,2024-02-12T10:13:19.602Z
65c9d320cd713395fbb5309a,NCT04303507,The Bamako Hospital of Dermatology,Mali,Bamako,BP251,12.65,-8,https://clinicaltrials.gov/api/v2/studies,2024-02-12T10:13:19.602Z
65c9d320cd713395fbb5309c,NCT04303507,Hospital Of Mali,Mali,Bamako,BP3333,12.65,-8,https://clinicaltrials.gov/api/v2/studies,2024-02-12T10:13:19.602Z
65c9d320cd713395fbb5309e,NCT04303507,Zambart,Zambia,Lusaka,,-15.40669,28.28713,https://clinicaltrials.gov/api/v2/studies,2024-02-12T10:13:19.602Z
65c9d320cd713395fbb530a0,NCT01659437,Pobè Treatment Center,Benin,Pobè,,6.98008,2.6649,https://clinicaltrials.gov/api/v2/studies,2024-02-12T10:13:06.617Z
65c9d320cd713395fbb530a2,NCT01659437,Agogo Presbyterian Hospital,Ghana,Agogo,,6.80004,-1.08193,https://clinicaltrials.gov/api/v2/studies,2024-02-12T10:13:06.617Z
65c9d320cd713395fbb530a4,NCT01659437,Dunkwa Government Hospital,Ghana,Dunkwa,,5.96562,-1.77995,https://clinicaltrials.gov/api/v2/studies,2024-02-12T10:13:06.617Z
65c9d320cd713395fbb530a6,NCT01659437,Nkawie-Toase Government Hospital,Ghana,Nkawie Panyin,,6.66667,-1.8,https://clinicaltrials.gov/api/v2/studies,2024-02-12T10:13:06.617Z
65c9d320cd713395fbb530a8,NCT01659437,Tepa Government Hosital,Ghana,Tepa,,7.00331,-2.1674,https://clinicaltrials.gov/api/v2/studies,2024-02-12T10:13:06.617Z
65c9d320cd713395fbb530aa,NCT00216385,Programme National de Lutte contre la Tuberculose,Senegal,Dakar,,14.6937,-17.44406,https://clinicaltrials.gov/api/v2/studies,2024-02-12T10:13:17.823Z
65c9d320cd713395fbb530ac,NCT00216385,"Service Pneumo-Phtisiologie, CHU Ignace Deen",Guinea,Conakry,,9.53795,-13.67729,https://clinicaltrials.gov/api/v2/studies,2024-02-12T10:13:17.823Z
65c9d320cd713395fbb530ae,NCT00216385,Kenya Medical Research Institute,Kenya,Nairobi,,-1.28333,36.81667,https://clinicaltrials.gov/api/v2/studies,2024-02-12T10:13:17.823Z
65c9d320cd713395fbb530b1,NCT00216385,Medical Research Council,South Africa,Durban,KwaZulu,-29.8579,31.0292,https://clinicaltrials.gov/api/v2/studies,2024-02-12T10:13:17.823Z
65c9d320cd713395fbb530b3,NCT03014167,Institut de Recherche pour le Développement,Benin,Comé,,6.40764,1.88198,https://clinicaltrials.gov/api/v2/studies,2024-02-12T10:13:07.522Z
65c9d320cd713395fbb530b5,NCT03014167,London School of Hygiene and Tropical Medicine,Malawi,Mangochi,,-14.47815,35.26448,https://clinicaltrials.gov/api/v2/studies,2024-02-12T10:13:07.522Z
65c9d320cd713395fbb530b7,NCT00988507,Sanofi-Aventis Investigational Site Number 204001,Benin,Cotonou,,6.36536,2.41833,https://clinicaltrials.gov/api/v2/studies,2024-02-12T10:13:18.643Z
65c9d320cd713395fbb530b9,NCT00988507,Sanofi-Aventis Investigational Site Number 854002,Burkina Faso,Bobo-Dioulasso 01,,11.17715,-4.2979,https://clinicaltrials.gov/api/v2/studies,2024-02-12T10:13:18.643Z
65c9d320cd713395fbb530bb,NCT00988507,Sanofi-Aventis Investigational Site Number 854003,Burkina Faso,Nouna,,12.72939,-3.86305,https://clinicaltrials.gov/api/v2/studies,2024-02-12T10:13:18.643Z
65c9d320cd713395fbb530bd,NCT00988507,Sanofi-Aventis Investigational Site Number 854001,Burkina Faso,Ouagadougou,,12.36566,-1.53388,https://clinicaltrials.gov/api/v2/studies,2024-02-12T10:13:18.643Z
65c9d320cd713395fbb530bf,NCT00988507,Sanofi-Aventis Investigational Site Number 120001,Cameroon,Yaounde,,3.86667,11.51667,https://clinicaltrials.gov/api/v2/studies,2024-02-12T10:13:18.643Z
65c9d320cd713395fbb530c1,NCT00988507,Sanofi-Aventis Investigational Site Number 266001,Gabon,B.P. 118 Lambarene,,,,https://clinicaltrials.gov/api/v2/studies,2024-02-12T10:13:18.643Z
65c9d320cd713395fbb530c3,NCT00988507,Sanofi-Aventis Investigational Site Number 266002,Gabon,Libreville,,0.39241,9.45356,https://clinicaltrials.gov/api/v2/studies,2024-02-12T10:13:18.643Z
65c9d320cd713395fbb530c5,NCT00988507,Sanofi-Aventis Investigational Site Number 404001,Kenya,Kilifi,,-3.63045,39.84992,https://clinicaltrials.gov/api/v2/studies,2024-02-12T10:13:18.643Z
65c9d320cd713395fbb530c7,NCT00988507,Sanofi-Aventis Investigational Site Number 404002,Kenya,Kisumu,,-0.10221,34.76171,https://clinicaltrials.gov/api/v2/studies,2024-02-12T10:13:18.643Z
65c9d320cd713395fbb530c9,NCT00988507,Sanofi-Aventis Investigational Site Number 834001,Tanzania,Korogwe,,-5.15,38.48333,https://clinicaltrials.gov/api/v2/studies,2024-02-12T10:13:18.643Z
65c9d320cd713395fbb530cb,NCT06084715,Centre Hospitalier et Universitaire de Pneumo-phtisiologie,Benin,Porto-Novo,,6.49646,2.60359,https://clinicaltrials.gov/api/v2/studies,2024-02-12T10:13:18.672Z
65c9d320cd713395fbb530cd,NCT06084715,National Tuberculosis Programme,Togo,Lomé,,6.13748,1.21227,https://clinicaltrials.gov/api/v2/studies,2024-02-12T10:13:18.672Z
65c9d320cd713395fbb530cf,NCT01432925,Buruli ulcer center Allada,Benin,Allada,,6.66547,2.15138,https://clinicaltrials.gov/api/v2/studies,2024-02-12T10:13:03.094Z
65c9d320cd713395fbb530d1,NCT01432925,Buruli ulcer center Lalo,Benin,Lalo,,6.92869,1.88994,https://clinicaltrials.gov/api/v2/studies,2024-02-12T10:13:03.094Z
65c9d320cd713395fbb530d3,NCT00274235,Institut de Recherche pour le Développement,Benin,Cotonou,01 BP 4414 RP,6.36536,2.41833,https://clinicaltrials.gov/api/v2/studies,2024-02-12T10:13:03.094Z
65c9d320cd713395fbb530d5,NCT03316495,Clement Chinedu Azodo,Nigeria,Benin City,Edo State 300001,6.33815,5.62575,https://clinicaltrials.gov/api/v2/studies,2024-02-12T10:13:08.152Z
65c9d320cd713395fbb530d7,NCT02979080,Hôpital de zone de Natitingou,Benin,Natitingou,Atacora,10.30416,1.37962,https://clinicaltrials.gov/api/v2/studies,2024-02-12T10:13:03.094Z
65c9d320cd713395fbb530d9,NCT02979080,Hôpital de zone d'Abomey-Calavi-Sô-Ava,Benin,Abomey-Calavi,Calavi,6.44852,2.35566,https://clinicaltrials.gov/api/v2/studies,2024-02-12T10:13:03.094Z
65c9d320cd713395fbb530db,NCT02083380,Centre D'Étude Et de Recherchesur Le Paludisme Associé À La Grossesse Et À L'Enfance (Cerpage) Cerpage,Benin,Cotonou,FSS 01 BP 188,6.36536,2.41833,https://clinicaltrials.gov/api/v2/studies,2024-02-12T10:13:19.398Z
65c9d320cd713395fbb530dd,NCT02083380,"Centre National de Recherche et de Formation sur le paludisme (CNRFP) Ouagadougou, Kadiogo",Burkina Faso,Ouagadougou,,12.36566,-1.53388,https://clinicaltrials.gov/api/v2/studies,2024-02-12T10:13:19.398Z
65c9d320cd713395fbb530df,NCT02083380,"Clinical research Unit of Nanoro (CRUN)/CMA Saint Camille de Nanoro, 11 BP 218 Ouagadougou CMS 11",Burkina Faso,Ouagadougou,,12.36566,-1.53388,https://clinicaltrials.gov/api/v2/studies,2024-02-12T10:13:19.398Z
65c9d320cd713395fbb530e1,NCT02083380,"Centre de Recherches Medicales de Lambarene, Albert Schweitzer Hospital",Gabon,Lambarene,,-0.7001,10.24055,https://clinicaltrials.gov/api/v2/studies,2024-02-12T10:13:19.398Z
65c9d320cd713395fbb530e3,NCT02083380,"arielle K. Bouyou-Akotet, Department of Parasitology-Mycology and Tropical Medicine, Faculty of Medicine, Université des Sciences de la Santé, BP 4009, Libreville, Gabon",Gabon,Libreville,,0.39241,9.45356,https://clinicaltrials.gov/api/v2/studies,2024-02-12T10:13:19.398Z
65c9d320cd713395fbb530e5,NCT02083380,"MANHIÇA HEALTH RESEARCH CENTER, Rua 12, Vila da Manhica, Maputa,",Mozambique,Chefe Maputa,,-13.41944,39.84611,https://clinicaltrials.gov/api/v2/studies,2024-02-12T10:13:19.398Z
65c9d320cd713395fbb530e7,NCT02083380,Tororo District Hospital,Uganda,Tororo,,0.69299,34.18085,https://clinicaltrials.gov/api/v2/studies,2024-02-12T10:13:19.398Z
65c9d320cd713395fbb530e9,NCT00460369,Centre de santé,Benin,Allada,,6.66547,2.15138,https://clinicaltrials.gov/api/v2/studies,2024-02-12T10:13:03.094Z
65c9d320cd713395fbb530eb,NCT05714865,Federal Medical Center Asaba,Nigeria,Asaba,Delta State 11111,6.19824,6.73187,https://clinicaltrials.gov/api/v2/studies,2024-02-12T10:13:08.152Z
65c9d320cd713395fbb530ed,NCT05714865,University of Benin Teaching Hospital,Nigeria,Benin City,Edo State 11111,6.33815,5.62575,https://clinicaltrials.gov/api/v2/studies,2024-02-12T10:13:08.152Z
65c9d320cd713395fbb530ef,NCT05714865,National Hospital Abuja,Nigeria,Garki,FCT Abuja 11111,,,https://clinicaltrials.gov/api/v2/studies,2024-02-12T10:13:08.152Z
65c9d320cd713395fbb530f1,NCT05714865,Aminu Kano Teaching Hospital,Nigeria,Zaria,Kano 11111,11.11128,7.7227,https://clinicaltrials.gov/api/v2/studies,2024-02-12T10:13:08.152Z
65c9d320cd713395fbb530f3,NCT05714865,Lagos University Teaching Hospital.,Nigeria,Idi-Araba,Lagos 11111,6.52028,3.35382,https://clinicaltrials.gov/api/v2/studies,2024-02-12T10:13:08.152Z
65c9d320cd713395fbb530f5,NCT05714865,University of Nigeria Teaching Hospital,Nigeria,Enugu,11111,6.44132,7.49883,https://clinicaltrials.gov/api/v2/studies,2024-02-12T10:13:08.152Z
65c9d320cd713395fbb530f7,NCT01329588,Dispensaire des infections sexuellement transmissibles,Benin,Cotonou,,6.36536,2.41833,https://clinicaltrials.gov/api/v2/studies,2024-02-12T10:13:03.094Z
65c9d320cd713395fbb530f9,NCT01941264,Centre de Recherches Entomologiques de Cotonou (CREC),Benin,Cotonou,,6.36536,2.41833,https://clinicaltrials.gov/api/v2/studies,2024-02-12T10:13:06.470Z
65c9d320cd713395fbb530fb,NCT01941264,"Clinical Research Unit of Nanoro URCN/CMA, Centre Muraz (CM)",Burkina Faso,Nanoro,,12.68662,-2.19375,https://clinicaltrials.gov/api/v2/studies,2024-02-12T10:13:06.470Z
65c9d320cd713395fbb530fd,NCT01941264,Medical Research Council (MRC),Gambia,Fajara,,13.47,-16.69639,https://clinicaltrials.gov/api/v2/studies,2024-02-12T10:13:06.470Z
65c9d320cd713395fbb530ff,NCT00811421,"Faculté des Sciences de la Santé (FSS), Université d'Abomey Calavi",Benin,Allada,,6.66547,2.15138,https://clinicaltrials.gov/api/v2/studies,2024-02-12T10:13:18.644Z
65c9d320cd713395fbb53101,NCT00811421,"Medical Rsearch Unit (MRU), Albert Schweitzer Hospital",Gabon,Lambaréné,,-0.7001,10.24055,https://clinicaltrials.gov/api/v2/studies,2024-02-12T10:13:18.644Z
65c9d320cd713395fbb53103,NCT00811421,Kenya Medical Research Institute (KEMRI)/ CDC,Kenya,Kisumu,,-0.10221,34.76171,https://clinicaltrials.gov/api/v2/studies,2024-02-12T10:13:18.644Z
65c9d320cd713395fbb53105,NCT00811421,Centro de Investigaçao em Saúde da Manhiça (CISM),Mozambique,Manhiça,Maputo,,,https://clinicaltrials.gov/api/v2/studies,2024-02-12T10:13:18.644Z
65c9d320cd713395fbb53107,NCT00811421,Ifakara Health Institute (IHI),Tanzania,Dodoma,,-6.17221,35.73947,https://clinicaltrials.gov/api/v2/studies,2024-02-12T10:13:18.644Z
65c9d320cd713395fbb53109,NCT01445938,Investigational Site Number 204001,Benin,Cotonou,,6.36536,2.41833,https://clinicaltrials.gov/api/v2/studies,2024-02-12T10:13:07.178Z
65c9d320cd713395fbb5310b,NCT01445938,Investigational Site Number 854001,Burkina Faso,Ouagadougou,,12.36566,-1.53388,https://clinicaltrials.gov/api/v2/studies,2024-02-12T10:13:07.178Z
65c9d320cd713395fbb5310d,NCT01445938,Investigational Site Number 266001,Gabon,Libreville,,0.39241,9.45356,https://clinicaltrials.gov/api/v2/studies,2024-02-12T10:13:07.178Z
65c9d320cd713395fbb5310f,NCT01445938,Investigational Site Number 404001,Kenya,Kisumu,,-0.10221,34.76171,https://clinicaltrials.gov/api/v2/studies,2024-02-12T10:13:07.178Z
65c9d320cd713395fbb53111,NCT03931473,Manfred Accrombessi,Benin,Cove,,7.22097,2.34017,https://clinicaltrials.gov/api/v2/studies,2024-02-12T10:13:03.094Z
65c9d320cd713395fbb53113,NCT06179173,University Hospital of Parakou,Benin,Parakou,,9.33716,2.63031,https://clinicaltrials.gov/api/v2/studies,2024-02-12T10:13:03.094Z
65c9d320cd713395fbb53115,NCT02497612,Investigational Site Number 204001,Benin,Cotonou,,6.36536,2.41833,https://clinicaltrials.gov/api/v2/studies,2024-02-12T10:13:19.400Z
65c9d320cd713395fbb53117,NCT02497612,Investigational Site Number 854002,Burkina Faso,Comoé,,,,https://clinicaltrials.gov/api/v2/studies,2024-02-12T10:13:19.400Z
65c9d320cd713395fbb53119,NCT02497612,Investigational Site Number 854003,Burkina Faso,Niangoloko,,10.28333,-4.91667,https://clinicaltrials.gov/api/v2/studies,2024-02-12T10:13:19.400Z
65c9d320cd713395fbb5311b,NCT02497612,Investigational Site Number 854001,Burkina Faso,Ouagadougou,,12.36566,-1.53388,https://clinicaltrials.gov/api/v2/studies,2024-02-12T10:13:19.400Z
65c9d320cd713395fbb5311d,NCT02497612,Investigational Site Number 266002,Gabon,Lambaréné,,-0.7001,10.24055,https://clinicaltrials.gov/api/v2/studies,2024-02-12T10:13:19.400Z
65c9d320cd713395fbb5311f,NCT02497612,Investigational Site Number 266001,Gabon,Libreville,,0.39241,9.45356,https://clinicaltrials.gov/api/v2/studies,2024-02-12T10:13:19.400Z
65c9d320cd713395fbb53121,NCT02497612,Investigational Site Number 404003,Kenya,Kisumu,,-0.10221,34.76171,https://clinicaltrials.gov/api/v2/studies,2024-02-12T10:13:19.400Z
65c9d320cd713395fbb53123,NCT02497612,Investigational Site Number 404002,Kenya,Siaya,,0.06116,34.28823,https://clinicaltrials.gov/api/v2/studies,2024-02-12T10:13:19.400Z
65c9d320cd713395fbb53125,NCT02497612,Investigational Site Number 508001,Mozambique,Chokwé,,-24.53333,32.98333,https://clinicaltrials.gov/api/v2/studies,2024-02-12T10:13:19.400Z
65c9d320cd713395fbb53127,NCT02497612,Investigational Site Number 800002,Uganda,Tororo,,0.69299,34.18085,https://clinicaltrials.gov/api/v2/studies,2024-02-12T10:13:19.400Z
65c9d320cd713395fbb53129,NCT05423847,CNHUPPC,Benin,Cotonou,Atlantic,6.36536,2.41833,https://clinicaltrials.gov/api/v2/studies,2024-02-12T10:13:17.889Z
65c9d320cd713395fbb5312b,NCT05423847,CHU point G,Mali,Bamako,,12.65,-8,https://clinicaltrials.gov/api/v2/studies,2024-02-12T10:13:17.889Z
65c9d320cd713395fbb5312d,NCT05423847,Wits Rural University,South Africa,Acornhoek,,-24.5878,31.09467,https://clinicaltrials.gov/api/v2/studies,2024-02-12T10:13:17.889Z
65c9d320cd713395fbb5312f,NCT02647489,Institut de Recherche Clinique du Benin (IRCB),Benin,Abomey-Calavi,,6.44852,2.35566,https://clinicaltrials.gov/api/v2/studies,2024-02-12T10:13:03.094Z
65c9d320cd713395fbb53131,NCT01790321,Kotopounga primary school,Benin,Natitingou,Atacora,10.30416,1.37962,https://clinicaltrials.gov/api/v2/studies,2024-02-12T10:13:03.094Z
65c9d320cd713395fbb53133,NCT00386763,Novartis,Tanzania,Tanzania,,,,https://clinicaltrials.gov/api/v2/studies,2024-02-12T10:13:18.645Z
65c9d320cd713395fbb53139,NCT02482116,"Health Services Department, University of Benin",Nigeria,Benin City,Edo State,6.33815,5.62575,https://clinicaltrials.gov/api/v2/studies,2024-02-12T10:13:08.153Z
65c9d320cd713395fbb5313b,NCT00479947,FaithMediplex,Nigeria,Benin,Edo,,,https://clinicaltrials.gov/api/v2/studies,2024-02-12T10:13:08.153Z
65c9d320cd713395fbb5313d,NCT03316755,UBenin,Nigeria,Benin City,Edo State 300001,6.33815,5.62575,https://clinicaltrials.gov/api/v2/studies,2024-02-12T10:13:08.153Z
65c9d320cd713395fbb5313f,NCT05650502,Azizath MOUSSILIOU,Benin,Parakou,,9.33716,2.63031,https://clinicaltrials.gov/api/v2/studies,2024-02-12T10:13:03.094Z
65c9d320cd713395fbb53158,NCT01321099,University of Abomey-Calavi,Benin,Cotonou,562,6.36536,2.41833,https://clinicaltrials.gov/api/v2/studies,2024-02-12T10:13:03.094Z
65c9d320cd713395fbb5315a,NCT00153777,Projet SIDA3,Benin,Cotonou,,6.36536,2.41833,https://clinicaltrials.gov/api/v2/studies,2024-02-12T10:13:19.401Z
65c9d320cd713395fbb5315c,NCT00153777,Medical Research Council,South Africa,Durban,,-29.8579,31.0292,https://clinicaltrials.gov/api/v2/studies,2024-02-12T10:13:19.401Z
65c9d320cd713395fbb5315e,NCT00153777,Makarere University - Mulago Hospital,Uganda,Kampala,,0.31628,32.58219,https://clinicaltrials.gov/api/v2/studies,2024-02-12T10:13:19.401Z
65c9d320cd713395fbb53160,NCT05169554,"Centre de Dépistage et de Traitement de l'Ulcère de Buruli (CDTUB) (Centers for Detection and Treatment of Buruli ulcer), Allada",Benin,Allada,,6.66547,2.15138,https://clinicaltrials.gov/api/v2/studies,2024-02-12T10:13:03.094Z
65c9d320cd713395fbb53162,NCT05169554,"Centre de Dépistage et de Traitement de l'Ulcère de Buruli (CDTUB) (Centers for Detection and Treatment of Buruli ulcer), Lalo",Benin,Lalo,,6.92869,1.88994,https://clinicaltrials.gov/api/v2/studies,2024-02-12T10:13:03.094Z
65c9d320cd713395fbb53164,NCT05169554,"Centre de Dépistage et de Traitement de l'Ulcère de Buruli (CDTUB) (Centers for Detection and Treatment of Buruli ulcer), Pobè",Benin,Pobè,,6.98008,2.6649,https://clinicaltrials.gov/api/v2/studies,2024-02-12T10:13:03.094Z
65c9d320cd713395fbb53166,NCT00913146,Centre de Santé de Commune,Benin,Allada,,6.66547,2.15138,https://clinicaltrials.gov/api/v2/studies,2024-02-12T10:13:03.094Z
65c9d320cd713395fbb53168,NCT01634932,Hopital du Zone de Natitingou,Benin,Natitingou,Atacora,10.30416,1.37962,https://clinicaltrials.gov/api/v2/studies,2024-02-12T10:13:03.094Z
65c9d320cd713395fbb5316a,NCT01443832,Department Nutrition and Food Science/Univsersity of Abomey calavi,Benin,Cotonou,Littoral 011025,6.36536,2.41833,https://clinicaltrials.gov/api/v2/studies,2024-02-12T10:13:03.094Z
65c9d320cd713395fbb5316c,NCT02810678,Centre de Pneumo-Phthysiologie,Benin,Cotonou,,6.36536,2.41833,https://clinicaltrials.gov/api/v2/studies,2024-02-12T10:13:06.619Z
65c9d320cd713395fbb5316e,NCT02810678,Komfo Anokye Teaching Hospital (KATH),Ghana,Kumasi,,6.68848,-1.62443,https://clinicaltrials.gov/api/v2/studies,2024-02-12T10:13:06.619Z
65c9d320cd713395fbb53170,NCT05722184,Hôpital Saint Jean de Dieu de Boko,Benin,Boko,,9.49147,2.61655,https://clinicaltrials.gov/api/v2/studies,2024-02-12T10:13:03.094Z
65c9d320cd713395fbb53172,NCT05722184,Centre National Hospitalier et Universitaire Hubert Koutoukou MAGA,Benin,Cotonou,,6.36536,2.41833,https://clinicaltrials.gov/api/v2/studies,2024-02-12T10:13:03.094Z
65c9d320cd713395fbb53174,NCT00931736,Centre de Pneumophthysiologie,Benin,Cotonou,,6.36536,2.41833,https://clinicaltrials.gov/api/v2/studies,2024-02-12T10:13:06.709Z
65c9d320cd713395fbb53176,NCT00931736,"Research and Development Unit, Komfo Anokye Teaching Hospital",Ghana,Kumasi,,6.68848,-1.62443,https://clinicaltrials.gov/api/v2/studies,2024-02-12T10:13:06.709Z
65c9d320cd713395fbb53178,NCT00931736,"Service de Phtisiologie, Hopital National Ignace Deen",Guinea,Conakry,,9.53795,-13.67729,https://clinicaltrials.gov/api/v2/studies,2024-02-12T10:13:06.709Z
65c9d320cd713395fbb5317a,NCT01619878,Novartis Investigative Site,Burkina Faso,Burkina Faso,2208,,,https://clinicaltrials.gov/api/v2/studies,2024-02-12T10:13:18.672Z
65c9d320cd713395fbb5317c,NCT01619878,Novartis investigative site,Togo,Lome,,6.13748,1.21227,https://clinicaltrials.gov/api/v2/studies,2024-02-12T10:13:18.672Z
65c9d320cd713395fbb53183,NCT04528823,Centre National Hospitalier Universitaire de Pneumo Phtisiologie de Cotonou (CNHU-PPC),Benin,Cotonou,,6.36536,2.41833,https://clinicaltrials.gov/api/v2/studies,2024-02-12T10:13:03.094Z
65c9d320cd713395fbb53185,NCT01103713,Centre de Sante d'AHOUANSORI -AGUE,Benin,Cotonou,,6.36536,2.41833,https://clinicaltrials.gov/api/v2/studies,2024-02-12T10:13:19.402Z
65c9d320cd713395fbb53187,NCT01103713,Hôpital Bethesda,Benin,Cotonou,,6.36536,2.41833,https://clinicaltrials.gov/api/v2/studies,2024-02-12T10:13:19.402Z
65c9d320cd713395fbb53189,NCT01103713,Siaya District Hospital,Kenya,Siaya,,0.06116,34.28823,https://clinicaltrials.gov/api/v2/studies,2024-02-12T10:13:19.402Z
65c9d320cd713395fbb5318b,NCT01103713,Zomba Central Hospital,Malawi,Zomba,,-15.38596,35.3188,https://clinicaltrials.gov/api/v2/studies,2024-02-12T10:13:19.402Z
65c9d320cd713395fbb5318d,NCT01103713,Teule Hospital,Tanzania,Muheza,Tanga,-5.16667,38.78333,https://clinicaltrials.gov/api/v2/studies,2024-02-12T10:13:19.402Z
65c9d320cd713395fbb5318f,NCT01103713,National Institute for Medical Research (Mwanza Centre)/ Nyamagana District Hospital,Tanzania,Mwanza,1903,-2.51667,32.9,https://clinicaltrials.gov/api/v2/studies,2024-02-12T10:13:19.402Z
65c9d320cd713395fbb53191,NCT01103713,Mulanda Health Centre IV,Uganda,Kampala,,0.31628,32.58219,https://clinicaltrials.gov/api/v2/studies,2024-02-12T10:13:19.402Z
65c9d320cd713395fbb53193,NCT01472211,Hopital de Zone,Benin,Natitingou,Atacora,10.30416,1.37962,https://clinicaltrials.gov/api/v2/studies,2024-02-12T10:13:03.094Z
65c9d320cd713395fbb53195,NCT02744469,Centre de Diagnostic et de Traitement de la Tuberculose de Djougou,Benin,Djougou,Atacora/Donga,9.70853,1.66598,https://clinicaltrials.gov/api/v2/studies,2024-02-12T10:13:03.094Z
65c9d320cd713395fbb53197,NCT02744469,Centre de Diagnostic et de Traitement de la Tuberculose de Matéri,Benin,Matéri,Atacora/Donga,10.69623,1.06307,https://clinicaltrials.gov/api/v2/studies,2024-02-12T10:13:03.094Z
65c9d320cd713395fbb53199,NCT02744469,Centre de Diagnostic et de Traitement de la Tuberculose de Natitingou,Benin,Natitingou,Atacora/Donga,10.30416,1.37962,https://clinicaltrials.gov/api/v2/studies,2024-02-12T10:13:03.094Z
65c9d320cd713395fbb5319b,NCT02744469,Centre de Diagnostic et de Traitement de la Tuberculose de Tanguiéta,Benin,Tanguiéta,Atacora/Donga,10.62118,1.26651,https://clinicaltrials.gov/api/v2/studies,2024-02-12T10:13:03.094Z
65c9d320cd713395fbb5319d,NCT02744469,Centre de Diagnostic et de Traitement de la tuberculose d'Abomey-Calavi,Benin,Abomey-Calavi,Atlantique/Littoral,6.44852,2.35566,https://clinicaltrials.gov/api/v2/studies,2024-02-12T10:13:03.094Z
65c9d320cd713395fbb5319f,NCT02744469,Centre de Diagnostic et de Traitement de la Tuberculose d'Allada,Benin,Allada,Atlantique/Littoral,6.66547,2.15138,https://clinicaltrials.gov/api/v2/studies,2024-02-12T10:13:03.094Z
65c9d320cd713395fbb531a1,NCT02744469,Centre National Hospitalier Universitaire de Pneumo-Phtisiologie de Cotonou,Benin,Cotonou,Atlantique/Littoral 01BP321,6.36536,2.41833,https://clinicaltrials.gov/api/v2/studies,2024-02-12T10:13:03.094Z
65c9d320cd713395fbb531a3,NCT02744469,Centre de Diagnostic et de Traitement de la Tuberculose de Ouidah,Benin,Ouidah,Atlantique/Littoral,6.36307,2.08506,https://clinicaltrials.gov/api/v2/studies,2024-02-12T10:13:03.094Z
65c9d320cd713395fbb531a5,NCT02744469,Centre de Diagnostic et de Traitement de la Tuberculose de Bembèrèkè HE,Benin,Bembèrèkè,Borgou/Alibori,10.22827,2.66335,https://clinicaltrials.gov/api/v2/studies,2024-02-12T10:13:03.094Z
65c9d320cd713395fbb531a7,NCT02744469,Centre de Diagnostic et de Traitement de la Tuberculose de Kandi,Benin,Kandi,Borgou/Alibori,11.13417,2.93861,https://clinicaltrials.gov/api/v2/studies,2024-02-12T10:13:03.094Z
65c9d320cd713395fbb531a9,NCT02744469,Centre de Diagnostic et de Traitement de la Tuberculose de Nikki Hopital Sounou-Séro,Benin,Nikki,Borgou/Alibori,9.94009,3.21075,https://clinicaltrials.gov/api/v2/studies,2024-02-12T10:13:03.094Z
65c9d320cd713395fbb531ab,NCT02744469,Centre de Diagnostic et de Traitement de la Tuberculose de Parakou CSCom,Benin,Parakou,Borgou/Alibori,9.33716,2.63031,https://clinicaltrials.gov/api/v2/studies,2024-02-12T10:13:03.094Z
65c9d320cd713395fbb531ad,NCT02744469,Laboratoire de Référence des Mycobactéries,Benin,Cotonou,Littoral 01BP321,6.36536,2.41833,https://clinicaltrials.gov/api/v2/studies,2024-02-12T10:13:03.094Z
65c9d320cd713395fbb531af,NCT02744469,Centre de Diagnostic et de Traitement de la Tuberculose d'Aplahoué,Benin,Aplahoué,Mono/Couffo,6.93333,1.68333,https://clinicaltrials.gov/api/v2/studies,2024-02-12T10:13:03.094Z
65c9d320cd713395fbb531b1,NCT02744469,Centre de Diagnostic et de Traitement de la Tuberculose de Bopa,Benin,Bopa,Mono/Couffo,6.5874,1.96539,https://clinicaltrials.gov/api/v2/studies,2024-02-12T10:13:03.094Z
65c9d320cd713395fbb531b3,NCT02744469,Centre de Diagnostic et de Traitement de la Tuberculose de Comè,Benin,Comè,Mono/Couffo,6.40764,1.88198,https://clinicaltrials.gov/api/v2/studies,2024-02-12T10:13:03.094Z
65c9d320cd713395fbb531b5,NCT02744469,Centre de Diagnostic et de Traitement de la Tuberculose de Houéyogbé,Benin,Houéyogbé,Mono/Couffo,,,https://clinicaltrials.gov/api/v2/studies,2024-02-12T10:13:03.094Z
65c9d320cd713395fbb531b7,NCT02744469,Centre de Diagnostic et de Traitement de la Tuberculose de Avrankou,Benin,Avrankou,Oueme/Plateau,6.55591,2.65123,https://clinicaltrials.gov/api/v2/studies,2024-02-12T10:13:03.094Z
65c9d320cd713395fbb531b9,NCT02744469,Centre de Diagnostic et de Traitement de la Tuberculose de Pobè,Benin,Pobe,Oueme/Plateau,6.98008,2.6649,https://clinicaltrials.gov/api/v2/studies,2024-02-12T10:13:03.094Z
65c9d320cd713395fbb531bb,NCT02744469,Centre de Pneumo-Phtisiologie d'Akron,Benin,Porto-Novo,Oueme/Plateau,6.49646,2.60359,https://clinicaltrials.gov/api/v2/studies,2024-02-12T10:13:03.094Z
65c9d320cd713395fbb531bd,NCT02744469,Centre de Diagnostic et de Traitement de la Tuberculose de Sakété,Benin,Sakété,Oueme/Plateau,6.73618,2.65866,https://clinicaltrials.gov/api/v2/studies,2024-02-12T10:13:03.094Z
65c9d320cd713395fbb531bf,NCT02744469,Centre de Diagnostic et de Traitement de la Tuberculose d'Abomey,Benin,Abomey,Zou/Collines,7.18286,1.99119,https://clinicaltrials.gov/api/v2/studies,2024-02-12T10:13:03.094Z
65c9d320cd713395fbb531c1,NCT02744469,Centre de Diagnostic et de Traitement de la Tuberculose de Bohicon,Benin,Bohicon,Zou/Collines,7.17826,2.0667,https://clinicaltrials.gov/api/v2/studies,2024-02-12T10:13:03.094Z
65c9d320cd713395fbb531c3,NCT02744469,Centre de Diagnostic et de Traitement de la Tuberculose de Dassa-Zoumè,Benin,Dassa-Zoumè,Zou/Collines,7.75,2.18333,https://clinicaltrials.gov/api/v2/studies,2024-02-12T10:13:03.094Z
65c9d320cd713395fbb531c5,NCT02744469,Centre de Diagnostic et de Traitement de la Tuberculose de Zagnanado,Benin,Zagnanado,Zou/Collines,7.22097,2.38335,https://clinicaltrials.gov/api/v2/studies,2024-02-12T10:13:03.094Z
65c9d320cd713395fbb531c7,NCT03324009,Princess Marina Hospital,Botswana,Gaborone,,-24.65451,25.90859,https://clinicaltrials.gov/api/v2/studies,2024-02-12T10:13:03.303Z
65c9d320cd713395fbb531c9,NCT04141449,Botswana Harvard AIDS Institute,Botswana,Gaborone,,-24.65451,25.90859,https://clinicaltrials.gov/api/v2/studies,2024-02-12T10:13:03.303Z
65c9d320cd713395fbb531cb,NCT00840905,Shahin Lockman,Botswana,Habarone,,,,https://clinicaltrials.gov/api/v2/studies,2024-02-12T10:13:17.772Z
65c9d320cd713395fbb531cd,NCT00840905,University of Witwatersrand/Helen Joseph Hospital,South Africa,Johannesburg,,-26.20227,28.04363,https://clinicaltrials.gov/api/v2/studies,2024-02-12T10:13:17.772Z
65c9d320cd713395fbb531cf,NCT00089505,The Gaborone BHP Study Clinic,Botswana,Bontleng,Gaborone,-24.67194,25.91444,https://clinicaltrials.gov/api/v2/studies,2024-02-12T10:13:19.838Z
65c9d320cd713395fbb531d1,NCT00089505,"Molepolole BHP Study Clinic, Scottish Livingstone Hospital",Botswana,Bontleng Gaborone,,,,https://clinicaltrials.gov/api/v2/studies,2024-02-12T10:13:19.838Z
65c9d320cd713395fbb531d3,NCT00089505,Moi University International Clnical Trials Unit,Kenya,Eldoret,30100,0.52036,35.26993,https://clinicaltrials.gov/api/v2/studies,2024-02-12T10:13:19.838Z
65c9d320cd713395fbb531d5,NCT00089505,KMRI / Walter Reed Project Clinical Research Center,Kenya,Kericho,,-0.36774,35.28314,https://clinicaltrials.gov/api/v2/studies,2024-02-12T10:13:19.838Z
65c9d320cd713395fbb531d7,NCT00089505,University of North Carolina Project (UNC Project),Malawi,Lilongwe,(265) 175-5056,-13.96692,33.78725,https://clinicaltrials.gov/api/v2/studies,2024-02-12T10:13:19.838Z
65c9d320cd713395fbb531d9,NCT00089505,University of KwaZulu Natal,South Africa,Durban,KZN 4013,-29.8579,31.0292,https://clinicaltrials.gov/api/v2/studies,2024-02-12T10:13:19.838Z
65c9d320cd713395fbb531db,NCT00089505,"Chris Hani Baragwanath Hospital, Johannesburg",South Africa,Johannesburg,,-26.20227,28.04363,https://clinicaltrials.gov/api/v2/studies,2024-02-12T10:13:19.838Z
65c9d320cd713395fbb531dd,NCT00089505,University of Witwatersrand,South Africa,Johannesburg,,-26.20227,28.04363,https://clinicaltrials.gov/api/v2/studies,2024-02-12T10:13:19.838Z
65c9d320cd713395fbb531df,NCT00089505,Joint Clinical Research Centre (JCRC),Uganda,Kampala,,0.31628,32.58219,https://clinicaltrials.gov/api/v2/studies,2024-02-12T10:13:19.838Z
65c9d320cd713395fbb531e1,NCT00089505,Centre for Infectious Disease Research in Zambia (CIDRZ),Zambia,Lusaka,,-15.40669,28.28713,https://clinicaltrials.gov/api/v2/studies,2024-02-12T10:13:19.838Z
65c9d320cd713395fbb531e3,NCT00089505,University of Zimbabwe,Zimbabwe,Avondale,Harare,-17.79611,31.03472,https://clinicaltrials.gov/api/v2/studies,2024-02-12T10:13:19.838Z
65c9d320cd713395fbb531e5,NCT02538952,22 HIV care and Treatment clinics in Botswana,Botswana,Multiple Locations,Multiple,,,https://clinicaltrials.gov/api/v2/studies,2024-02-12T10:13:03.303Z
65c9d320cd713395fbb531e7,NCT00955968,Gaborone Prevention/Treatment Clinical Research Site (12701),Botswana,Gaborone,,-24.65451,25.90859,https://clinicaltrials.gov/api/v2/studies,2024-02-12T10:13:03.303Z
65c9d320cd713395fbb531e9,NCT00955968,Molepolole Prevention/Treatment Clinical Research Site (12702),Botswana,Gaborone,,-24.65451,25.90859,https://clinicaltrials.gov/api/v2/studies,2024-02-12T10:13:03.303Z
65c9d320cd713395fbb531eb,NCT02581527,University of Botswana,Botswana,Gaborone,,-24.65451,25.90859,https://clinicaltrials.gov/api/v2/studies,2024-02-12T10:13:19.395Z
65c9d320cd713395fbb531ed,NCT02581527,Hopital National Ignace Deen,Guinea,Conakry,,9.53795,-13.67729,https://clinicaltrials.gov/api/v2/studies,2024-02-12T10:13:19.395Z
65c9d320cd713395fbb531ef,NCT02581527,Epicentre,Uganda,Mbarara,,-0.60467,30.64851,https://clinicaltrials.gov/api/v2/studies,2024-02-12T10:13:19.395Z
65c9d320cd713395fbb531f1,NCT00865826,Gaborone Prevention/Treatment Trials CRS,Botswana,Gaborone,,-24.65451,25.90859,https://clinicaltrials.gov/api/v2/studies,2024-02-12T10:13:19.838Z
65c9d320cd713395fbb531f3,NCT00865826,Molepolole Prevention/Treatment Trials CRS (Molepolole PTT CRS),Botswana,Molepolole,,-24.40659,25.49508,https://clinicaltrials.gov/api/v2/studies,2024-02-12T10:13:19.838Z
65c9d320cd713395fbb531f5,NCT00865826,University of North Carolina Lilongwe CRS,Malawi,Lilongwe,,-13.96692,33.78725,https://clinicaltrials.gov/api/v2/studies,2024-02-12T10:13:19.838Z
65c9d320cd713395fbb531f7,NCT00865826,Soweto ACTG CRS,South Africa,Johannesburg,Gauteng 1864,-26.20227,28.04363,https://clinicaltrials.gov/api/v2/studies,2024-02-12T10:13:19.838Z
65c9d320cd713395fbb531f9,NCT00865826,Wits HIV CRS,South Africa,Johannesburg,Gauteng,-26.20227,28.04363,https://clinicaltrials.gov/api/v2/studies,2024-02-12T10:13:19.838Z
65c9d320cd713395fbb531fb,NCT00865826,CAPRISA eThekwini CRS,South Africa,Durban,KwaZulu-Natal 4011,-29.8579,31.0292,https://clinicaltrials.gov/api/v2/studies,2024-02-12T10:13:19.838Z
65c9d320cd713395fbb531fd,NCT00865826,Durban Adult HIV CRS,South Africa,Durban,KwaZulu-Natal,-29.8579,31.0292,https://clinicaltrials.gov/api/v2/studies,2024-02-12T10:13:19.838Z
65c9d320cd713395fbb531ff,NCT00865826,UZ-Parirenyatwa CRS (30313),Zimbabwe,Harare,,-17.82772,31.05337,https://clinicaltrials.gov/api/v2/studies,2024-02-12T10:13:19.838Z
65c9d320cd713395fbb53201,NCT05482217,Baylor children's clinical center of excellence,Botswana,Gaborone,,-24.65451,25.90859,https://clinicaltrials.gov/api/v2/studies,2024-02-12T10:13:03.303Z
65c9d320cd713395fbb53203,NCT02025452,Princess Marina Hospital,Botswana,Gaborone,,-24.65451,25.90859,https://clinicaltrials.gov/api/v2/studies,2024-02-12T10:13:03.303Z
65c9d320cd713395fbb53205,NCT02025452,Scottish Livingstone Hospital,Botswana,Molepolole,,-24.40659,25.49508,https://clinicaltrials.gov/api/v2/studies,2024-02-12T10:13:03.303Z
65c9d320cd713395fbb53207,NCT02025452,Bamalete Lutheran Hospital,Botswana,Ramotswa,,-24.87158,25.86989,https://clinicaltrials.gov/api/v2/studies,2024-02-12T10:13:03.303Z
65c9d320cd713395fbb53209,NCT04902768,Princess Marina Hospital,Botswana,Gaborone,,-24.65451,25.90859,https://clinicaltrials.gov/api/v2/studies,2024-02-12T10:13:08.305Z
65c9d320cd713395fbb5320b,NCT04902768,Clinique Medical Le Jourdain,Cameroon,Yaoundé,,3.86667,11.51667,https://clinicaltrials.gov/api/v2/studies,2024-02-12T10:13:08.305Z
65c9d320cd713395fbb5320d,NCT04902768,"College of Health sciences, Addis Ababa University",Ethiopia,Addis Ababa,,9.02497,38.74689,https://clinicaltrials.gov/api/v2/studies,2024-02-12T10:13:08.305Z
65c9d320cd713395fbb5320f,NCT04902768,Centre Hospitalier Régional de Thiès,Senegal,Thiès,,,,https://clinicaltrials.gov/api/v2/studies,2024-02-12T10:13:08.305Z
65c9d320cd713395fbb53211,NCT01583439,Deborah Retief Memorial Hospital,Botswana,Mochudi,,-24.41667,26.15,https://clinicaltrials.gov/api/v2/studies,2024-02-12T10:13:03.303Z
65c9d320cd713395fbb53213,NCT00665639,,South Africa,Somerset West,,-34.08401,18.82113,https://clinicaltrials.gov/api/v2/studies,2024-02-12T10:13:17.785Z
65c9d320cd713395fbb53218,NCT00665639,2 Sites,South Africa,Port Elizabeth,,-33.91799,25.57007,https://clinicaltrials.gov/api/v2/studies,2024-02-12T10:13:17.785Z
65c9d320cd713395fbb53227,NCT05734391,Princess Marina Hospital,Botswana,Gaborone,267,-24.65451,25.90859,https://clinicaltrials.gov/api/v2/studies,2024-02-12T10:13:03.303Z
65c9d320cd713395fbb53229,NCT00197691,Princess Marina Hospital,Botswana,Gaborone,,-24.65451,25.90859,https://clinicaltrials.gov/api/v2/studies,2024-02-12T10:13:03.303Z
65c9d320cd713395fbb5322b,NCT01289171,Princess Marina Hospital,Botswana,Gaborone,,-24.65451,25.90859,https://clinicaltrials.gov/api/v2/studies,2024-02-12T10:13:03.303Z
65c9d320cd713395fbb5322d,NCT04955717,DHMT Clinics,Botswana,Gaborone,,-24.65451,25.90859,https://clinicaltrials.gov/api/v2/studies,2024-02-12T10:13:03.303Z
65c9d320cd713395fbb5322f,NCT05414526,Phitsane-Molopo IDCC Clinic,Botswana,Pitsane,,-24.98275,25.45997,https://clinicaltrials.gov/api/v2/studies,2024-02-12T10:13:03.303Z
65c9d320cd713395fbb53231,NCT05414526,Tonota IDCC Clinic,Botswana,Tonota,,-21.44236,27.46153,https://clinicaltrials.gov/api/v2/studies,2024-02-12T10:13:03.303Z
65c9d320cd713395fbb53233,NCT05393193,Botswana Harvard HIV/AIDS Institute Partnership,Botswana,Gaborone,,-24.65451,25.90859,https://clinicaltrials.gov/api/v2/studies,2024-02-12T10:13:03.303Z
65c9d320cd713395fbb53235,NCT00197652,Princess Marina Hospital,Botswana,Gaborone,,-24.65451,25.90859,https://clinicaltrials.gov/api/v2/studies,2024-02-12T10:13:03.303Z
65c9d320cd713395fbb53237,NCT02803827,Princess Marina Hospital,Botswana,Gaborone,,-24.65451,25.90859,https://clinicaltrials.gov/api/v2/studies,2024-02-12T10:13:03.303Z
65c9d320cd713395fbb53239,NCT02803827,Deborah Retief Hospital,Botswana,Mochudi,,-24.41667,26.15,https://clinicaltrials.gov/api/v2/studies,2024-02-12T10:13:03.303Z
65c9d320cd713395fbb5323b,NCT02803827,Scottish Livingstone Hospital,Botswana,Molepolole,,-24.40659,25.49508,https://clinicaltrials.gov/api/v2/studies,2024-02-12T10:13:03.303Z
65c9d320cd713395fbb5323d,NCT02803827,Bamalete Lutheran Hospital,Botswana,Ramotswa,,-24.87158,25.86989,https://clinicaltrials.gov/api/v2/studies,2024-02-12T10:13:03.303Z
65c9d320cd713395fbb5323f,NCT02369406,Botswana Harvard HIV/AIDS Institute Partnership,Botswana,Gaborone,,-24.65451,25.90859,https://clinicaltrials.gov/api/v2/studies,2024-02-12T10:13:03.303Z
65c9d320cd713395fbb53241,NCT00111150,BOTUSA HIV Prevention Research Unit,Botswana,Francistown and Gaborone,,,,https://clinicaltrials.gov/api/v2/studies,2024-02-12T10:13:03.303Z
65c9d320cd713395fbb53243,NCT02568215,Gaborone CRS,Botswana,Gaborone,South-East District,-24.65451,25.90859,https://clinicaltrials.gov/api/v2/studies,2024-02-12T10:13:19.838Z
65c9d320cd713395fbb53245,NCT02568215,Kisumu Crs,Kenya,Kisumu,Nyanza 40100,-0.10221,34.76171,https://clinicaltrials.gov/api/v2/studies,2024-02-12T10:13:19.838Z
65c9d320cd713395fbb53247,NCT02568215,Blantyre CRS,Malawi,Blantyre,Southern Region,-15.78499,35.00854,https://clinicaltrials.gov/api/v2/studies,2024-02-12T10:13:19.838Z
65c9d320cd713395fbb53249,NCT02568215,Malawi CRS,Malawi,Lilongwe,,-13.96692,33.78725,https://clinicaltrials.gov/api/v2/studies,2024-02-12T10:13:19.838Z
65c9d320cd713395fbb5324b,NCT02568215,"Polana Canico Health Research and Training Center (CISPOC), National Institute of Health (INS) CRS",Mozambique,Maputo,,-25.96553,32.58322,https://clinicaltrials.gov/api/v2/studies,2024-02-12T10:13:19.838Z
65c9d320cd713395fbb5324d,NCT02568215,The Aurum Institute Tembisa Clinical Research Centre CRS,South Africa,Johannesburg,Gauteng 1632,-26.20227,28.04363,https://clinicaltrials.gov/api/v2/studies,2024-02-12T10:13:19.838Z
65c9d320cd713395fbb5324f,NCT02568215,Soweto HVTN CRS,South Africa,Johannesburg,Gauteng 1862,-26.20227,28.04363,https://clinicaltrials.gov/api/v2/studies,2024-02-12T10:13:19.838Z
65c9d320cd713395fbb53251,NCT02568215,Ward 21 CRS,South Africa,Johannesburg,Gauteng 2001,-26.20227,28.04363,https://clinicaltrials.gov/api/v2/studies,2024-02-12T10:13:19.838Z
65c9d320cd713395fbb53253,NCT02568215,Wits Reproductive Health and HIV Institute CRS (WRHI CRS),South Africa,Johannesburg,Gauteng 2038,-26.20227,28.04363,https://clinicaltrials.gov/api/v2/studies,2024-02-12T10:13:19.838Z
65c9d320cd713395fbb53255,NCT02568215,Synexus Stanza Clinical Research Centre CRS,South Africa,Pretoria,Gauteng 0122,-25.74486,28.18783,https://clinicaltrials.gov/api/v2/studies,2024-02-12T10:13:19.838Z
65c9d320cd713395fbb53257,NCT02568215,Botha's Hill CRS,South Africa,Durban,Kwa Zulu Natal 3660,-29.8579,31.0292,https://clinicaltrials.gov/api/v2/studies,2024-02-12T10:13:19.838Z
65c9d320cd713395fbb53259,NCT02568215,Chatsworth CRS,South Africa,Chatsworth,KwaZulu-Natal 4030,-33.54778,18.58201,https://clinicaltrials.gov/api/v2/studies,2024-02-12T10:13:19.838Z
65c9d320cd713395fbb5325b,NCT02568215,CAPRISA eThekwini CRS,South Africa,Durban,KwaZulu-Natal 4013,-29.8579,31.0292,https://clinicaltrials.gov/api/v2/studies,2024-02-12T10:13:19.838Z
65c9d320cd713395fbb5325d,NCT02568215,Vulindlela CRS,South Africa,Durban,KwaZulu-Natal 4013,-29.8579,31.0292,https://clinicaltrials.gov/api/v2/studies,2024-02-12T10:13:19.838Z
65c9d320cd713395fbb5325f,NCT02568215,Aurum Institute Klerksdorp CRS,South Africa,Klerksdorp,North West Province 2571,-26.85213,26.66672,https://clinicaltrials.gov/api/v2/studies,2024-02-12T10:13:19.838Z
65c9d320cd713395fbb53261,NCT02568215,Rustenburg CRS,South Africa,Rustenburg,North West Province 0300,-25.66756,27.24208,https://clinicaltrials.gov/api/v2/studies,2024-02-12T10:13:19.838Z
65c9d320cd713395fbb53263,NCT02568215,Groote Schuur HIV CRS,South Africa,Cape Town,Western Cape Province 7925,-33.92584,18.42322,https://clinicaltrials.gov/api/v2/studies,2024-02-12T10:13:19.838Z
65c9d320cd713395fbb53265,NCT02568215,National Institute for Medical Research (NIMR) - Mbeya Medical Research Center (MMRC) Network CRS,Tanzania,Mbeya,,-8.9,33.45,https://clinicaltrials.gov/api/v2/studies,2024-02-12T10:13:19.838Z
65c9d320cd713395fbb53267,NCT02568215,Seke South CRS,Zimbabwe,Chitungwiza,,-18.01274,31.07555,https://clinicaltrials.gov/api/v2/studies,2024-02-12T10:13:19.838Z
65c9d320cd713395fbb53269,NCT02568215,Milton Park CRS,Zimbabwe,Harare,,-17.82772,31.05337,https://clinicaltrials.gov/api/v2/studies,2024-02-12T10:13:19.838Z
65c9d320cd713395fbb5326b,NCT02568215,Spilhaus CRS,Zimbabwe,Harare,,-17.82772,31.05337,https://clinicaltrials.gov/api/v2/studies,2024-02-12T10:13:19.838Z
65c9d320cd713395fbb5326d,NCT00194519,Botswana-Harvard Partnership,Botswana,Gabarone,,,,https://clinicaltrials.gov/api/v2/studies,2024-02-12T10:13:19.602Z
65c9d320cd713395fbb5326f,NCT00194519,Moi University - Indiana University,Kenya,Eldoret,,0.52036,35.26993,https://clinicaltrials.gov/api/v2/studies,2024-02-12T10:13:19.602Z
65c9d320cd713395fbb53271,NCT00194519,Kemri - Ucsf,Kenya,Kisumu,,-0.10221,34.76171,https://clinicaltrials.gov/api/v2/studies,2024-02-12T10:13:19.602Z
65c9d320cd713395fbb53273,NCT00194519,University of Nairobi,Kenya,Nairobi,,-1.28333,36.81667,https://clinicaltrials.gov/api/v2/studies,2024-02-12T10:13:19.602Z
65c9d320cd713395fbb53275,NCT00194519,Partners Study Thika Site,Kenya,Thika,,-1.03326,37.06933,https://clinicaltrials.gov/api/v2/studies,2024-02-12T10:13:19.602Z
65c9d320cd713395fbb53277,NCT00194519,Projet San Francisco-Emory University,Rwanda,Kigali,,-1.94995,30.05885,https://clinicaltrials.gov/api/v2/studies,2024-02-12T10:13:19.602Z
65c9d320cd713395fbb53279,NCT00194519,University of Cape Town,South Africa,Cape Town,,-33.92584,18.42322,https://clinicaltrials.gov/api/v2/studies,2024-02-12T10:13:19.602Z
65c9d320cd713395fbb5327b,NCT00194519,"Perinatal HIV Research Unit, University of Witswatersrand",South Africa,Johannesburg,,-26.20227,28.04363,https://clinicaltrials.gov/api/v2/studies,2024-02-12T10:13:19.602Z
65c9d320cd713395fbb5327d,NCT00194519,Reproductive Health and HIV Research Unit,South Africa,Johannesburg,,-26.20227,28.04363,https://clinicaltrials.gov/api/v2/studies,2024-02-12T10:13:19.602Z
65c9d320cd713395fbb5327f,NCT00194519,Kilimanjaro Christian Medical College-Harvard University,Tanzania,Moshi,,-3.35,37.33333,https://clinicaltrials.gov/api/v2/studies,2024-02-12T10:13:19.602Z
65c9d320cd713395fbb53281,NCT00194519,Mulago Hospital - IDI,Uganda,Kampala,,0.31628,32.58219,https://clinicaltrials.gov/api/v2/studies,2024-02-12T10:13:19.602Z
65c9d320cd713395fbb53283,NCT00194519,Zambia-Emory HIV Research Project,Zambia,Ndola/Kitwe,,,,https://clinicaltrials.gov/api/v2/studies,2024-02-12T10:13:19.602Z
65c9d320cd713395fbb53286,NCT04156919,Tati Siding Primary School,Botswana,Tati Siding,North East P O Box 3,-21.27345,27.49002,https://clinicaltrials.gov/api/v2/studies,2024-02-12T10:13:03.303Z
65c9d320cd713395fbb53288,NCT03819114,Gaborone CRS (12701),Botswana,Gaborone,,-24.65451,25.90859,https://clinicaltrials.gov/api/v2/studies,2024-02-12T10:13:17.813Z
65c9d320cd713395fbb5328a,NCT03819114,Kenya Medical Research Institute/Walter Reed Project Clinical Research Center (KEMRI/WRP) CRS (12501),Kenya,Kericho,20200,-0.36774,35.28314,https://clinicaltrials.gov/api/v2/studies,2024-02-12T10:13:17.813Z
65c9d320cd713395fbb5328c,NCT03819114,Blantyre CRS (30301),Malawi,Blantyre,,-15.78499,35.00854,https://clinicaltrials.gov/api/v2/studies,2024-02-12T10:13:17.813Z
65c9d320cd713395fbb5328e,NCT03819114,Malawi CRS (12001),Malawi,Lilongwe,,-13.96692,33.78725,https://clinicaltrials.gov/api/v2/studies,2024-02-12T10:13:17.813Z
65c9d320cd713395fbb53290,NCT03819114,University of the Witwatersrand Helen Joseph (WITS HJH) CRS (11101),South Africa,Johannesburg,Gauteng 2193,-26.20227,28.04363,https://clinicaltrials.gov/api/v2/studies,2024-02-12T10:13:17.813Z
65c9d320cd713395fbb53292,NCT03819114,Family Clinical Research Unit (FAM-CUR) CRS (8950),South Africa,Cape Town,West Cape 7505,-33.92584,18.42322,https://clinicaltrials.gov/api/v2/studies,2024-02-12T10:13:17.813Z
65c9d320cd713395fbb53294,NCT03819114,Durban Adult HIV CRS (11201),South Africa,Durban,4013 SF,-29.8579,31.0292,https://clinicaltrials.gov/api/v2/studies,2024-02-12T10:13:17.813Z
65c9d320cd713395fbb53296,NCT03819114,Soweto ACTG CRS (12301),South Africa,Johannesburg,,-26.20227,28.04363,https://clinicaltrials.gov/api/v2/studies,2024-02-12T10:13:17.813Z
65c9d320cd713395fbb53298,NCT04426448,Sbrana Psychiatric Hospital,Botswana,Lobatse,0,-25.22435,25.67728,https://clinicaltrials.gov/api/v2/studies,2024-02-12T10:13:03.303Z
65c9d320cd713395fbb5329a,NCT04431414,Gaborone CRS,Botswana,Gaborone,,-24.65451,25.90859,https://clinicaltrials.gov/api/v2/studies,2024-02-12T10:13:19.838Z
65c9d320cd713395fbb5329c,NCT04431414,Malawi CRS,Malawi,Lilongwe,,-13.96692,33.78725,https://clinicaltrials.gov/api/v2/studies,2024-02-12T10:13:19.838Z
65c9d320cd713395fbb5329e,NCT04431414,Groote Schuur HIV CRS,South Africa,Cape Town,,-33.92584,18.42322,https://clinicaltrials.gov/api/v2/studies,2024-02-12T10:13:19.838Z
65c9d320cd713395fbb532a0,NCT04431414,Khayelitsha CRS / (CIDRI UCT),South Africa,Cape Town,,-33.92584,18.42322,https://clinicaltrials.gov/api/v2/studies,2024-02-12T10:13:19.838Z
65c9d320cd713395fbb532a2,NCT04431414,Masiphumelele Clinical Research Site (MASI) CRS,South Africa,Cape Town,,-33.92584,18.42322,https://clinicaltrials.gov/api/v2/studies,2024-02-12T10:13:19.838Z
65c9d320cd713395fbb532a4,NCT04431414,Chatsworth CRS,South Africa,Chatsworth,,-33.54778,18.58201,https://clinicaltrials.gov/api/v2/studies,2024-02-12T10:13:19.838Z
65c9d320cd713395fbb532a6,NCT04431414,Botha's Hill CRS,South Africa,Durban,,-29.8579,31.0292,https://clinicaltrials.gov/api/v2/studies,2024-02-12T10:13:19.838Z
65c9d320cd713395fbb532a8,NCT04431414,CAPRISA eThekwini CRS,South Africa,Durban,,-29.8579,31.0292,https://clinicaltrials.gov/api/v2/studies,2024-02-12T10:13:19.838Z
65c9d320cd713395fbb532aa,NCT04431414,Vulindlela CRS,South Africa,Durban,,-29.8579,31.0292,https://clinicaltrials.gov/api/v2/studies,2024-02-12T10:13:19.838Z
65c9d320cd713395fbb532ac,NCT04431414,Ndlovu Research Centre CoVPN CRS,South Africa,Elandsdoorn,,-25.28243,29.19378,https://clinicaltrials.gov/api/v2/studies,2024-02-12T10:13:19.838Z
65c9d320cd713395fbb532ae,NCT04431414,Isipingo CRS,South Africa,Isipingo,,-29.98639,30.91853,https://clinicaltrials.gov/api/v2/studies,2024-02-12T10:13:19.838Z
65c9d320cd713395fbb532b0,NCT04431414,Kliptown Soweto CRS,South Africa,Johannesburg,,-26.20227,28.04363,https://clinicaltrials.gov/api/v2/studies,2024-02-12T10:13:19.838Z
65c9d320cd713395fbb532b2,NCT04431414,Soweto HVTN CRS,South Africa,Johannesburg,,-26.20227,28.04363,https://clinicaltrials.gov/api/v2/studies,2024-02-12T10:13:19.838Z
65c9d320cd713395fbb532b4,NCT04431414,Aurum Institute Klerksdorp CRS,South Africa,Klerksdorp,,-26.85213,26.66672,https://clinicaltrials.gov/api/v2/studies,2024-02-12T10:13:19.838Z
65c9d320cd713395fbb532b6,NCT04431414,Qhakaza Mbokodo Research Clinic CRS,South Africa,Ladysmith,,-28.55874,29.77896,https://clinicaltrials.gov/api/v2/studies,2024-02-12T10:13:19.838Z
65c9d320cd713395fbb532b8,NCT04431414,MeCRU CRS,South Africa,Medunsa,,-25.61889,28.02278,https://clinicaltrials.gov/api/v2/studies,2024-02-12T10:13:19.838Z
65c9d320cd713395fbb532ba,NCT04431414,Nelson Mandela Academic Research Unit CRS,South Africa,Mthatha,,-31.58893,28.78443,https://clinicaltrials.gov/api/v2/studies,2024-02-12T10:13:19.838Z
65c9d320cd713395fbb532bc,NCT04431414,Rustenburg CRS,South Africa,Rustenburg,,-25.66756,27.24208,https://clinicaltrials.gov/api/v2/studies,2024-02-12T10:13:19.838Z
65c9d320cd713395fbb532be,NCT04431414,Setshaba Research Centre CRS,South Africa,Soshanguve,,,,https://clinicaltrials.gov/api/v2/studies,2024-02-12T10:13:19.838Z
65c9d320cd713395fbb532c0,NCT04431414,Tembisa Clinic 4 CoVPN CRS,South Africa,Tembisa,,-25.99636,28.2268,https://clinicaltrials.gov/api/v2/studies,2024-02-12T10:13:19.838Z
65c9d320cd713395fbb532c2,NCT04431414,Tongaat CRS,South Africa,Tongaat,,-29.57215,31.11682,https://clinicaltrials.gov/api/v2/studies,2024-02-12T10:13:19.838Z
65c9d320cd713395fbb532c4,NCT04431414,National Institute for Medical Research (NIMR) - Mbeya Medical Research Center (MMRC) Network CRS,Tanzania,Mbeya,,-8.9,33.45,https://clinicaltrials.gov/api/v2/studies,2024-02-12T10:13:19.838Z
65c9d320cd713395fbb532c6,NCT04431414,Matero Reference Clinic CRS,Zambia,Lusaka,,-15.40669,28.28713,https://clinicaltrials.gov/api/v2/studies,2024-02-12T10:13:19.838Z
65c9d320cd713395fbb532c8,NCT04431414,Zambia Emory HIV Research Project - Lusaka CoVPN CRS,Zambia,Lusaka,,-15.40669,28.28713,https://clinicaltrials.gov/api/v2/studies,2024-02-12T10:13:19.838Z
65c9d320cd713395fbb532ca,NCT04431414,Zambia Emory HIV Research Project - Ndola CoVPN CRS,Zambia,Ndola,,-12.95867,28.63659,https://clinicaltrials.gov/api/v2/studies,2024-02-12T10:13:19.838Z
65c9d320cd713395fbb532cc,NCT04431414,St Mary's CRS,Zimbabwe,Chitungwiza,,-18.01274,31.07555,https://clinicaltrials.gov/api/v2/studies,2024-02-12T10:13:19.838Z
65c9d320cd713395fbb532ce,NCT04431414,Milton Park CRS,Zimbabwe,Harare,,-17.82772,31.05337,https://clinicaltrials.gov/api/v2/studies,2024-02-12T10:13:19.838Z
65c9d320cd713395fbb532d0,NCT04431414,Seke South CRS,Zimbabwe,Harare,,-17.82772,31.05337,https://clinicaltrials.gov/api/v2/studies,2024-02-12T10:13:19.838Z
65c9d320cd713395fbb532d2,NCT00561925,1100.1486.2605 Boehringer Ingelheim Investigational Site,Botswana,Francistown,,-21.16995,27.50787,https://clinicaltrials.gov/api/v2/studies,2024-02-12T10:13:17.825Z
65c9d320cd713395fbb532d4,NCT00561925,1100.1486.2601 Boehringer Ingelheim Investigational Site,Botswana,Gaborone,,-24.65451,25.90859,https://clinicaltrials.gov/api/v2/studies,2024-02-12T10:13:17.825Z
65c9d320cd713395fbb532d6,NCT00561925,1100.1486.2603 Boehringer Ingelheim Investigational Site,Botswana,Gaborone,,-24.65451,25.90859,https://clinicaltrials.gov/api/v2/studies,2024-02-12T10:13:17.825Z
65c9d320cd713395fbb532d8,NCT00561925,1100.1486.2707 Boehringer Ingelheim Investigational Site,South Africa,Bloemfontein,,-29.12107,26.214,https://clinicaltrials.gov/api/v2/studies,2024-02-12T10:13:17.825Z
65c9d320cd713395fbb532da,NCT00561925,1100.1486.2712 Boehringer Ingelheim Investigational Site,South Africa,Bloemfontein,,-29.12107,26.214,https://clinicaltrials.gov/api/v2/studies,2024-02-12T10:13:17.825Z
65c9d320cd713395fbb532dc,NCT00561925,1100.1486.2703 Boehringer Ingelheim Investigational Site,South Africa,Cape Town,,-33.92584,18.42322,https://clinicaltrials.gov/api/v2/studies,2024-02-12T10:13:17.825Z
65c9d320cd713395fbb532de,NCT00561925,1100.1486.2709 Boehringer Ingelheim Investigational Site,South Africa,Cape Town,,-33.92584,18.42322,https://clinicaltrials.gov/api/v2/studies,2024-02-12T10:13:17.825Z
65c9d320cd713395fbb532e0,NCT00561925,1100.1486.2711 Boehringer Ingelheim Investigational Site,South Africa,Cape Town,,-33.92584,18.42322,https://clinicaltrials.gov/api/v2/studies,2024-02-12T10:13:17.825Z
65c9d320cd713395fbb532e2,NCT00561925,1100.1486.2701 Boehringer Ingelheim Investigational Site,South Africa,Edenvale,,-26.14095,28.15247,https://clinicaltrials.gov/api/v2/studies,2024-02-12T10:13:17.825Z
65c9d320cd713395fbb532e4,NCT00561925,1100.1486.2710 Boehringer Ingelheim Investigational Site,South Africa,Johannesburg,,-26.20227,28.04363,https://clinicaltrials.gov/api/v2/studies,2024-02-12T10:13:17.825Z
65c9d320cd713395fbb532e6,NCT00561925,1100.1486.2706 Boehringer Ingelheim Investigational Site,South Africa,Nelspruit,,-25.47448,30.97033,https://clinicaltrials.gov/api/v2/studies,2024-02-12T10:13:17.825Z
65c9d320cd713395fbb532e8,NCT00561925,1100.1486.2702 Boehringer Ingelheim Investigational Site,South Africa,Port Elizabeth,,-33.91799,25.57007,https://clinicaltrials.gov/api/v2/studies,2024-02-12T10:13:17.825Z
65c9d320cd713395fbb532ea,NCT00561925,1100.1486.2704 Boehringer Ingelheim Investigational Site,South Africa,Pretoria,,-25.74486,28.18783,https://clinicaltrials.gov/api/v2/studies,2024-02-12T10:13:17.825Z
65c9d320cd713395fbb532ec,NCT00080119,Princess Marina Hospital,Botswana,Gaborone,,-24.65451,25.90859,https://clinicaltrials.gov/api/v2/studies,2024-02-12T10:13:17.826Z
65c9d320cd713395fbb532ee,NCT00080119,"University of Cape Town, Red Cross Children's Hospital",South Africa,Cape Town,,-33.92584,18.42322,https://clinicaltrials.gov/api/v2/studies,2024-02-12T10:13:17.826Z
65c9d320cd713395fbb532f0,NCT00080119,"University of Stellenbosch, Tygerberg Hospital",South Africa,Cape Town,,-33.92584,18.42322,https://clinicaltrials.gov/api/v2/studies,2024-02-12T10:13:17.826Z
65c9d320cd713395fbb532f2,NCT00080119,"Nelson R. Mandela School of Medicine, University of KwaZulu Natal, Durban",South Africa,Durban,4001,-29.8579,31.0292,https://clinicaltrials.gov/api/v2/studies,2024-02-12T10:13:17.826Z
65c9d320cd713395fbb532f4,NCT00080119,Perinatal HIV Research Unit at Chris Hani Baragwanath Hospital,South Africa,Johannesburg,2013,-26.20227,28.04363,https://clinicaltrials.gov/api/v2/studies,2024-02-12T10:13:17.826Z
65c9d320cd713395fbb532f6,NCT00080119,"Chris Hani Baragwanath Hospital, Harriet Shezi Clinic",South Africa,Johannesburg,,-26.20227,28.04363,https://clinicaltrials.gov/api/v2/studies,2024-02-12T10:13:17.826Z
65c9d320cd713395fbb532f8,NCT00385554,BOTUSA HIV Prevention Research Unit,Botswana,Gaborone and Francistown,,,,https://clinicaltrials.gov/api/v2/studies,2024-02-12T10:13:03.304Z
65c9d320cd713395fbb532fa,NCT04119154,Botswana Harvard AIDS Institute,Botswana,Gaborone,,-24.65451,25.90859,https://clinicaltrials.gov/api/v2/studies,2024-02-12T10:13:03.304Z
65c9d320cd713395fbb532fc,NCT00100867,The Gaborone BHP Study Clinic,Botswana,Gaborone,,-24.65451,25.90859,https://clinicaltrials.gov/api/v2/studies,2024-02-12T10:13:19.838Z
65c9d320cd713395fbb532fe,NCT00100867,The Molepolole BHP Study Clinic,Botswana,Gaborone,,-24.65451,25.90859,https://clinicaltrials.gov/api/v2/studies,2024-02-12T10:13:19.838Z
65c9d320cd713395fbb53300,NCT00100867,"Univ. of Malawi, John Hopkins Project",Malawi,Blantyre,,-15.78499,35.00854,https://clinicaltrials.gov/api/v2/studies,2024-02-12T10:13:19.838Z
65c9d320cd713395fbb53302,NCT00100867,University of North Carolina Project (UNC Project),Malawi,Lilongwe,,-13.96692,33.78725,https://clinicaltrials.gov/api/v2/studies,2024-02-12T10:13:19.838Z
65c9d320cd713395fbb53304,NCT00100867,Perinatal HIV Research Unit at Chris Baragwanath Hospital,South Africa,Johannesburg,,-26.20227,28.04363,https://clinicaltrials.gov/api/v2/studies,2024-02-12T10:13:19.838Z
65c9d320cd713395fbb53306,NCT00100867,University of the Witwatersrand,South Africa,Johannesburg,,-26.20227,28.04363,https://clinicaltrials.gov/api/v2/studies,2024-02-12T10:13:19.838Z
65c9d320cd713395fbb53308,NCT00100867,University of Zimbabwe,Zimbabwe,Harare,,-17.82772,31.05337,https://clinicaltrials.gov/api/v2/studies,2024-02-12T10:13:19.838Z
65c9d320cd713395fbb5330a,NCT03568383,Gaborone CRS,Botswana,Gaborone,South-East District,-24.65451,25.90859,https://clinicaltrials.gov/api/v2/studies,2024-02-12T10:13:19.838Z
65c9d320cd713395fbb5330c,NCT03568383,Moi University Clinical Research Center (MUCRC) CRS,Kenya,Eldoret,Rift Valley 30100,0.52036,35.26993,https://clinicaltrials.gov/api/v2/studies,2024-02-12T10:13:19.838Z
65c9d320cd713395fbb5330e,NCT03568383,Soweto ACTG CRS,South Africa,Johannesburg,Gauteng 1862,-26.20227,28.04363,https://clinicaltrials.gov/api/v2/studies,2024-02-12T10:13:19.838Z
65c9d320cd713395fbb53310,NCT03568383,Wits Helen Joseph Hospital CRS (Wits HJH CRS),South Africa,Johannesburg,Gauteng 2092,-26.20227,28.04363,https://clinicaltrials.gov/api/v2/studies,2024-02-12T10:13:19.838Z
65c9d320cd713395fbb53312,NCT03568383,Durban International Clinical Research Site CRS,South Africa,Durban,Kwa Zulu Natal 4052,-29.8579,31.0292,https://clinicaltrials.gov/api/v2/studies,2024-02-12T10:13:19.838Z
65c9d320cd713395fbb53314,NCT03568383,PHRU Matlosana CRS,South Africa,Klerksdorp,North West Province 2574,-26.85213,26.66672,https://clinicaltrials.gov/api/v2/studies,2024-02-12T10:13:19.838Z
65c9d320cd713395fbb53316,NCT03568383,Rustenburg CRS,South Africa,Rustenburg,North West Province 0300,-25.66756,27.24208,https://clinicaltrials.gov/api/v2/studies,2024-02-12T10:13:19.838Z
65c9d320cd713395fbb53318,NCT03568383,Task Applied Science (TASK) CRS,South Africa,Cape Town,Western Cape Province 7530,-33.92584,18.42322,https://clinicaltrials.gov/api/v2/studies,2024-02-12T10:13:19.838Z
65c9d320cd713395fbb5331a,NCT03568383,University of Cape Town Lung Institute (UCTLI) CRS,South Africa,Cape Town,Western Cape Province 7700,-33.92584,18.42322,https://clinicaltrials.gov/api/v2/studies,2024-02-12T10:13:19.838Z
65c9d320cd713395fbb5331c,NCT03568383,South African Tuberculosis Vaccine Initiative (SATVI) CRS,South Africa,Cape Town,Western Cape Province 7705,-33.92584,18.42322,https://clinicaltrials.gov/api/v2/studies,2024-02-12T10:13:19.838Z
65c9d320cd713395fbb5331e,NCT03568383,Desmond Tutu TB Centre - Stellenbosch University (DTTC-SU) CRS,South Africa,Cape Town,Western Cape 7505,-33.92584,18.42322,https://clinicaltrials.gov/api/v2/studies,2024-02-12T10:13:19.838Z
65c9d320cd713395fbb53320,NCT03568383,CAPRISA eThekwini CRS,South Africa,Durban,4001,-29.8579,31.0292,https://clinicaltrials.gov/api/v2/studies,2024-02-12T10:13:19.838Z
65c9d320cd713395fbb53322,NCT03568383,Kilimanjaro Christian Medical Centre (KCMC),Tanzania,Moshi,,-3.35,37.33333,https://clinicaltrials.gov/api/v2/studies,2024-02-12T10:13:19.838Z
65c9d320cd713395fbb53324,NCT03568383,Joint Clinical Research Centre (JCRC)/Kampala Clinical Research Site,Uganda,Kampala,,0.31628,32.58219,https://clinicaltrials.gov/api/v2/studies,2024-02-12T10:13:19.838Z
65c9d320cd713395fbb53326,NCT03568383,MU-JHU Research Collaboration (MUJHU CARE LTD) CRS,Uganda,Kampala,,0.31628,32.58219,https://clinicaltrials.gov/api/v2/studies,2024-02-12T10:13:19.838Z
65c9d320cd713395fbb53328,NCT03568383,Milton Park CRS,Zimbabwe,Milton Park,Harare,-17.81472,31.02472,https://clinicaltrials.gov/api/v2/studies,2024-02-12T10:13:19.838Z
65c9d320cd713395fbb5332a,NCT00149656,Princess Marina Hospital,Botswana,Gaborone,,-24.65451,25.90859,https://clinicaltrials.gov/api/v2/studies,2024-02-12T10:13:03.304Z
65c9d320cd713395fbb5332c,NCT02455583,50 Junior Secondary schools,Botswana,Multiple Locations,Eastern Botswana,,,https://clinicaltrials.gov/api/v2/studies,2024-02-12T10:13:03.304Z
65c9d320cd713395fbb5332e,NCT03016533,GSK Investigational Site,Zimbabwe,Harare,,-17.82772,31.05337,https://clinicaltrials.gov/api/v2/studies,2024-02-12T10:13:19.838Z
65c9d320cd713395fbb53336,NCT03255759,Princess Marina Hospital,Botswana,Gaborone,,-24.65451,25.90859,https://clinicaltrials.gov/api/v2/studies,2024-02-12T10:13:03.304Z
65c9d320cd713395fbb53338,NCT04862975,Botswana-UPenn Partnership,South Africa,Botswana,Gaborone,-24.33333,30.53333,https://clinicaltrials.gov/api/v2/studies,2024-02-12T10:13:17.842Z
65c9d320cd713395fbb5333a,NCT04862975,Lesirane Clinic,South Africa,Botswana,Gaborone,-24.33333,30.53333,https://clinicaltrials.gov/api/v2/studies,2024-02-12T10:13:17.842Z
65c9d320cd713395fbb5333c,NCT04862975,Mogoditshane Clinic KDC,South Africa,Botswana,Gaborone,-24.33333,30.53333,https://clinicaltrials.gov/api/v2/studies,2024-02-12T10:13:17.842Z
65c9d320cd713395fbb5333e,NCT04862975,Old Naledi Clinic,South Africa,Botswana,Gaborone,-24.33333,30.53333,https://clinicaltrials.gov/api/v2/studies,2024-02-12T10:13:17.842Z
65c9d320cd713395fbb53340,NCT01836003,Botswana Harvard AIDS Institute,Botswana,Gaborone,,-24.65451,25.90859,https://clinicaltrials.gov/api/v2/studies,2024-02-12T10:13:03.304Z
65c9d320cd713395fbb53342,NCT05807867,Princess Marina Hospital IDCC,Botswana,Gaborone,,-24.65451,25.90859,https://clinicaltrials.gov/api/v2/studies,2024-02-12T10:13:03.304Z
65c9d320cd713395fbb53344,NCT03345875,Kopong Health Clinic,Botswana,Kopong,,-24.48333,25.88333,https://clinicaltrials.gov/api/v2/studies,2024-02-12T10:13:03.304Z
65c9d320cd713395fbb53346,NCT03345875,Lephepe Health Clinic,Botswana,Lephepe,,-23.31667,25.8,https://clinicaltrials.gov/api/v2/studies,2024-02-12T10:13:03.304Z
65c9d320cd713395fbb53348,NCT03345875,Phuthadikobo,Botswana,Molepolole,,-24.40659,25.49508,https://clinicaltrials.gov/api/v2/studies,2024-02-12T10:13:03.304Z
65c9d320cd713395fbb5334a,NCT03345875,Scottish Livingstone Hospital,Botswana,Molepolole,,-24.40659,25.49508,https://clinicaltrials.gov/api/v2/studies,2024-02-12T10:13:03.304Z
65c9d320cd713395fbb5334c,NCT03345875,Thamaga Health Clinic,Botswana,Thamaga,,-24.67014,25.53975,https://clinicaltrials.gov/api/v2/studies,2024-02-12T10:13:03.304Z
65c9d320cd713395fbb5334e,NCT02344290,Gaborone CRS,Botswana,Gaborone,South-East District,-24.65451,25.90859,https://clinicaltrials.gov/api/v2/studies,2024-02-12T10:13:19.838Z
65c9d320cd713395fbb53350,NCT02344290,Soweto ACTG CRS,South Africa,Johannesburg,Gauteng 1862,-26.20227,28.04363,https://clinicaltrials.gov/api/v2/studies,2024-02-12T10:13:19.838Z
65c9d320cd713395fbb53352,NCT02344290,Wits Helen Joseph Hospital CRS (Wits HJH CRS),South Africa,Johannesburg,Gauteng 2092,-26.20227,28.04363,https://clinicaltrials.gov/api/v2/studies,2024-02-12T10:13:19.838Z
65c9d320cd713395fbb53354,NCT02344290,Durban International Clinical Research Site CRS,South Africa,Durban,Kwa Zulu Natal 4052,-29.8579,31.0292,https://clinicaltrials.gov/api/v2/studies,2024-02-12T10:13:19.838Z
65c9d320cd713395fbb53356,NCT02344290,University of Cape Town Lung Institute (UCTLI) CRS,South Africa,Cape Town,Western Cape Province 7700,-33.92584,18.42322,https://clinicaltrials.gov/api/v2/studies,2024-02-12T10:13:19.838Z
65c9d320cd713395fbb53358,NCT02344290,Famcru Crs,South Africa,Tygerberg,Western Cape Province 7505,,,https://clinicaltrials.gov/api/v2/studies,2024-02-12T10:13:19.838Z
65c9d320cd713395fbb5335a,NCT02344290,Joint Clinical Research Centre (JCRC)/Kampala Clinical Research Site,Uganda,Kampala,,0.31628,32.58219,https://clinicaltrials.gov/api/v2/studies,2024-02-12T10:13:19.838Z
65c9d320cd713395fbb5335c,NCT02344290,Milton Park CRS,Zimbabwe,Harare,,-17.82772,31.05337,https://clinicaltrials.gov/api/v2/studies,2024-02-12T10:13:19.838Z
65c9d320cd713395fbb5335e,NCT05660980,"Site 12701, Gaborone CRS",Botswana,Gaborone,,-24.65451,25.90859,https://clinicaltrials.gov/api/v2/studies,2024-02-12T10:13:19.398Z
65c9d320cd713395fbb53360,NCT05660980,"Site 12702, Molepolole CRS",Botswana,Gaborone,,-24.65451,25.90859,https://clinicaltrials.gov/api/v2/studies,2024-02-12T10:13:19.398Z
65c9d320cd713395fbb53362,NCT05660980,"Site 8051, Wits RHI Shandukani Research Centre CRS",South Africa,Johannesburg,1863,-26.20227,28.04363,https://clinicaltrials.gov/api/v2/studies,2024-02-12T10:13:19.398Z
65c9d320cd713395fbb53364,NCT05660980,"CRS 8052, Soweto IMPAACT",South Africa,Johannesburg,2091,-26.20227,28.04363,https://clinicaltrials.gov/api/v2/studies,2024-02-12T10:13:19.398Z
65c9d320cd713395fbb53366,NCT05660980,"Site 31798, Baylor Uganda CRS",Uganda,Kampala,72052,0.31628,32.58219,https://clinicaltrials.gov/api/v2/studies,2024-02-12T10:13:19.398Z
65c9d320cd713395fbb53368,NCT05660980,"Site 5126, MU-JHU Care Limited CRS",Uganda,Kampala,,0.31628,32.58219,https://clinicaltrials.gov/api/v2/studies,2024-02-12T10:13:19.398Z
65c9d320cd713395fbb5336a,NCT02150980,Princess Marina Hospital,Botswana,Gaborone,,-24.65451,25.90859,https://clinicaltrials.gov/api/v2/studies,2024-02-12T10:13:19.398Z
65c9d320cd713395fbb5336c,NCT02150980,Black Lion Hospital,Ethiopia,Addis Ababa,,9.02497,38.74689,https://clinicaltrials.gov/api/v2/studies,2024-02-12T10:13:19.398Z
65c9d320cd713395fbb5336e,NCT02150980,Komfo Anokye Teaching Hospital (KATH),Ghana,Kumasi,,6.68848,-1.62443,https://clinicaltrials.gov/api/v2/studies,2024-02-12T10:13:19.398Z
65c9d320cd713395fbb53370,NCT02150980,Rift Valley provincial hospital,Kenya,Karuru One,,-0.73333,37.05,https://clinicaltrials.gov/api/v2/studies,2024-02-12T10:13:19.398Z
65c9d320cd713395fbb53372,NCT02150980,Kiambu District Hospital,Kenya,Kiambu,,-1.16667,36.83333,https://clinicaltrials.gov/api/v2/studies,2024-02-12T10:13:19.398Z
65c9d320cd713395fbb53374,NCT02150980,AIC Kijabe Hospital,Kenya,Kijabe,,-0.93304,36.57581,https://clinicaltrials.gov/api/v2/studies,2024-02-12T10:13:19.398Z
65c9d320cd713395fbb53376,NCT02150980,Kenyatta National Hospital,Kenya,Nairobi,,-1.28333,36.81667,https://clinicaltrials.gov/api/v2/studies,2024-02-12T10:13:19.398Z
65c9d320cd713395fbb53378,NCT02150980,University of Malawi,Malawi,Blantyre,,-15.78499,35.00854,https://clinicaltrials.gov/api/v2/studies,2024-02-12T10:13:19.398Z
65c9d320cd713395fbb5337a,NCT02150980,State trauma and surgical centre,Nigeria,Ondo,,7.09316,4.83528,https://clinicaltrials.gov/api/v2/studies,2024-02-12T10:13:19.398Z
65c9d320cd713395fbb5337c,NCT02150980,University Teaching Hospital,Rwanda,Kigali,,-1.94995,30.05885,https://clinicaltrials.gov/api/v2/studies,2024-02-12T10:13:19.398Z
65c9d320cd713395fbb5337e,NCT02150980,Charlotte Maxete Johannesburg Acadamic Hospital,South Africa,Johannesburg,,-26.20227,28.04363,https://clinicaltrials.gov/api/v2/studies,2024-02-12T10:13:19.398Z
65c9d320cd713395fbb53380,NCT02150980,Chris Hani Baragwanath Acadamic Hospital,South Africa,Johannesburg,,-26.20227,28.04363,https://clinicaltrials.gov/api/v2/studies,2024-02-12T10:13:19.398Z
65c9d320cd713395fbb53382,NCT02150980,Helen Joseph Hospital,South Africa,Johannesburg,,-26.20227,28.04363,https://clinicaltrials.gov/api/v2/studies,2024-02-12T10:13:19.398Z
65c9d320cd713395fbb53384,NCT02150980,Muhimbili Orthopaedic Institute,Tanzania,Dar es Salaam,,-6.82349,39.26951,https://clinicaltrials.gov/api/v2/studies,2024-02-12T10:13:19.398Z
65c9d320cd713395fbb53386,NCT02150980,Kilimanjaro Christian Medical Centre,Tanzania,Moshi,,-3.35,37.33333,https://clinicaltrials.gov/api/v2/studies,2024-02-12T10:13:19.398Z
65c9d320cd713395fbb53388,NCT02150980,Fort Portal Regional Referral Hospital,Uganda,Fort Portal,,0.66174,30.2748,https://clinicaltrials.gov/api/v2/studies,2024-02-12T10:13:19.398Z
65c9d320cd713395fbb5338a,NCT02150980,"Mulago Hospital, Makerere University College of Health Sciences",Uganda,Kampala,,0.31628,32.58219,https://clinicaltrials.gov/api/v2/studies,2024-02-12T10:13:19.398Z
65c9d320cd713395fbb5338c,NCT05715944,Botswana Harvard Health Partnership,Botswana,Gaborone,,-24.65451,25.90859,https://clinicaltrials.gov/api/v2/studies,2024-02-12T10:13:03.304Z
65c9d320cd713395fbb5338e,NCT00270296,"Princess Marina Hosp., BHP Study Clinic, Gaborone Shapiro CRS",Botswana,Gaborone,,-24.65451,25.90859,https://clinicaltrials.gov/api/v2/studies,2024-02-12T10:13:03.304Z
65c9d320cd713395fbb53390,NCT00270296,"Athlone Hosp., BHP Study Clinic, Lobatse Shapiro CRS",Botswana,Lobatse,,-25.22435,25.67728,https://clinicaltrials.gov/api/v2/studies,2024-02-12T10:13:03.304Z
65c9d320cd713395fbb53392,NCT00270296,"Deborah Reteif Hosp., BHP Study Clinic, Mochudi Shapiro CRS",Botswana,Mochudi,,-24.41667,26.15,https://clinicaltrials.gov/api/v2/studies,2024-02-12T10:13:03.304Z
65c9d320cd713395fbb53394,NCT00270296,"Scottish Livingstone Hosp., BHP Study Clinic, Molepolole Shapiro CRS",Botswana,Molepolole,,-24.40659,25.49508,https://clinicaltrials.gov/api/v2/studies,2024-02-12T10:13:03.304Z
65c9d320cd713395fbb53396,NCT03208231,Molepolole CRS,Botswana,Molepolole,Kweneng District,-24.40659,25.49508,https://clinicaltrials.gov/api/v2/studies,2024-02-12T10:13:19.839Z
65c9d320cd713395fbb53398,NCT03208231,Gaborone CRS,Botswana,Gaborone,South-East District,-24.65451,25.90859,https://clinicaltrials.gov/api/v2/studies,2024-02-12T10:13:19.839Z
65c9d320cd713395fbb5339a,NCT03208231,Malawi CRS,Malawi,Lilongwe,Central,-13.96692,33.78725,https://clinicaltrials.gov/api/v2/studies,2024-02-12T10:13:19.839Z
65c9d320cd713395fbb5339c,NCT03208231,Blantyre CRS,Malawi,Blantyre,,-15.78499,35.00854,https://clinicaltrials.gov/api/v2/studies,2024-02-12T10:13:19.839Z
65c9d320cd713395fbb5339e,NCT03208231,Harare Family Care CRS,Zimbabwe,Harare,,-17.82772,31.05337,https://clinicaltrials.gov/api/v2/studies,2024-02-12T10:13:19.839Z
65c9d320cd713395fbb533a0,NCT01903031,Gaborone Prevention/Treatment Trials CRS (12701),Botswana,Gaborone,,-24.65451,25.90859,https://clinicaltrials.gov/api/v2/studies,2024-02-12T10:13:17.867Z
65c9d320cd713395fbb533a2,NCT01903031,Kenya Medical Research Institute/Center for Disease Control (KEMRI/CDC) CRS (31460),Kenya,Kisumu,40100,-0.10221,34.76171,https://clinicaltrials.gov/api/v2/studies,2024-02-12T10:13:17.867Z
65c9d320cd713395fbb533a4,NCT01903031,Shandukani Research CRS (8051),South Africa,Johannesburg,Gauteng 2038,-26.20227,28.04363,https://clinicaltrials.gov/api/v2/studies,2024-02-12T10:13:17.867Z
65c9d320cd713395fbb533a6,NCT00097838,"Botswana HIV Vaccine Clinical Eval. Ctr, Princess",Botswana,Gaborone,,-24.65451,25.90859,https://clinicaltrials.gov/api/v2/studies,2024-02-12T10:13:17.868Z
65c9d320cd713395fbb533a8,NCT00097838,"Perinatal HIV Research Unit, Chris Hani Baragwanat",South Africa,Bertsham,2013,,,https://clinicaltrials.gov/api/v2/studies,2024-02-12T10:13:17.868Z
65c9d320cd713395fbb533aa,NCT04024488,Gaborone Prevention/Treatment Trials CRS 12701,Botswana,Gaborone,,-24.65451,25.90859,https://clinicaltrials.gov/api/v2/studies,2024-02-12T10:13:19.839Z
65c9d320cd713395fbb533ac,NCT04024488,Molepolole Prevention/Treatment Trials CRS 12702,Botswana,Molepolole,,-24.40659,25.49508,https://clinicaltrials.gov/api/v2/studies,2024-02-12T10:13:19.839Z
65c9d320cd713395fbb533ae,NCT04024488,College of Medicine CRS 30301,Malawi,Blantyre,,-15.78499,35.00854,https://clinicaltrials.gov/api/v2/studies,2024-02-12T10:13:19.839Z
65c9d320cd713395fbb533b0,NCT04024488,University of North Carolina Lilongwe CRS 12001,Malawi,Lilongwe,,-13.96692,33.78725,https://clinicaltrials.gov/api/v2/studies,2024-02-12T10:13:19.839Z
65c9d320cd713395fbb533b2,NCT04024488,Soweto IMPAACT CRS 8052,South Africa,Soweto,,-26.26781,27.85849,https://clinicaltrials.gov/api/v2/studies,2024-02-12T10:13:19.839Z
65c9d320cd713395fbb533b4,NCT04024488,St. Mary's CRS 30303,Zimbabwe,Chitungwiza,,-18.01274,31.07555,https://clinicaltrials.gov/api/v2/studies,2024-02-12T10:13:19.839Z
65c9d320cd713395fbb533b6,NCT04024488,Harare Family Care CRS 31890,Zimbabwe,Harare,,-17.82772,31.05337,https://clinicaltrials.gov/api/v2/studies,2024-02-12T10:13:19.839Z
65c9d320cd713395fbb533b8,NCT04024488,Seke North CRS 30306,Zimbabwe,Harare,,-17.82772,31.05337,https://clinicaltrials.gov/api/v2/studies,2024-02-12T10:13:19.839Z
65c9d320cd713395fbb533ba,NCT04272242,Gaborone CRS,Botswana,Gaborone,South-East District,-24.65451,25.90859,https://clinicaltrials.gov/api/v2/studies,2024-02-12T10:13:19.839Z
65c9d320cd713395fbb533bc,NCT04272242,Malawi CRS,Malawi,Lilongwe,Central Malawi,-13.96692,33.78725,https://clinicaltrials.gov/api/v2/studies,2024-02-12T10:13:19.839Z
65c9d320cd713395fbb533be,NCT04272242,South African Tuberculosis Vaccine Initiative (SATVI) CRS,South Africa,Cape Town,7705,-33.92584,18.42322,https://clinicaltrials.gov/api/v2/studies,2024-02-12T10:13:19.839Z
65c9d320cd713395fbb533c0,NCT04272242,Durban International Clinical Research Site CRS,South Africa,Durban,4052,-29.8579,31.0292,https://clinicaltrials.gov/api/v2/studies,2024-02-12T10:13:19.839Z
65c9d320cd713395fbb533c2,NCT04272242,Milton Park CRS,Zimbabwe,Milton Park,Harare,-17.81472,31.02472,https://clinicaltrials.gov/api/v2/studies,2024-02-12T10:13:19.839Z
65c9d320cd713395fbb533c4,NCT00905489,1100.1518.2605 Boehringer Ingelheim Investigational Site,Botswana,Francistown,,-21.16995,27.50787,https://clinicaltrials.gov/api/v2/studies,2024-02-12T10:13:17.872Z
65c9d320cd713395fbb533c6,NCT00905489,1100.1518.2601 Boehringer Ingelheim Investigational Site,Botswana,Gaborone,,-24.65451,25.90859,https://clinicaltrials.gov/api/v2/studies,2024-02-12T10:13:17.872Z
65c9d320cd713395fbb533c8,NCT00905489,1100.1518.2603 Boehringer Ingelheim Investigational Site,Botswana,Gaborone,,-24.65451,25.90859,https://clinicaltrials.gov/api/v2/studies,2024-02-12T10:13:17.872Z
65c9d320cd713395fbb533ca,NCT00905489,1100.1518.2702 Boehringer Ingelheim Investigational Site,South Africa,Cape Town,,-33.92584,18.42322,https://clinicaltrials.gov/api/v2/studies,2024-02-12T10:13:17.872Z
65c9d320cd713395fbb533cc,NCT00905489,1100.1518.2703 Boehringer Ingelheim Investigational Site,South Africa,Parow Valley,,,,https://clinicaltrials.gov/api/v2/studies,2024-02-12T10:13:17.872Z
65c9d320cd713395fbb533ce,NCT00384046,Research Facility,Botswana,Freiburg,DEU D-79085,,,https://clinicaltrials.gov/api/v2/studies,2024-02-12T10:13:03.304Z
65c9d320cd713395fbb533d0,NCT03336346,Botswana-UPenn Partnership,Botswana,Gaborone,,-24.65451,25.90859,https://clinicaltrials.gov/api/v2/studies,2024-02-12T10:13:03.304Z
65c9d320cd713395fbb533d2,NCT06005610,Gaborone CRS (12701),Botswana,Gaborone,,-24.65451,25.90859,https://clinicaltrials.gov/api/v2/studies,2024-02-12T10:13:17.874Z
65c9d320cd713395fbb533d4,NCT06005610,Soweto ACTG CRS (12301),South Africa,Johannesburg,1864,-26.20227,28.04363,https://clinicaltrials.gov/api/v2/studies,2024-02-12T10:13:17.874Z
65c9d320cd713395fbb533d6,NCT04796610,Botswana Harvard AIDS Institute Partnership (BHP),Botswana,Gaborone,,-24.65451,25.90859,https://clinicaltrials.gov/api/v2/studies,2024-02-12T10:13:03.304Z
65c9d320cd713395fbb533d8,NCT03088410,Botswana-Harvard AIDS Institute Partnership,Botswana,Gaborone,,-24.65451,25.90859,https://clinicaltrials.gov/api/v2/studies,2024-02-12T10:13:03.304Z
65c9d320cd713395fbb533da,NCT05885087,Princess Marina Hospital,Botswana,Gaborone,South East 267,-24.65451,25.90859,https://clinicaltrials.gov/api/v2/studies,2024-02-12T10:13:03.304Z
65c9d320cd713395fbb533dc,NCT03164564,Gaborone CRS,Botswana,Gaborone,South-East District,-24.65451,25.90859,https://clinicaltrials.gov/api/v2/studies,2024-02-12T10:13:19.839Z
65c9d320cd713395fbb533de,NCT03164564,Kisumu Crs,Kenya,Kisumu,Nyanza 40100,-0.10221,34.76171,https://clinicaltrials.gov/api/v2/studies,2024-02-12T10:13:19.839Z
65c9d320cd713395fbb533e0,NCT03164564,Malawi CRS,Malawi,Lilongwe,Central,-13.96692,33.78725,https://clinicaltrials.gov/api/v2/studies,2024-02-12T10:13:19.839Z
65c9d320cd713395fbb533e2,NCT03164564,Blantyre CRS,Malawi,Blantyre,,-15.78499,35.00854,https://clinicaltrials.gov/api/v2/studies,2024-02-12T10:13:19.839Z
65c9d320cd713395fbb533e4,NCT03164564,Soweto HPTN CRS,South Africa,Johannesburg,Gauteng 1862,-26.20227,28.04363,https://clinicaltrials.gov/api/v2/studies,2024-02-12T10:13:19.839Z
65c9d320cd713395fbb533e6,NCT03164564,Ward 21 CRS,South Africa,Johannesburg,Gauteng 2001,-26.20227,28.04363,https://clinicaltrials.gov/api/v2/studies,2024-02-12T10:13:19.839Z
65c9d320cd713395fbb533e8,NCT03164564,Botha's Hill CRS,South Africa,Durban,Kwa Zulu Natal 3660,-29.8579,31.0292,https://clinicaltrials.gov/api/v2/studies,2024-02-12T10:13:19.839Z
65c9d320cd713395fbb533ea,NCT03164564,Isipingo CRS,South Africa,Isipingo,Kwa Zulu Natal 4110,-29.98639,30.91853,https://clinicaltrials.gov/api/v2/studies,2024-02-12T10:13:19.839Z
65c9d320cd713395fbb533ec,NCT03164564,Verulam CRS,South Africa,Verulam,Kwa Zulu Natal 4340,-29.6434,31.04709,https://clinicaltrials.gov/api/v2/studies,2024-02-12T10:13:19.839Z
65c9d320cd713395fbb533ee,NCT03164564,Desmond Tutu TB Centre - Stellenbosch University (DTTC-SU) CRS,South Africa,Cape Town,Western Cape Province 7505,-33.92584,18.42322,https://clinicaltrials.gov/api/v2/studies,2024-02-12T10:13:19.839Z
65c9d320cd713395fbb533f0,NCT03164564,Emavundleni CRS,South Africa,Cape Town,Western Cape 7750,-33.92584,18.42322,https://clinicaltrials.gov/api/v2/studies,2024-02-12T10:13:19.839Z
65c9d320cd713395fbb533f2,NCT03164564,UVRI-IAVI HIV Vaccine Program LTD. CRS,Uganda,Entebbe,,0.05622,32.47944,https://clinicaltrials.gov/api/v2/studies,2024-02-12T10:13:19.839Z
65c9d320cd713395fbb533f4,NCT03164564,Baylor-Uganda CRS,Uganda,Kampala,,0.31628,32.58219,https://clinicaltrials.gov/api/v2/studies,2024-02-12T10:13:19.839Z
65c9d320cd713395fbb533f6,NCT03164564,MU-JHU Research Collaboration (MUJHU CARE LTD) CRS,Uganda,Kampala,,0.31628,32.58219,https://clinicaltrials.gov/api/v2/studies,2024-02-12T10:13:19.839Z
65c9d320cd713395fbb533f8,NCT03164564,Zengeza CRS,Zimbabwe,Chitungwiza,Mashonaland East,-18.01274,31.07555,https://clinicaltrials.gov/api/v2/studies,2024-02-12T10:13:19.839Z
65c9d320cd713395fbb533fa,NCT03164564,Seke South CRS,Zimbabwe,Chitungwiza,,-18.01274,31.07555,https://clinicaltrials.gov/api/v2/studies,2024-02-12T10:13:19.839Z
65c9d320cd713395fbb533fc,NCT03164564,St Mary's CRS,Zimbabwe,Chitungwiza,,-18.01274,31.07555,https://clinicaltrials.gov/api/v2/studies,2024-02-12T10:13:19.839Z
65c9d320cd713395fbb533fe,NCT03164564,Milton Park CRS,Zimbabwe,Harare,,-17.82772,31.05337,https://clinicaltrials.gov/api/v2/studies,2024-02-12T10:13:19.839Z
65c9d320cd713395fbb53400,NCT03164564,Spilhaus CRS,Zimbabwe,Harare,,-17.82772,31.05337,https://clinicaltrials.gov/api/v2/studies,2024-02-12T10:13:19.839Z
65c9d320cd713395fbb53402,NCT00485264,Gaborone CRS,Botswana,Gaborone,,-24.65451,25.90859,https://clinicaltrials.gov/api/v2/studies,2024-02-12T10:13:17.878Z
65c9d320cd713395fbb53404,NCT00485264,Soweto IMPAACT CRS,South Africa,Johannesburg,Gauteng 1862,-26.20227,28.04363,https://clinicaltrials.gov/api/v2/studies,2024-02-12T10:13:17.878Z
65c9d320cd713395fbb53406,NCT00485264,Shandukani Research CRS,South Africa,Johannesburg,Gauteng 2001,-26.20227,28.04363,https://clinicaltrials.gov/api/v2/studies,2024-02-12T10:13:17.878Z
65c9d320cd713395fbb53408,NCT00485264,Durban Paediatric HIV CRS,South Africa,Durban,KwaZulu-Natal 4001,-29.8579,31.0292,https://clinicaltrials.gov/api/v2/studies,2024-02-12T10:13:17.878Z
65c9d320cd713395fbb5340a,NCT00485264,Family Clinical Research Unit (FAM-CRU) CRS,South Africa,Tygerberg,Western Cape Province 7505,,,https://clinicaltrials.gov/api/v2/studies,2024-02-12T10:13:17.878Z
65c9d320cd713395fbb5340c,NCT01494038,Gaborone CRS,Botswana,Gaborone,,-24.65451,25.90859,https://clinicaltrials.gov/api/v2/studies,2024-02-12T10:13:19.839Z
65c9d320cd713395fbb5340e,NCT01494038,Molepolole CRS,Botswana,Gaborone,,-24.65451,25.90859,https://clinicaltrials.gov/api/v2/studies,2024-02-12T10:13:19.839Z
65c9d320cd713395fbb53410,NCT01494038,Soweto IMPAACT CRS,South Africa,Johannesburg,Gauteng 1862,-26.20227,28.04363,https://clinicaltrials.gov/api/v2/studies,2024-02-12T10:13:19.839Z
65c9d320cd713395fbb53412,NCT01494038,Desmond Tutu TB Centre - Stellenbosch University (DTTC-SU) CRS,South Africa,Cape Town,Western Cape Province 7505,-33.92584,18.42322,https://clinicaltrials.gov/api/v2/studies,2024-02-12T10:13:19.839Z
65c9d320cd713395fbb53414,NCT01494038,Fam-Cru Crs,South Africa,Cape Town,Western Cape Province 7505,-33.92584,18.42322,https://clinicaltrials.gov/api/v2/studies,2024-02-12T10:13:19.839Z
65c9d320cd713395fbb53416,NCT01494038,Kilimanjaro Christian Medical Centre (KCMC),Tanzania,Moshi,,-3.35,37.33333,https://clinicaltrials.gov/api/v2/studies,2024-02-12T10:13:19.839Z
65c9d320cd713395fbb53418,NCT01494038,MU-JHU Research Collaboration (MUJHU CARE LTD) CRS,Uganda,Kampala,,0.31628,32.58219,https://clinicaltrials.gov/api/v2/studies,2024-02-12T10:13:19.839Z
65c9d320cd713395fbb5341a,NCT01494038,Seke North CRS,Zimbabwe,Chitungwiza,,-18.01274,31.07555,https://clinicaltrials.gov/api/v2/studies,2024-02-12T10:13:19.839Z
65c9d320cd713395fbb5341c,NCT01494038,St Mary's CRS,Zimbabwe,Chitungwiza,,-18.01274,31.07555,https://clinicaltrials.gov/api/v2/studies,2024-02-12T10:13:19.839Z
65c9d320cd713395fbb5341e,NCT01494038,Harare Family Care CRS,Zimbabwe,Harare,,-17.82772,31.05337,https://clinicaltrials.gov/api/v2/studies,2024-02-12T10:13:19.839Z
65c9d320cd713395fbb53420,NCT01427738,Gaborone Prevention/Treatment Trials CRS (12701),Botswana,Gaborone,,-24.65451,25.90859,https://clinicaltrials.gov/api/v2/studies,2024-02-12T10:13:19.839Z
65c9d320cd713395fbb53422,NCT01427738,Molepolole Prevention/Treatment Trials CRS (12702),Botswana,Molepolole,,-24.40659,25.49508,https://clinicaltrials.gov/api/v2/studies,2024-02-12T10:13:19.839Z
65c9d320cd713395fbb53424,NCT01427738,AMPATH at Moi Univ. Teaching Hosp. Eldoret CRS (12601),Kenya,Eldoret,30100,0.52036,35.26993,https://clinicaltrials.gov/api/v2/studies,2024-02-12T10:13:19.839Z
65c9d320cd713395fbb53426,NCT01427738,Walter Reed Project - Kenya Med. Research Institute Kericho CRS (12501),Kenya,Kericho,20200,-0.36774,35.28314,https://clinicaltrials.gov/api/v2/studies,2024-02-12T10:13:19.839Z
65c9d320cd713395fbb53428,NCT01427738,College of Med. JHU CRS (30301),Malawi,Blantyre,,-15.78499,35.00854,https://clinicaltrials.gov/api/v2/studies,2024-02-12T10:13:19.839Z
65c9d320cd713395fbb5342a,NCT01427738,Durban Adult HIV CRS (11201),South Africa,Durban,4013 SF,-29.8579,31.0292,https://clinicaltrials.gov/api/v2/studies,2024-02-12T10:13:19.839Z
65c9d320cd713395fbb5342c,NCT01427738,Joint Clinical Research Centre (JCRC) (12401),Uganda,Kampala,,0.31628,32.58219,https://clinicaltrials.gov/api/v2/studies,2024-02-12T10:13:19.839Z
65c9d320cd713395fbb5342e,NCT01427738,UZ-Parirenyatwa CRS (30313),Zimbabwe,Harare,,-17.82772,31.05337,https://clinicaltrials.gov/api/v2/studies,2024-02-12T10:13:19.839Z
65c9d320cd713395fbb53430,NCT06031272,Gaborone CRS (12701),Botswana,Molepolole,,-24.40659,25.49508,https://clinicaltrials.gov/api/v2/studies,2024-02-12T10:13:17.881Z
65c9d320cd713395fbb53432,NCT06031272,Blantyre CRS (30301),Malawi,Blantyre,,-15.78499,35.00854,https://clinicaltrials.gov/api/v2/studies,2024-02-12T10:13:17.881Z
65c9d320cd713395fbb53434,NCT06031272,Lilongwe Malawi CRS (12001),Malawi,Lilongwe,,-13.96692,33.78725,https://clinicaltrials.gov/api/v2/studies,2024-02-12T10:13:17.881Z
65c9d320cd713395fbb53436,NCT06031272,Ward 21 CRS (31966),South Africa,Johannesburg,Gauteng 2001,-26.20227,28.04363,https://clinicaltrials.gov/api/v2/studies,2024-02-12T10:13:17.881Z
65c9d320cd713395fbb53438,NCT06031272,Soweto HVTN CRS (30351),South Africa,Soweto,Gauteng 1862,-26.26781,27.85849,https://clinicaltrials.gov/api/v2/studies,2024-02-12T10:13:17.881Z
65c9d320cd713395fbb5343a,NCT06031272,CAPRISA eThekwini CRS (31422),South Africa,Durban,KwaZulu-Natal 4011,-29.8579,31.0292,https://clinicaltrials.gov/api/v2/studies,2024-02-12T10:13:17.881Z
65c9d320cd713395fbb5343c,NCT06031272,Aurum Institute Klerksdorp CRS (30325),South Africa,Klerksdorp,North West Province,-26.85213,26.66672,https://clinicaltrials.gov/api/v2/studies,2024-02-12T10:13:17.881Z
65c9d320cd713395fbb5343e,NCT06031272,Rustenburg CRS (31684),South Africa,Rustenburg,North West Province 0300,-25.66756,27.24208,https://clinicaltrials.gov/api/v2/studies,2024-02-12T10:13:17.881Z
65c9d320cd713395fbb53440,NCT06031272,Groote Schuur HIV CRS (31708),South Africa,Cape Town,Western Cape 7925,-33.92584,18.42322,https://clinicaltrials.gov/api/v2/studies,2024-02-12T10:13:17.881Z
65c9d320cd713395fbb53442,NCT06192160,"12701, Gaborone CRS",Botswana,Gaborone,0,-24.65451,25.90859,https://clinicaltrials.gov/api/v2/studies,2024-02-12T10:13:19.839Z
65c9d320cd713395fbb53444,NCT06192160,"12601, Moi University Clinical Research Center (MUCRC) CRS",Kenya,Eldoret,30100,0.52036,35.26993,https://clinicaltrials.gov/api/v2/studies,2024-02-12T10:13:19.839Z
65c9d320cd713395fbb53446,NCT06192160,"12501, Kenya Medical Research Institute/Walter Reed Project Clinical Research Center (KEMRI/WRP) CRS",Kenya,Kericho,20200,-0.36774,35.28314,https://clinicaltrials.gov/api/v2/studies,2024-02-12T10:13:19.839Z
65c9d320cd713395fbb53448,NCT06192160,"30301, Blantyre CRS",Malawi,Blantyre,265,-15.78499,35.00854,https://clinicaltrials.gov/api/v2/studies,2024-02-12T10:13:19.839Z
65c9d320cd713395fbb5344a,NCT06192160,"12001, Malawi CRS",Malawi,Lilongwe,A-104,-13.96692,33.78725,https://clinicaltrials.gov/api/v2/studies,2024-02-12T10:13:19.839Z
65c9d320cd713395fbb5344c,NCT06192160,"31793, South African Tuberculosis Vaccine Initiative (SATVI) CRS",South Africa,Cape Town,6850,-33.92584,18.42322,https://clinicaltrials.gov/api/v2/studies,2024-02-12T10:13:19.839Z
65c9d320cd713395fbb5344e,NCT06192160,"31792, University of Cape Town Lung Institute (UCTLI) CRS",South Africa,Cape Town,7700,-33.92584,18.42322,https://clinicaltrials.gov/api/v2/studies,2024-02-12T10:13:19.839Z
65c9d320cd713395fbb53450,NCT06192160,"31422, CAPRISA eThekwini CRS",South Africa,Durban,40001,-29.8579,31.0292,https://clinicaltrials.gov/api/v2/studies,2024-02-12T10:13:19.839Z
65c9d320cd713395fbb53452,NCT06192160,"11201, Durban International CRS",South Africa,Durban,4091,-29.8579,31.0292,https://clinicaltrials.gov/api/v2/studies,2024-02-12T10:13:19.839Z
65c9d320cd713395fbb53454,NCT06192160,"12301, Soweto ACTG CRS",South Africa,Johannesburg,1864,-26.20227,28.04363,https://clinicaltrials.gov/api/v2/studies,2024-02-12T10:13:19.839Z
65c9d320cd713395fbb53456,NCT06192160,"11101, University of the Witwatersrand Helen Joseph (WITS HJH) CRS",South Africa,Johannesburg,2193,-26.20227,28.04363,https://clinicaltrials.gov/api/v2/studies,2024-02-12T10:13:19.839Z
65c9d320cd713395fbb53458,NCT06192160,"31684, Rustenburg CRS",South Africa,Rustenburg,,-25.66756,27.24208,https://clinicaltrials.gov/api/v2/studies,2024-02-12T10:13:19.839Z
65c9d320cd713395fbb5345a,NCT06192160,"12401, Joint Clinical Research Centre (JCRC)/Kampala CRS",Uganda,Kampala,10005,0.31628,32.58219,https://clinicaltrials.gov/api/v2/studies,2024-02-12T10:13:19.839Z
65c9d320cd713395fbb5345c,NCT06192160,"30313, Milton Park CRS",Zimbabwe,Harare,30313,-17.82772,31.05337,https://clinicaltrials.gov/api/v2/studies,2024-02-12T10:13:19.839Z
65c9d320cd713395fbb5345e,NCT05551273,Gaborone CRS,Botswana,Gaborone,South-East District,-24.65451,25.90859,https://clinicaltrials.gov/api/v2/studies,2024-02-12T10:13:19.839Z
65c9d320cd713395fbb53460,NCT05551273,Soweto ACTG CRS,South Africa,Johannesburg,Gauteng 1862,-26.20227,28.04363,https://clinicaltrials.gov/api/v2/studies,2024-02-12T10:13:19.839Z
65c9d320cd713395fbb53462,NCT05551273,Durban International CRS,South Africa,Durban,4091,-29.8579,31.0292,https://clinicaltrials.gov/api/v2/studies,2024-02-12T10:13:19.839Z
65c9d320cd713395fbb53464,NCT05551273,Joint Clinical Research Centre (JCRC)/Kampala Clinical Research Site,Uganda,Kampala,,0.31628,32.58219,https://clinicaltrials.gov/api/v2/studies,2024-02-12T10:13:19.839Z
65c9d320cd713395fbb53466,NCT05551273,Milton Park CRS,Zimbabwe,Milton Park,Harare,-17.81472,31.02472,https://clinicaltrials.gov/api/v2/studies,2024-02-12T10:13:19.839Z
65c9d320cd713395fbb53468,NCT03141060,Gaborone CRS,Botswana,Gaborone,South-East District,-24.65451,25.90859,https://clinicaltrials.gov/api/v2/studies,2024-02-12T10:13:18.644Z
65c9d320cd713395fbb5346a,NCT03141060,Molepolole CRS,Botswana,Gaborone,,-24.65451,25.90859,https://clinicaltrials.gov/api/v2/studies,2024-02-12T10:13:18.644Z
65c9d320cd713395fbb5346c,NCT03141060,Sizwe CRS,South Africa,Johannesburg,Gauteng,-26.20227,28.04363,https://clinicaltrials.gov/api/v2/studies,2024-02-12T10:13:18.644Z
65c9d320cd713395fbb5346e,NCT03141060,PHRU Matlosana CRS,South Africa,Klerksdorp,North West Province 2574,-26.85213,26.66672,https://clinicaltrials.gov/api/v2/studies,2024-02-12T10:13:18.644Z
65c9d320cd713395fbb53470,NCT03141060,Desmond Tutu TB Centre - Stellenbosch University (DTTC-SU) CRS,South Africa,Cape Town,Western Cape Province 7505,-33.92584,18.42322,https://clinicaltrials.gov/api/v2/studies,2024-02-12T10:13:18.644Z
65c9d320cd713395fbb53472,NCT03141060,Kilimanjaro Christian Medical Centre (KCMC),Tanzania,Moshi,,-3.35,37.33333,https://clinicaltrials.gov/api/v2/studies,2024-02-12T10:13:18.644Z
65c9d320cd713395fbb53474,NCT00108862,Gaborone Prevention/Treatment Trials CRS (12701),Botswana,Gaborone,,-24.65451,25.90859,https://clinicaltrials.gov/api/v2/studies,2024-02-12T10:13:19.839Z
65c9d320cd713395fbb53476,NCT00108862,Molepolole Prevention/Treatment Trials CRS (12702),Botswana,Molepolole,,-24.40659,25.49508,https://clinicaltrials.gov/api/v2/studies,2024-02-12T10:13:19.839Z
65c9d320cd713395fbb53478,NCT00108862,AMPATH at Moi Univ. Teaching Hosp. Eldoret CRS (12601),Kenya,Eldoret,30100,0.52036,35.26993,https://clinicaltrials.gov/api/v2/studies,2024-02-12T10:13:19.839Z
65c9d320cd713395fbb5347a,NCT00108862,Walter Reed Project - Kenya Med. Research Institute Kericho CRS (12501),Kenya,Kericho,20200,-0.36774,35.28314,https://clinicaltrials.gov/api/v2/studies,2024-02-12T10:13:19.839Z
65c9d320cd713395fbb5347c,NCT00108862,College of Med. JHU CRS (30301),Malawi,Blantyre,,-15.78499,35.00854,https://clinicaltrials.gov/api/v2/studies,2024-02-12T10:13:19.839Z
65c9d320cd713395fbb5347e,NCT00108862,University of North Carolina Lilongwe CRS (12001),Malawi,Lilongwe,,-13.96692,33.78725,https://clinicaltrials.gov/api/v2/studies,2024-02-12T10:13:19.839Z
65c9d320cd713395fbb53480,NCT00108862,CAPRISA eThekwini CRS (31422),South Africa,Durban,KwaZulu-Natal 4011,-29.8579,31.0292,https://clinicaltrials.gov/api/v2/studies,2024-02-12T10:13:19.839Z
65c9d320cd713395fbb53482,NCT00108862,Durban Adult HIV CRS (11201),South Africa,Durban,4013 SF,-29.8579,31.0292,https://clinicaltrials.gov/api/v2/studies,2024-02-12T10:13:19.839Z
65c9d320cd713395fbb53484,NCT00108862,Soweto ACTG CRS (12301),South Africa,Johannesburg,,-26.20227,28.04363,https://clinicaltrials.gov/api/v2/studies,2024-02-12T10:13:19.839Z
65c9d320cd713395fbb53486,NCT00108862,Univ. of Witwatersrand CRS (11101),South Africa,Johannesburg,,-26.20227,28.04363,https://clinicaltrials.gov/api/v2/studies,2024-02-12T10:13:19.839Z
65c9d320cd713395fbb53488,NCT00108862,Joint Clinical Research Centre (JCRC) (12401),Uganda,Kampala,,0.31628,32.58219,https://clinicaltrials.gov/api/v2/studies,2024-02-12T10:13:19.839Z
65c9d320cd713395fbb5348a,NCT00108862,Kalingalinga Clinic CRS (12801),Zambia,Lusaka,,-15.40669,28.28713,https://clinicaltrials.gov/api/v2/studies,2024-02-12T10:13:19.839Z
65c9d320cd713395fbb5348c,NCT00108862,UZ-Parirenyatwa CRS (30313),Zimbabwe,Harare,,-17.82772,31.05337,https://clinicaltrials.gov/api/v2/studies,2024-02-12T10:13:19.839Z
65c9d320cd713395fbb5348e,NCT05605951,University of Botswana,Botswana,Gaborone,,-24.65451,25.90859,https://clinicaltrials.gov/api/v2/studies,2024-02-12T10:13:19.603Z
65c9d320cd713395fbb53490,NCT05605951,University Teaching Hospital in Lusaka,Zambia,Lusaka,,-15.40669,28.28713,https://clinicaltrials.gov/api/v2/studies,2024-02-12T10:13:19.603Z
65c9d320cd713395fbb53492,NCT01404312,Gaborone CRS,Botswana,Gaborone,,-24.65451,25.90859,https://clinicaltrials.gov/api/v2/studies,2024-02-12T10:13:19.839Z
65c9d320cd713395fbb53494,NCT01404312,Molepolole CRS,Botswana,Gaborone,,-24.65451,25.90859,https://clinicaltrials.gov/api/v2/studies,2024-02-12T10:13:19.839Z
65c9d320cd713395fbb53496,NCT01404312,Kisumu Crs,Kenya,Kisumu,Nyanza 40100,-0.10221,34.76171,https://clinicaltrials.gov/api/v2/studies,2024-02-12T10:13:19.839Z
65c9d320cd713395fbb53498,NCT01404312,Kenya Medical Research Institute/Walter Reed Project Clinical Research Center (KEMRI/WRP) CRS,Kenya,Kericho,Rift Valley 20200,-0.36774,35.28314,https://clinicaltrials.gov/api/v2/studies,2024-02-12T10:13:19.839Z
65c9d320cd713395fbb5349a,NCT01404312,Moi University Clinical Research Center (MUCRC) CRS,Kenya,Eldoret,30100,0.52036,35.26993,https://clinicaltrials.gov/api/v2/studies,2024-02-12T10:13:19.839Z
65c9d320cd713395fbb5349c,NCT01404312,Malawi CRS,Malawi,Lilongwe,Central,-13.96692,33.78725,https://clinicaltrials.gov/api/v2/studies,2024-02-12T10:13:19.839Z
65c9d320cd713395fbb5349e,NCT01404312,Blantyre CRS,Malawi,Blantyre,,-15.78499,35.00854,https://clinicaltrials.gov/api/v2/studies,2024-02-12T10:13:19.839Z
